{
  "shop": {
    "alcohol": [
      {
        "displayName": "Alko",
        "id": "alko-8768ac",
        "locationSet": {"include": ["fi"]},
        "oldid": "shop/alcohol|Alko",
        "tags": {
          "brand": "Alko",
          "brand:wikidata": "Q1849187",
          "brand:wikipedia": "en:Alko",
          "name": "Alko",
          "shop": "alcohol"
        }
      },
      {
        "displayName": "BC Liquor Store",
        "id": "bcliquorstore-ca44fe",
        "locationSet": {"include": ["ca"]},
        "oldid": "shop/alcohol|BC Liquor Store",
        "tags": {
          "brand": "BC Liquor Store",
          "brand:wikidata": "Q43079557",
          "brand:wikipedia": "en:BC Liquor Stores",
          "name": "BC Liquor Store",
          "shop": "alcohol"
        }
      },
      {
        "displayName": "BWS",
        "id": "bws-372ce4",
        "locationSet": {"include": ["au"]},
        "oldid": "shop/alcohol|BWS",
        "tags": {
          "brand": "BWS",
          "brand:wikidata": "Q4836848",
          "brand:wikipedia": "en:BWS (liquor retailer)",
          "name": "BWS",
          "shop": "alcohol"
        }
      },
      {
        "displayName": "Bargain Booze",
        "id": "bargainbooze-a3462e",
        "locationSet": {"include": ["gb"]},
        "oldid": "shop/alcohol|Bargain Booze",
        "tags": {
          "brand": "Bargain Booze",
          "brand:wikidata": "Q16971315",
          "brand:wikipedia": "en:Bargain Booze",
          "name": "Bargain Booze",
          "shop": "alcohol"
        }
      },
      {
        "displayName": "BevMo!",
        "id": "bevmo-5b5c57",
        "locationSet": {"include": ["us"]},
        "oldid": "shop/alcohol|BevMo!",
        "tags": {
          "brand": "BevMo!",
          "brand:wikidata": "Q4899308",
          "brand:wikipedia": "en:BevMo!",
          "name": "BevMo!",
          "shop": "alcohol"
        }
      },
      {
        "displayName": "Cellarbrations",
        "id": "cellarbrations-372ce4",
        "locationSet": {"include": ["au"]},
        "oldid": "shop/alcohol|Cellarbrations",
        "tags": {
          "brand": "Cellarbrations",
          "name": "Cellarbrations",
          "shop": "alcohol"
        }
      },
      {
        "displayName": "Dan Murphy's",
        "id": "danmurphys-372ce4",
        "locationSet": {"include": ["au"]},
        "oldid": "shop/alcohol|Dan Murphy's",
        "tags": {
          "brand": "Dan Murphy's",
          "brand:wikidata": "Q5214075",
          "brand:wikipedia": "en:Dan Murphy's",
          "name": "Dan Murphy's",
          "shop": "alcohol"
        }
      },
      {
        "displayName": "Fine Wine & Good Spirits",
        "id": "finewineandgoodspirits-5b5c57",
        "locationSet": {"include": ["us"]},
        "oldid": "shop/alcohol|Fine Wine & Good Spirits",
        "tags": {
          "brand": "Fine Wine & Good Spirits",
          "brand:wikidata": "Q64514776",
          "name": "Fine Wine & Good Spirits",
          "shop": "alcohol"
        }
      },
      {
        "displayName": "Gall & Gall",
        "id": "gallandgall-0aff60",
        "locationSet": {"include": ["nl"]},
        "oldid": "shop/alcohol|Gall & Gall",
        "tags": {
          "brand": "Gall & Gall",
          "brand:wikidata": "Q13639185",
          "brand:wikipedia": "nl:Gall & Gall",
          "name": "Gall & Gall",
          "shop": "alcohol"
        }
      },
      {
        "displayName": "LCBO",
        "id": "lcbo-ca44fe",
        "locationSet": {"include": ["ca"]},
        "oldid": "shop/alcohol|LCBO",
        "tags": {
          "brand": "LCBO",
          "brand:wikidata": "Q845263",
          "brand:wikipedia": "en:Liquor Control Board of Ontario",
          "name": "LCBO",
          "shop": "alcohol"
        }
      },
      {
        "displayName": "Liquor Depot",
        "id": "liquordepot-ca44fe",
        "locationSet": {"include": ["ca"]},
        "oldid": "shop/alcohol|Liquor Depot",
        "tags": {
          "brand": "Liquor Depot",
          "name": "Liquor Depot",
          "shop": "alcohol"
        }
      },
      {
        "displayName": "Liquorland",
        "id": "liquorland-372ce4",
        "locationSet": {"include": ["au"]},
        "oldid": "shop/alcohol|Liquorland",
        "tags": {
          "brand": "Liquorland",
          "brand:wikidata": "Q2283837",
          "brand:wikipedia": "en:Liquorland",
          "name": "Liquorland",
          "shop": "alcohol"
        }
      },
      {
        "displayName": "Majestic",
        "id": "majestic-a3462e",
        "locationSet": {"include": ["gb"]},
        "matchNames": [
          "majestic wine",
          "majestic wine warehouse"
        ],
        "oldid": "shop/alcohol|Majestic",
        "tags": {
          "brand": "Majestic",
          "brand:wikidata": "Q6737725",
          "brand:wikipedia": "en:Majestic Wine",
          "name": "Majestic",
          "shop": "alcohol"
        }
      },
      {
        "displayName": "Mitra",
        "id": "mitra-0aff60",
        "locationSet": {"include": ["nl"]},
        "oldid": "shop/alcohol|Mitra",
        "tags": {
          "brand": "Mitra",
          "name": "Mitra",
          "shop": "alcohol"
        }
      },
      {
        "displayName": "NSLC",
        "id": "nslc-35d29e",
        "locationSet": {"include": ["001"]},
        "oldid": "shop/alcohol|NSLC",
        "tags": {
          "brand": "NSLC",
          "name": "NSLC",
          "shop": "alcohol"
        }
      },
      {
        "displayName": "Nicolas",
        "id": "nicolas-0f5335",
        "locationSet": {
          "include": ["be", "fr", "gb"]
        },
        "oldid": "shop/alcohol|Nicolas",
        "tags": {
          "brand": "Nicolas",
          "brand:wikidata": "Q3340012",
          "brand:wikipedia": "en:Nicolas (wine retailer)",
          "name": "Nicolas",
          "shop": "alcohol"
        }
      },
      {
        "displayName": "Oddbins",
        "id": "oddbins-a3462e",
        "locationSet": {"include": ["gb"]},
        "oldid": "shop/alcohol|Oddbins",
        "tags": {
          "brand": "Oddbins",
          "brand:wikidata": "Q7077472",
          "brand:wikipedia": "en:Oddbins",
          "name": "Oddbins",
          "shop": "alcohol"
        }
      },
      {
        "displayName": "SAQ",
        "id": "saq-ca44fe",
        "locationSet": {"include": ["ca"]},
        "nomatch": [
          "shop/alcohol|SAQ Express",
          "shop/alcohol|SAQ Sélection"
        ],
        "oldid": "shop/alcohol|SAQ",
        "tags": {
          "brand": "SAQ",
          "brand:wikidata": "Q3488077",
          "brand:wikipedia": "en:Société des alcools du Québec",
          "name": "SAQ",
          "shop": "alcohol"
        }
      },
      {
        "displayName": "SAQ Express",
        "id": "saqexpress-ca44fe",
        "locationSet": {"include": ["ca"]},
        "nomatch": [
          "shop/alcohol|SAQ",
          "shop/alcohol|SAQ Sélection"
        ],
        "oldid": "shop/alcohol|SAQ Express",
        "tags": {
          "brand": "SAQ Express",
          "brand:wikidata": "Q3488077",
          "brand:wikipedia": "en:Société des alcools du Québec",
          "name": "SAQ Express",
          "shop": "alcohol"
        }
      },
      {
        "displayName": "SAQ Sélection",
        "id": "saqselection-ca44fe",
        "locationSet": {"include": ["ca"]},
        "nomatch": [
          "shop/alcohol|SAQ",
          "shop/alcohol|SAQ Express"
        ],
        "oldid": "shop/alcohol|SAQ Sélection",
        "tags": {
          "brand": "SAQ Sélection",
          "brand:wikidata": "Q3488077",
          "brand:wikipedia": "en:Société des alcools du Québec",
          "name": "SAQ Sélection",
          "shop": "alcohol"
        }
      },
      {
        "displayName": "Spec's",
        "id": "specs-5b5c57",
        "locationSet": {"include": ["us"]},
        "oldid": "shop/alcohol|Spec's",
        "tags": {
          "brand": "Spec's",
          "brand:wikidata": "Q7574415",
          "brand:wikipedia": "en:Spec's Wine, Spirits & Finer Foods",
          "name": "Spec's",
          "shop": "alcohol"
        }
      },
      {
        "displayName": "Super Liquor",
        "id": "superliquor-8856ca",
        "locationSet": {"include": ["nz"]},
        "oldid": "shop/alcohol|Super Liquor",
        "tags": {
          "brand": "Super Liquor",
          "name": "Super Liquor",
          "shop": "alcohol"
        }
      },
      {
        "displayName": "Systembolaget",
        "id": "systembolaget-2318b3",
        "locationSet": {"include": ["se"]},
        "oldid": "shop/alcohol|Systembolaget",
        "tags": {
          "brand": "Systembolaget",
          "brand:wikidata": "Q1476113",
          "brand:wikipedia": "en:Systembolaget",
          "name": "Systembolaget",
          "shop": "alcohol"
        }
      },
      {
        "displayName": "The Beer Store",
        "id": "thebeerstore-ca44fe",
        "locationSet": {"include": ["ca"]},
        "oldid": "shop/alcohol|The Beer Store",
        "tags": {
          "brand": "The Beer Store",
          "brand:wikidata": "Q16243674",
          "brand:wikipedia": "en:The Beer Store",
          "name": "The Beer Store",
          "shop": "alcohol"
        }
      },
      {
        "displayName": "Thirsty Camel",
        "id": "thirstycamel-372ce4",
        "locationSet": {"include": ["au"]},
        "oldid": "shop/alcohol|Thirsty Camel",
        "tags": {
          "brand": "Thirsty Camel",
          "name": "Thirsty Camel",
          "shop": "alcohol"
        }
      },
      {
        "displayName": "Tops",
        "id": "tops-35d29e",
        "locationSet": {"include": ["001"]},
        "oldid": "shop/alcohol|Tops",
        "tags": {
          "brand": "Tops",
          "name": "Tops",
          "shop": "alcohol"
        }
      },
      {
        "displayName": "Total Wine",
        "id": "totalwine-5b5c57",
        "locationSet": {"include": ["us"]},
        "oldid": "shop/alcohol|Total Wine",
        "tags": {
          "brand": "Total Wine",
          "brand:wikidata": "Q7828084",
          "brand:wikipedia": "en:Total Wine & More",
          "name": "Total Wine",
          "official_name": "Total Wine & More",
          "shop": "alcohol"
        }
      },
      {
        "displayName": "Virginia ABC",
        "id": "virginiaabc-5b5c57",
        "locationSet": {"include": ["us"]},
        "oldid": "shop/alcohol|Virginia ABC",
        "tags": {
          "brand": "Virginia ABC",
          "brand:wikidata": "Q7934236",
          "brand:wikipedia": "en:Virginia Alcoholic Beverage Control Authority",
          "name": "Virginia ABC",
          "shop": "alcohol"
        }
      },
      {
        "displayName": "Алкомаркет",
        "id": "аnкомаркет-fb2d50",
        "locationSet": {"include": ["kz"]},
        "oldid": "shop/alcohol|Алкомаркет",
        "tags": {
          "brand": "Алкомаркет",
          "name": "Алкомаркет",
          "shop": "alcohol"
        }
      },
      {
        "displayName": "Ароматный мир",
        "id": "ароматныймир-8123cc",
        "locationSet": {"include": ["ru"]},
        "oldid": "shop/alcohol|Ароматный мир",
        "tags": {
          "brand": "Ароматный мир",
          "name": "Ароматный мир",
          "shop": "alcohol"
        }
      },
      {
        "displayName": "Бристоль",
        "id": "бристоnь-8123cc",
        "locationSet": {"include": ["ru"]},
        "matchTags": ["shop/convenience"],
        "oldid": "shop/alcohol|Бристоль",
        "tags": {
          "brand": "Бристоль",
          "brand:wikidata": "Q59155583",
          "brand:wikipedia": "ru:Бристоль (сеть магазинов)",
          "name": "Бристоль",
          "shop": "alcohol"
        }
      },
      {
        "displayName": "Винлаб",
        "id": "винnаб-8123cc",
        "locationSet": {"include": ["ru"]},
        "oldid": "shop/alcohol|Винлаб",
        "tags": {
          "brand": "Винлаб",
          "name": "Винлаб",
          "shop": "alcohol"
        }
      },
      {
        "displayName": "Горилка",
        "id": "гориnка-f7ccc9",
        "locationSet": {"include": ["kz", "ru"]},
        "oldid": "shop/alcohol|Горилка",
        "tags": {
          "brand": "Горилка",
          "name": "Горилка",
          "shop": "alcohol"
        }
      },
      {
        "displayName": "Градус",
        "id": "градус-8123cc",
        "locationSet": {"include": ["ru"]},
        "oldid": "shop/alcohol|Градус",
        "tags": {
          "brand": "Градус",
          "name": "Градус",
          "shop": "alcohol"
        }
      },
      {
        "displayName": "Градусы",
        "id": "градусы-8123cc",
        "locationSet": {"include": ["ru"]},
        "oldid": "shop/alcohol|Градусы",
        "tags": {
          "brand": "Градусы",
          "name": "Градусы",
          "shop": "alcohol"
        }
      },
      {
        "displayName": "Красное & Белое",
        "id": "красноеandбеnое-8123cc",
        "locationSet": {"include": ["ru"]},
        "matchNames": ["красное и белое"],
        "oldid": "shop/alcohol|Красное & Белое",
        "tags": {
          "brand": "Красное & Белое",
          "brand:en": "Red&White",
          "brand:wikidata": "Q24933790",
          "brand:wikipedia": "en:Krasnoe & Beloe",
          "name": "Красное & Белое",
          "name:en": "Red&White",
          "shop": "alcohol"
        }
      },
      {
        "displayName": "Кристалл",
        "id": "кристаnn-cef152",
        "locationSet": {"include": ["by", "ru"]},
        "matchTags": ["shop/convenience"],
        "oldid": "shop/alcohol|Кристалл",
        "tags": {
          "brand": "Кристалл",
          "name": "Кристалл",
          "shop": "alcohol"
        }
      },
      {
        "displayName": "Лион",
        "id": "nион-8123cc",
        "locationSet": {"include": ["ru"]},
        "oldid": "shop/alcohol|Лион",
        "tags": {
          "brand": "Лион",
          "name": "Лион",
          "shop": "alcohol"
        }
      },
      {
        "displayName": "Норман",
        "id": "норман-8123cc",
        "locationSet": {"include": ["ru"]},
        "oldid": "shop/alcohol|Норман",
        "tags": {
          "brand": "Норман",
          "name": "Норман",
          "shop": "alcohol"
        }
      },
      {
        "displayName": "Отдохни",
        "id": "отдохни-8123cc",
        "locationSet": {"include": ["ru"]},
        "oldid": "shop/alcohol|Отдохни",
        "tags": {
          "brand": "Отдохни",
          "name": "Отдохни",
          "shop": "alcohol"
        }
      },
      {
        "displayName": "Чарка до свята",
        "id": "чаркадосвята-35d29e",
        "locationSet": {"include": ["001"]},
        "oldid": "shop/alcohol|Чарка до свята",
        "tags": {
          "brand": "Чарка до свята",
          "name": "Чарка до свята",
          "shop": "alcohol"
        }
      },
      {
        "displayName": "やまや",
        "id": "やまや-c353ca",
        "locationSet": {"include": ["jp"]},
        "oldid": "shop/alcohol|やまや",
        "tags": {
          "brand": "やまや",
          "brand:en": "Yamaya",
          "brand:ja": "やまや",
          "brand:wikidata": "Q17224765",
          "brand:wikipedia": "ja:やまや",
          "name": "やまや",
          "name:en": "YaMaYa",
          "name:ja": "やまや",
          "shop": "alcohol"
        }
      },
      {
        "displayName": "カクヤス",
        "id": "カクヤス-c353ca",
        "locationSet": {"include": ["jp"]},
        "oldid": "shop/alcohol|カクヤス",
        "tags": {
          "brand": "カクヤス",
          "brand:en": "Kakuyasu",
          "brand:ja": "カクヤス",
          "brand:wikidata": "Q11293990",
          "brand:wikipedia": "ja:カクヤス",
          "name": "カクヤス",
          "name:en": "Kakuyasu",
          "name:ja": "カクヤス",
          "shop": "alcohol"
        }
      },
      {
        "displayName": "リカーマウンテン",
        "id": "リカーマウンテン-c353ca",
        "locationSet": {"include": ["jp"]},
        "oldid": "shop/alcohol|リカーマウンテン",
        "tags": {
          "brand": "リカーマウンテン",
          "brand:en": "Liquor Mountain",
          "brand:ja": "リカーマウンテン",
          "brand:wikidata": "Q11347883",
          "brand:wikipedia": "ja:リカーマウンテン",
          "name": "リカーマウンテン",
          "name:en": "Liquor Mountain",
          "name:ja": "リカーマウンテン",
          "shop": "alcohol"
        }
      }
    ]
  }
}