{
  "shop": {
    "anime": [
      {
        "displayName": "まんだらけ",
        "id": "まんだらけ-0eb356",
        "locationSet": {"include": ["jp"]},
        "oldid": "shop/anime|まんだらけ",
        "tags": {
          "brand": "まんだらけ",
          "brand:en": "Mandarake",
          "brand:ja": "まんだらけ",
          "brand:wikidata": "Q6747833",
          "brand:wikipedia": "ja:まんだらけ",
          "name": "まんだらけ",
          "name:en": "Mandarake",
          "name:ja": "まんだらけ",
          "shop": "anime"
        }
      },
      {
        "displayName": "らしんばん",
        "id": "らしんばん-0eb356",
        "locationSet": {"include": ["jp"]},
        "oldid": "shop/anime|らしんばん",
        "tags": {
          "brand": "らしんばん",
          "brand:en": "Lashinbang",
          "brand:ja": "らしんばん",
          "brand:wikidata": "Q11281322",
          "brand:wikipedia": "ja:らしんばん",
          "name": "らしんばん",
          "name:en": "Lashinbang",
          "name:ja": "らしんばん",
          "shop": "anime"
        }
      },
      {
        "displayName": "ケイ・ブックス",
        "id": "ケイブックス-0eb356",
        "locationSet": {"include": ["jp"]},
        "matchNames": ["k-books"],
        "matchTags": ["shop/books"],
        "oldid": "shop/anime|ケイ・ブックス",
        "tags": {
          "brand": "ケイ・ブックス",
          "brand:en": "K-BOOKS",
          "brand:ja": "ケイ・ブックス",
          "brand:wikidata": "Q8061680",
          "brand:wikipedia": "ja:K-BOOKS",
          "name": "ケイ・ブックス",
          "name:en": "K-BOOKS",
          "name:ja": "ケイ・ブックス",
          "shop": "anime"
        }
      }
    ]
  }
}