{
  "shop/bookmaker|Betfred": {
    "count": 454,
    "countryCodes": ["gb"],
    "logos": {
      "wikidata": "https://commons.wikimedia.org/w/index.php?title=Special%3ARedirect%2Ffile%2FNew-betfred-logo.png&width=100",
      "twitter": "https://pbs.twimg.com/profile_images/1034363254758359041/dxetDfNN_bigger.jpg"
    },
    "tags": {
      "brand": "Betfred",
      "brand:wikidata": "Q4897425",
      "brand:wikipedia": "en:Betfred",
      "name": "Betfred",
      "shop": "bookmaker"
    }
  },
  "shop/bookmaker|Coral": {
    "count": 568,
    "countryCodes": ["gb"],
    "tags": {
      "brand": "Coral",
      "brand:wikidata": "Q54621344",
      "brand:wikipedia": "en:Coral (bookmaker)",
      "name": "Coral",
      "shop": "bookmaker"
    }
  },
  "shop/bookmaker|Fortuna": {
    "count": 77,
    "countryCodes": [
      "cz",
      "hr",
      "pl",
      "ro",
      "sk"
    ],
    "tags": {
      "brand": "Fortuna",
      "brand:wikidata": "Q25857973",
      "brand:wikipedia": "en:Fortuna Entertainment Group",
      "name": "Fortuna",
      "shop": "bookmaker"
    }
  },
  "shop/bookmaker|Ladbrokes": {
    "count": 757,
    "countryCodes": ["gb"],
    "logos": {
      "wikidata": "https://commons.wikimedia.org/w/index.php?title=Special%3ARedirect%2Ffile%2FLadbrokes%20Logo2.gif&width=100",
      "twitter": "https://pbs.twimg.com/profile_images/1037325155310161921/6E9Rvy3Y_bigger.jpg"
    },
    "tags": {
      "brand": "Ladbrokes",
      "brand:wikidata": "Q1799875",
      "brand:wikipedia": "en:Ladbrokes Coral",
      "name": "Ladbrokes",
      "shop": "bookmaker"
    }
  },
  "shop/bookmaker|Paddy Power": {
    "count": 181,
    "countryCodes": ["gb", "ie"],
    "logos": {
      "wikidata": "https://commons.wikimedia.org/w/index.php?title=Special%3ARedirect%2Ffile%2FPaddypowerplc.png&width=100",
      "twitter": "https://pbs.twimg.com/profile_images/964533060942299136/XCPfJNxf_bigger.jpg"
    },
    "tags": {
      "brand": "Paddy Power",
      "brand:wikidata": "Q3888718",
      "brand:wikipedia": "en:Paddy Power",
      "name": "Paddy Power",
      "shop": "bookmaker"
    }
  },
  "shop/bookmaker|Tipico": {
    "count": 59,
    "countryCodes": [
      "at",
      "co",
      "de",
      "gi",
      "hr",
      "mt"
    ],
    "logos": {
      "wikidata": "https://commons.wikimedia.org/w/index.php?title=Special%3ARedirect%2Ffile%2FTipico%20Unternehmenslogo.jpg&width=100"
    },
    "tags": {
      "brand": "Tipico",
      "brand:wikidata": "Q15851003",
      "brand:wikipedia": "en:Tipico",
      "name": "Tipico",
      "shop": "bookmaker"
    }
  },
  "shop/bookmaker|William Hill": {
    "count": 799,
    "countryCodes": ["gb"],
    "logos": {
      "twitter": "https://pbs.twimg.com/profile_images/797028677733253120/bW9oFXT-_bigger.jpg"
    },
    "tags": {
      "brand": "William Hill",
      "brand:wikidata": "Q4053147",
      "brand:wikipedia": "en:William Hill (bookmaker)",
      "name": "William Hill",
      "shop": "bookmaker"
    }
  },
  "shop/bookmaker|ΟΠΑΠ": {
    "count": 220,
    "countryCodes": ["gr"],
    "tags": {
      "brand": "ΟΠΑΠ",
      "brand:el": "ΟΠΑΠ",
      "brand:en": "OPAP",
      "brand:wikidata": "Q2007823",
      "brand:wikipedia": "en:OPAP",
      "name": "ΟΠΑΠ",
      "name:el": "ΟΠΑΠ",
      "name:en": "OPAP",
      "shop": "bookmaker"
    }
  },
  "shop/bookmaker|Лига ставок": {
    "count": 53,
    "countryCodes": ["ru"],
    "tags": {
      "brand": "Лига ставок",
      "brand:en": "Liga Stavok",
      "brand:ru": "Лига ставок",
      "brand:wikidata": "Q6545804",
      "brand:wikipedia": "ru:Лига Ставок",
      "name": "Лига ставок",
      "name:en": "Liga Stavok",
      "name:ru": "Лига ставок",
      "shop": "bookmaker"
    }
  },
  "shop/bookmaker|Фонбет": {
    "count": 70,
    "countryCodes": ["ru"],
    "logos": {
      "wikidata": "https://commons.wikimedia.org/w/index.php?title=Special%3ARedirect%2Ffile%2FFonbet%20logo.jpg&width=100"
    },
    "tags": {
      "brand": "Фонбет",
      "brand:en": "Fonbet",
      "brand:ru": "Фонбет",
      "brand:wikidata": "Q49137910",
      "brand:wikipedia": "ru:Фонбет",
      "name": "Фонбет",
      "name:en": "Fonbet",
      "name:ru": "Фонбет",
      "shop": "bookmaker"
    }
  }
}