{
  "shop": {
    "books": [
      {
        "displayName": "Akademibokhandeln",
        "id": "akademibokhandeln-fc02e8",
        "locationSet": {"include": ["se"]},
        "oldid": "shop/books|Akademibokhandeln",
        "tags": {
          "brand": "Akademibokhandeln",
          "brand:wikidata": "Q10403918",
          "brand:wikipedia": "sv:Akademibokhandeln",
          "name": "Akademibokhandeln",
          "shop": "books"
        }
      },
      {
        "displayName": "Akateeminen Kirjakauppa",
        "id": "akateeminenkirjakauppa-2dba9b",
        "locationSet": {"include": ["fi"]},
        "oldid": "shop/books|Akateeminen Kirjakauppa",
        "tags": {
          "brand": "Akateeminen Kirjakauppa",
          "brand:wikidata": "Q10403942",
          "brand:wikipedia": "fi:Akateeminen Kirjakauppa",
          "name": "Akateeminen Kirjakauppa",
          "shop": "books"
        }
      },
      {
        "displayName": "Barnes & Noble",
        "id": "barnesandnoble-2a5082",
        "locationSet": {"include": ["us"]},
        "oldid": "shop/books|Barnes & Noble",
        "tags": {
          "brand": "Barnes & Noble",
          "brand:wikidata": "Q795454",
          "brand:wikipedia": "en:Barnes & Noble",
          "name": "Barnes & Noble",
          "shop": "books"
        }
      },
      {
        "displayName": "Bertrand",
        "id": "bertrand-dbcc46",
        "locationSet": {"include": ["pt"]},
        "oldid": "shop/books|Bertrand",
        "tags": {
          "brand": "Bertrand",
          "brand:wikidata": "Q1866547",
          "brand:wikipedia": "en:Livraria Bertrand",
          "name": "Bertrand",
          "shop": "books"
        }
      },
      {
        "displayName": "Books-A-Million",
        "id": "booksamillion-2a5082",
        "locationSet": {"include": ["us"]},
        "oldid": "shop/books|Books-A-Million",
        "tags": {
          "brand": "Books-A-Million",
          "brand:wikidata": "Q4943266",
          "brand:wikipedia": "en:Books-A-Million",
          "name": "Books-A-Million",
          "shop": "books"
        }
      },
      {
        "displayName": "Bruna",
        "id": "bruna-86f2da",
        "locationSet": {"include": ["nl"]},
        "oldid": "shop/books|Bruna",
        "tags": {
          "brand": "Bruna",
          "brand:wikidata": "Q3317555",
          "brand:wikipedia": "en:Bruna (company)",
          "name": "Bruna",
          "shop": "books"
        }
      },
      {
        "displayName": "Chapters",
        "id": "chapters-5f3077",
        "locationSet": {"include": ["ca", "us"]},
        "oldid": "shop/books|Chapters",
        "tags": {
          "brand": "Chapters",
          "brand:wikidata": "Q5073540",
          "brand:wikipedia": "en:Chapters (bookstore)",
          "name": "Chapters",
          "shop": "books"
        }
      },
      {
        "displayName": "Christian Science Reading Room",
        "id": "christiansciencereadingroom-2a5082",
        "locationSet": {"include": ["us"]},
        "oldid": "shop/books|Christian Science Reading Room",
        "tags": {
          "books": "religion",
          "brand": "Christian Science Reading Room",
          "brand:wikidata": "Q5110122",
          "brand:wikipedia": "en:Christian Science Reading Room",
          "name": "Christian Science Reading Room",
          "shop": "books"
        }
      },
      {
        "displayName": "Coles",
        "id": "coles-df995d",
        "locationSet": {"include": ["ca"]},
        "nomatch": [
          "amenity/fuel|Coles Express",
          "shop/convenience|Coles Express",
          "shop/supermarket|Coles"
        ],
        "oldid": "shop/books|Coles",
        "tags": {
          "brand": "Coles",
          "brand:wikidata": "Q5144641",
          "brand:wikipedia": "en:Coles (bookstore)",
          "name": "Coles",
          "shop": "books"
        }
      },
      {
        "displayName": "Cultura",
        "id": "cultura-315122",
        "locationSet": {"include": ["fr"]},
        "oldid": "shop/books|Cultura",
        "tags": {
          "brand": "Cultura",
          "brand:wikidata": "Q3007154",
          "brand:wikipedia": "fr:Cultura",
          "name": "Cultura",
          "shop": "books"
        }
      },
      {
        "displayName": "Empik",
        "id": "empik-33879c",
        "locationSet": {"include": ["pl"]},
        "oldid": "shop/books|Empik",
        "tags": {
          "brand": "Empik",
          "brand:wikidata": "Q3045978",
          "brand:wikipedia": "pl:Empik",
          "name": "Empik",
          "shop": "books"
        }
      },
      {
        "displayName": "Fnac",
        "id": "fnac-7dcc17",
        "locationSet": {
          "include": [
            "be",
            "ch",
            "es",
            "fr",
            "nl",
            "pt"
          ]
        },
        "oldid": "shop/books|Fnac",
        "tags": {
          "brand": "Fnac",
          "brand:wikidata": "Q676585",
          "brand:wikipedia": "en:Fnac",
          "name": "Fnac",
          "shop": "books"
        }
      },
      {
        "displayName": "France Loisirs",
        "id": "franceloisirs-e6fa4d",
        "locationSet": {"include": ["001"]},
        "oldid": "shop/books|France Loisirs",
        "tags": {
          "brand": "France Loisirs",
          "brand:wikidata": "Q3080726",
          "brand:wikipedia": "fr:France Loisirs",
          "name": "France Loisirs",
          "shop": "books"
        }
      },
      {
        "displayName": "Gramedia",
        "id": "gramedia-14d8e0",
        "locationSet": {"include": ["id"]},
        "oldid": "shop/books|Gramedia",
        "tags": {
          "brand": "Gramedia",
          "brand:wikidata": "Q19646130",
          "brand:wikipedia": "id:Gramedia (toko buku)",
          "name": "Gramedia",
          "shop": "books"
        }
      },
      {
        "displayName": "Half Price Books",
        "id": "halfpricebooks-2a5082",
        "locationSet": {"include": ["us"]},
        "oldid": "shop/books|Half Price Books",
        "tags": {
          "brand": "Half Price Books",
          "brand:wikidata": "Q5641744",
          "brand:wikipedia": "en:Half Price Books",
          "name": "Half Price Books",
          "shop": "books"
        }
      },
      {
        "displayName": "Hugendubel",
        "id": "hugendubel-81f5e2",
        "locationSet": {"include": ["de"]},
        "oldid": "shop/books|Hugendubel",
        "tags": {
          "brand": "Hugendubel",
          "brand:wikidata": "Q1634142",
          "brand:wikipedia": "en:Hugendubel",
          "name": "Hugendubel",
          "shop": "books"
        }
      },
      {
        "displayName": "Indigo",
        "id": "indigo-5f3077",
        "locationSet": {"include": ["ca", "us"]},
        "nomatch": ["amenity/parking|Indigo"],
        "oldid": "shop/books|Indigo",
        "tags": {
          "alt_name": "!ndigo",
          "brand": "Indigo",
          "brand:wikidata": "Q2477358",
          "brand:wikipedia": "en:Indigo Books and Music",
          "name": "Indigo",
          "shop": "books"
        }
      },
      {
        "displayName": "Libro",
        "id": "libro-5647ab",
        "locationSet": {"include": ["at"]},
        "oldid": "shop/books|Libro",
        "tags": {
          "brand": "Libro",
          "brand:wikidata": "Q1823138",
          "brand:wikipedia": "de:Libro",
          "name": "Libro",
          "shop": "books"
        }
      },
      {
        "displayName": "Martinus",
        "id": "martinus-dd93be",
        "locationSet": {"include": ["sk"]},
        "oldid": "shop/books|Martinus",
        "tags": {
          "brand": "Martinus",
          "brand:wikidata": "Q15089074",
          "brand:wikipedia": "sk:Martinus",
          "name": "Martinus",
          "shop": "books"
        }
      },
      {
        "displayName": "Mondadori",
        "id": "mondadori-839336",
        "locationSet": {"include": ["it"]},
        "oldid": "shop/books|Mondadori",
        "tags": {
          "brand": "Mondadori",
          "brand:wikidata": "Q85355",
          "brand:wikipedia": "en:Arnoldo Mondadori Editore",
          "name": "Mondadori",
          "shop": "books"
        }
      },
      {
        "displayName": "National Book Store",
        "id": "nationalbookstore-6a6bb8",
        "locationSet": {"include": ["ph"]},
        "oldid": "shop/books|National Book Store",
        "tags": {
          "brand": "National Book Store",
          "brand:wikidata": "Q6971094",
          "brand:wikipedia": "en:National Book Store",
          "name": "National Book Store",
          "shop": "books"
        }
      },
      {
        "displayName": "Orell Füssli",
        "id": "orellfussli-e2262c",
        "locationSet": {"include": ["ch"]},
        "oldid": "shop/books|Orell Füssli",
        "tags": {
          "brand": "Orell Füssli",
          "brand:wikidata": "Q1511140",
          "brand:wikipedia": "de:Orell Füssli",
          "name": "Orell Füssli",
          "shop": "books"
        }
      },
      {
        "displayName": "Osiander",
        "id": "osiander-81f5e2",
        "locationSet": {"include": ["de"]},
        "oldid": "shop/books|Osiander",
        "tags": {
          "brand": "Osiander",
          "brand:wikidata": "Q1800686",
          "brand:wikipedia": "de:Osiandersche Buchhandlung",
          "name": "Osiander",
          "shop": "books"
        }
      },
      {
        "displayName": "Oxfam Bookshop",
        "id": "oxfambookshop-b96db7",
        "locationSet": {"include": ["gb"]},
        "oldid": "shop/books|Oxfam Bookshop",
        "tags": {
          "brand": "Oxfam Bookshop",
          "brand:wikidata": "Q7115196",
          "brand:wikipedia": "en:Oxfam bookshops",
          "name": "Oxfam Bookshop",
          "second_hand": "only",
          "shop": "books"
        }
      },
      {
        "displayName": "Panta Rhei",
        "id": "pantarhei-dd93be",
        "locationSet": {"include": ["sk"]},
        "oldid": "shop/books|Panta Rhei",
        "tags": {
          "brand": "Panta Rhei",
          "brand:wikidata": "Q93431299",
          "name": "Panta Rhei",
          "shop": "books"
        }
      },
      {
        "displayName": "Popular",
        "id": "popular-01c8c2",
        "locationSet": {
          "include": ["hk", "my", "sg"]
        },
        "matchTags": ["shop/stationery"],
        "nomatch": ["amenity/bank|Popular"],
        "oldid": "shop/books|Popular",
        "tags": {
          "brand": "Popular",
          "brand:wikidata": "Q4167785",
          "brand:wikipedia": "en:Popular Holdings",
          "brand:zh": "大众书局",
          "name": "Popular",
          "name:zh": "大众书局",
          "shop": "books"
        }
      },
      {
        "displayName": "Saraiva",
        "id": "saraiva-17d874",
        "locationSet": {"include": ["br"]},
        "oldid": "shop/books|Saraiva",
        "tags": {
          "alt_name": "Livraria Saraiva",
          "brand": "Saraiva",
          "brand:wikidata": "Q10319337",
          "brand:wikipedia": "pt:Livraria Saraiva",
          "name": "Saraiva",
          "shop": "books"
        }
      },
      {
        "displayName": "Seagull Book",
        "id": "seagullbook-2a5082",
        "locationSet": {"include": ["us"]},
        "oldid": "shop/books|Seagull Book",
        "tags": {
          "brand": "Seagull Book",
          "brand:wikidata": "Q7440458",
          "brand:wikipedia": "en:Seagull Book",
          "name": "Seagull Book",
          "shop": "books"
        }
      },
      {
        "displayName": "Standaard Boekhandel",
        "id": "standaardboekhandel-cfca33",
        "locationSet": {"include": ["be"]},
        "oldid": "shop/books|Standaard Boekhandel",
        "tags": {
          "brand": "Standaard Boekhandel",
          "brand:wikidata": "Q3496554",
          "brand:wikipedia": "nl:Standaard Boekhandel",
          "name": "Standaard Boekhandel",
          "shop": "books"
        }
      },
      {
        "displayName": "Suomalainen Kirjakauppa",
        "id": "suomalainenkirjakauppa-2dba9b",
        "locationSet": {"include": ["fi"]},
        "oldid": "shop/books|Suomalainen Kirjakauppa",
        "tags": {
          "brand": "Suomalainen Kirjakauppa",
          "brand:wikidata": "Q7641808",
          "brand:wikipedia": "fi:Suomalainen Kirjakauppa",
          "name": "Suomalainen Kirjakauppa",
          "shop": "books"
        }
      },
      {
        "displayName": "TSUTAYA",
        "id": "tsutaya-2662f0",
        "locationSet": {"include": ["jp"]},
        "nomatch": [
          "shop/music|TSUTAYA",
          "shop/video|TSUTAYA"
        ],
        "oldid": "shop/books|TSUTAYA",
        "tags": {
          "brand": "TSUTAYA",
          "brand:wikidata": "Q5193457",
          "brand:wikipedia": "ja:カルチュア・コンビニエンス・クラブ",
          "name": "TSUTAYA",
          "shop": "books"
        }
      },
      {
        "displayName": "Thalia",
        "id": "thalia-0ba14a",
        "locationSet": {"include": ["at", "de"]},
        "oldid": "shop/books|Thalia",
        "tags": {
          "brand": "Thalia",
          "brand:wikidata": "Q2408854",
          "brand:wikipedia": "de:Thalia Bücher",
          "name": "Thalia",
          "shop": "books"
        }
      },
      {
        "displayName": "The Works",
        "id": "theworks-59b092",
        "locationSet": {"include": ["gb", "ie"]},
        "oldid": "shop/books|The Works",
        "tags": {
          "brand": "The Works",
          "brand:wikidata": "Q7775853",
          "brand:wikipedia": "en:The Works (retailer)",
          "name": "The Works",
          "shop": "books"
        }
      },
      {
        "displayName": "WHSmith",
        "id": "whsmith-e6fa4d",
        "locationSet": {"include": ["001"]},
        "nomatch": ["shop/newsagent|WHSmith"],
        "oldid": "shop/books|WHSmith",
        "tags": {
          "brand": "WHSmith",
          "brand:wikidata": "Q1548712",
          "brand:wikipedia": "en:WHSmith",
          "name": "WHSmith",
          "shop": "books"
        }
      },
      {
        "displayName": "Waterstones",
        "id": "waterstones-db0a6a",
        "locationSet": {
          "include": [
            "be",
            "gb",
            "ie",
            "je",
            "nl"
          ]
        },
        "oldid": "shop/books|Waterstones",
        "tags": {
          "brand": "Waterstones",
          "brand:wikidata": "Q151779",
          "brand:wikipedia": "en:Waterstones",
          "name": "Waterstones",
          "shop": "books"
        }
      },
      {
        "displayName": "Weltbild",
        "id": "weltbild-81f5e2",
        "locationSet": {"include": ["de"]},
        "oldid": "shop/books|Weltbild",
        "tags": {
          "brand": "Weltbild",
          "brand:wikidata": "Q883522",
          "brand:wikipedia": "en:Weltbild Publishing Group",
          "name": "Weltbild",
          "shop": "books"
        }
      },
      {
        "displayName": "Буквоед",
        "id": "буквоед-9f0371",
        "locationSet": {"include": ["ru"]},
        "oldid": "shop/books|Буквоед",
        "tags": {
          "brand": "Буквоед",
          "brand:wikidata": "Q4098549",
          "brand:wikipedia": "ru:Буквоед",
          "name": "Буквоед",
          "shop": "books"
        }
      },
      {
        "displayName": "Дом книги",
        "id": "домкниги-9f0371",
        "locationSet": {"include": ["ru"]},
        "oldid": "shop/books|Дом книги",
        "tags": {
          "brand": "Дом книги",
          "brand:wikidata": "Q48950742",
          "brand:wikipedia": "ru:Московский дом книги",
          "name": "Дом книги",
          "shop": "books"
        }
      },
      {
        "displayName": "Читай-город",
        "id": "читайгород-9f0371",
        "locationSet": {"include": ["ru"]},
        "oldid": "shop/books|Читай-город",
        "tags": {
          "brand": "Читай-город",
          "brand:wikidata": "Q4516645",
          "brand:wikipedia": "ru:Читай-город",
          "name": "Читай-город",
          "shop": "books"
        }
      },
      {
        "displayName": "סטימצקי",
        "id": "סטימצקי-0dbce8",
        "locationSet": {"include": ["il"]},
        "oldid": "shop/books|סטימצקי",
        "tags": {
          "brand": "סטימצקי",
          "brand:en": "Steimatzky",
          "brand:he": "סטימצקי",
          "brand:wikidata": "Q2903995",
          "brand:wikipedia": "he:סטימצקי",
          "name": "סטימצקי",
          "name:en": "Steimatzky",
          "name:he": "סטימצקי",
          "shop": "books"
        }
      },
      {
        "displayName": "צומת ספרים",
        "id": "צומתספרים-0dbce8",
        "locationSet": {"include": ["il"]},
        "matchNames": ["zomet sfarim"],
        "oldid": "shop/books|צומת ספרים",
        "tags": {
          "brand": "צומת ספרים",
          "brand:en": "Tzomet Sfarim",
          "brand:he": "צומת ספרים",
          "brand:wikidata": "Q6743833",
          "brand:wikipedia": "he:צומת ספרים",
          "name": "צומת ספרים",
          "name:en": "Tzomet Sfarm",
          "name:he": "צומת ספרים",
          "shop": "books"
        }
      },
      {
        "displayName": "あおい書店",
        "id": "あおい書店-2662f0",
        "locationSet": {"include": ["jp"]},
        "oldid": "shop/books|あおい書店",
        "tags": {
          "brand": "あおい書店",
          "brand:en": "AOI",
          "brand:ja": "あおい書店",
          "brand:wikidata": "Q11256783",
          "brand:wikipedia": "ja:あおい書店",
          "name": "あおい書店",
          "name:en": "AOI",
          "name:ja": "あおい書店",
          "shop": "books"
        }
      },
      {
        "displayName": "くまざわ書店",
        "id": "くまざわ書店-2662f0",
        "locationSet": {"include": ["jp"]},
        "oldid": "shop/books|くまざわ書店",
        "tags": {
          "alt_name:en": "Kumabook",
          "brand": "くまざわ書店",
          "brand:en": "Kumazawa Books",
          "brand:ja": "くまざわ書店",
          "brand:wikidata": "Q11265517",
          "brand:wikipedia": "ja:くまざわ",
          "name": "くまざわ書店",
          "name:en": "Kumazawa Books",
          "name:ja": "くまざわ書店",
          "shop": "books"
        }
      },
      {
        "displayName": "とらのあな",
        "id": "とらのあな-2662f0",
        "locationSet": {"include": ["jp"]},
        "oldid": "shop/books|とらのあな",
        "tags": {
          "books": "comic",
          "brand": "とらのあな",
          "brand:en": "Toranoana",
          "brand:ja": "とらのあな",
          "brand:wikidata": "Q865297",
          "brand:wikipedia": "ja:コミックとらのあな",
          "name": "とらのあな",
          "name:en": "Comic Toranoana",
          "name:ja": "とらのあな",
          "shop": "books"
        }
      },
      {
        "displayName": "オリオン書房",
        "id": "オリオン書房-2662f0",
        "locationSet": {"include": ["jp"]},
        "oldid": "shop/books|オリオン書房",
        "tags": {
          "brand": "オリオン書房",
          "brand:en": "Orion Books",
          "brand:ja": "オリオン書房",
          "brand:wikidata": "Q11292597",
          "brand:wikipedia": "ja:オリオン書房",
          "name": "オリオン書房",
          "name:en": "Orion Books",
          "name:ja": "オリオン書房",
          "shop": "books"
        }
      },
      {
        "displayName": "ジュンク堂書店",
        "id": "ジュンク堂書店-2662f0",
        "locationSet": {"include": ["jp"]},
        "matchNames": ["ジュンク"],
        "oldid": "shop/books|ジュンク堂書店",
        "tags": {
          "brand": "ジュンク堂書店",
          "brand:en": "Junkudo",
          "brand:ja": "ジュンク堂書店",
          "brand:wikidata": "Q3190093",
          "brand:wikipedia": "ja:ジュンク堂書店",
          "name": "ジュンク堂書店",
          "name:en": "Junkudo",
          "name:ja": "ジュンク堂書店",
          "shop": "books"
        }
      },
      {
        "displayName": "ブックオフ",
        "id": "ブックオフ-2662f0",
        "locationSet": {"include": ["jp"]},
        "oldid": "shop/books|ブックオフ",
        "tags": {
          "brand": "ブックオフ",
          "brand:en": "Book Off",
          "brand:ja": "ブックオフ",
          "brand:wikidata": "Q893011",
          "brand:wikipedia": "en:Book Off",
          "name": "ブックオフ",
          "name:en": "Book Off",
          "name:ja": "ブックオフ",
          "shop": "books"
        }
      },
      {
        "displayName": "ブックファースト",
        "id": "ブックファースト-2662f0",
        "locationSet": {"include": ["jp"]},
        "matchNames": ["ブック最初"],
        "oldid": "shop/books|ブックファースト",
        "tags": {
          "brand": "ブックファースト",
          "brand:en": "Book1st",
          "brand:ja": "ブックファースト",
          "brand:wikidata": "Q11334365",
          "brand:wikipedia": "ja:ブックファースト",
          "name": "ブックファースト",
          "name:en": "Book1st",
          "name:ja": "ブックファースト",
          "shop": "books"
        }
      },
      {
        "displayName": "メロンブックス",
        "id": "メロンブックス-2662f0",
        "locationSet": {"include": ["jp"]},
        "oldid": "shop/books|メロンブックス",
        "tags": {
          "brand": "メロンブックス",
          "brand:en": "Melonbooks",
          "brand:ja": "メロンブックス",
          "brand:wikidata": "Q10851653",
          "brand:wikipedia": "ja:メロンブックス",
          "name": "メロンブックス",
          "name:en": "Melonbooks",
          "name:ja": "メロンブックス",
          "shop": "books"
        }
      },
      {
        "displayName": "リブロ",
        "id": "リブロ-2662f0",
        "locationSet": {"include": ["jp"]},
        "oldid": "shop/books|リブロ",
        "tags": {
          "brand": "リブロ",
          "brand:en": "LIBRO",
          "brand:ja": "リブロ",
          "brand:wikidata": "Q6542768",
          "brand:wikipedia": "ja:リブロ",
          "name": "リブロ",
          "name:en": "Libro",
          "name:ja": "リブロ",
          "shop": "books"
        }
      },
      {
        "displayName": "三省堂書店",
        "id": "三省堂書店-2662f0",
        "locationSet": {"include": ["jp"]},
        "oldid": "shop/books|三省堂書店",
        "tags": {
          "brand": "三省堂書店",
          "brand:en": "Books Sanseido",
          "brand:ja": "三省堂書店",
          "brand:wikidata": "Q10866539",
          "brand:wikipedia": "ja:三省堂書店",
          "name": "三省堂書店",
          "name:en": "Books Sanseido",
          "name:ja": "三省堂書店",
          "shop": "books"
        }
      },
      {
        "displayName": "丸善",
        "id": "丸善-2662f0",
        "locationSet": {"include": ["jp"]},
        "matchNames": ["丸善書店"],
        "oldid": "shop/books|丸善",
        "tags": {
          "brand": "丸善",
          "brand:en": "MARUZEN",
          "brand:ja": "丸善",
          "brand:wikidata": "Q1906012",
          "brand:wikipedia": "ja:丸善雄松堂",
          "name": "丸善",
          "name:en": "MARUZEN",
          "name:ja": "丸善",
          "official_name": "丸善雄松堂",
          "official_name:en": "Maruzen Yushodo",
          "official_name:ja": "丸善雄松堂",
          "shop": "books"
        }
      },
      {
        "displayName": "宮脇書店",
        "id": "宮脇書店-e6fa4d",
        "locationSet": {"include": ["001"]},
        "oldid": "shop/books|宮脇書店",
        "tags": {
          "brand": "宮脇書店",
          "brand:en": "Miyawaki Shoten",
          "brand:ja": "宮脇書店",
          "brand:wikidata": "Q11455237",
          "brand:wikipedia": "ja:宮脇書店",
          "name": "宮脇書店",
          "name:en": "Miyawaki Shoten",
          "name:ja": "宮脇書店",
          "shop": "books"
        }
      },
      {
        "displayName": "文教堂",
        "id": "文教堂-2662f0",
        "locationSet": {"include": ["jp"]},
        "matchNames": ["文教堂書店"],
        "oldid": "shop/books|文教堂",
        "tags": {
          "brand": "文教堂",
          "brand:en": "Bunkyodo",
          "brand:ja": "文教堂",
          "brand:wikidata": "Q11499974",
          "brand:wikipedia": "ja:文教堂",
          "name": "文教堂",
          "name:en": "Bunkyodo",
          "name:ja": "文教堂",
          "shop": "books"
        }
      },
      {
        "displayName": "新华书店",
        "id": "新华书店-56d415",
        "locationSet": {"include": ["cn"]},
        "oldid": "shop/books|新华书店",
        "tags": {
          "brand": "新华书店",
          "brand:en": "Xinhua Bookstore",
          "brand:wikidata": "Q6124193",
          "brand:wikipedia": "en:Xinhua Bookstore",
          "brand:zh": "新华书店",
          "name": "新华书店",
          "name:en": "Xinhua Bookstore",
          "name:zh": "新华书店",
          "shop": "books"
        }
      },
      {
        "displayName": "有隣堂",
        "id": "有隣堂-2662f0",
        "locationSet": {"include": ["jp"]},
        "oldid": "shop/books|有隣堂",
        "tags": {
          "brand": "有隣堂",
          "brand:en": "Yurindo",
          "brand:ja": "有隣堂",
          "brand:wikidata": "Q8061680",
          "brand:wikipedia": "ja:有隣堂",
          "name": "有隣堂",
          "name:en": "Yurindo",
          "name:ja": "有隣堂",
          "shop": "books"
        }
      },
      {
        "displayName": "未来屋書店",
        "id": "未来屋書店-2662f0",
        "locationSet": {"include": ["jp"]},
        "oldid": "shop/books|未来屋書店",
        "tags": {
          "brand": "未来屋書店",
          "brand:en": "Miraiya Shoten",
          "brand:ja": "未来屋書店",
          "brand:wikidata": "Q11519563",
          "brand:wikipedia": "ja:未来屋書店",
          "name": "未来屋書店",
          "name:en": "Miraiya Shoten",
          "name:ja": "未来屋書店",
          "shop": "books"
        }
      },
      {
        "displayName": "紀伊國屋書店",
        "id": "紀伊國屋書店-2662f0",
        "locationSet": {"include": ["jp"]},
        "oldid": "shop/books|紀伊國屋書店",
        "tags": {
          "brand": "紀伊國屋書店",
          "brand:en": "Books Kinokuniya",
          "brand:ja": "紀伊國屋書店",
          "brand:wikidata": "Q8061680",
          "brand:wikipedia": "ja:紀伊國屋書店",
          "name": "紀伊國屋書店",
          "name:en": "Books Kinokuniya",
          "name:ja": "紀伊國屋書店",
          "shop": "books"
        }
      },
      {
        "displayName": "西西弗书店",
        "id": "西西弗书店-56d415",
        "locationSet": {"include": ["cn"]},
        "oldid": "shop/books|西西弗书店",
        "tags": {
          "brand": "西西弗书店",
          "brand:en": "Sisyphe Bookstore",
          "brand:wikidata": "Q15904402",
          "brand:wikipedia": "zh:西西弗书店",
          "brand:zh": "西西弗书店",
          "name": "西西弗书店",
          "name:en": "Sisyphe Bookstore",
          "name:zh": "西西弗书店",
          "shop": "books"
        }
      },
      {
        "displayName": "言几又",
        "id": "言几又-56d415",
        "locationSet": {"include": ["cn"]},
        "oldid": "shop/books|言几又",
        "tags": {
          "brand": "言几又",
          "brand:en": "Yan Ji You",
          "brand:wikidata": "Q56419889",
          "brand:wikipedia": "zh:言几又",
          "brand:zh": "言几又",
          "name": "言几又",
          "name:en": "Yan Ji You",
          "name:zh": "言几又",
          "shop": "books"
        }
      }
    ]
  }
}