{
  "shop/car_parts|Advance Auto Parts": {
    "count": 675,
    "countryCodes": ["ca", "pr", "us", "vi"],
    "logos": {
      "wikidata": "https://commons.wikimedia.org/w/index.php?title=Special%3ARedirect%2Ffile%2FLogo%20of%20Advance%20Auto%20Parts.svg&width=100"
    },
    "match": [
      "shop/car_repair|Advance Auto Parts"
    ],
    "tags": {
      "brand": "Advance Auto Parts",
      "brand:wikidata": "Q4686051",
      "brand:wikipedia": "en:Advance Auto Parts",
      "name": "Advance Auto Parts",
      "shop": "car_parts"
    }
  },
  "shop/car_parts|AutoZone": {
    "count": 928,
    "countryCodes": ["br", "mx", "us"],
    "logos": {
      "wikidata": "https://commons.wikimedia.org/w/index.php?title=Special%3ARedirect%2Ffile%2FLogo%20of%20AutoZone.png&width=100"
    },
    "match": [
      "shop/car_parts|Auto Zone",
      "shop/car_parts|Autozone",
      "shop/car_repair|Auto Zone",
      "shop/car_repair|AutoZone",
      "shop/car_repair|Autozone"
    ],
    "tags": {
      "brand": "AutoZone",
      "brand:wikidata": "Q4826087",
      "brand:wikipedia": "en:AutoZone",
      "name": "AutoZone",
      "shop": "car_parts"
    }
  },
  "shop/car_parts|Brezan": {
    "count": 95,
    "countryCodes": ["be", "nl"],
    "tags": {
      "brand": "Brezan",
      "name": "Brezan",
      "shop": "car_parts"
    }
  },
  "shop/car_parts|Halfords": {
    "count": 128,
    "countryCodes": ["gb", "ie"],
    "logos": {
      "twitter": "https://pbs.twimg.com/profile_images/894829428764704768/XprrrJyW_bigger.jpg"
    },
    "match": ["shop/bicycle|Halfords"],
    "nomatch": [
      "shop/car_repair|Halfords Autocentre"
    ],
    "tags": {
      "brand": "Halfords",
      "brand:wikidata": "Q3398786",
      "brand:wikipedia": "en:Halfords",
      "name": "Halfords",
      "service:bicycle:retail": "yes",
      "shop": "car_parts"
    }
  },
  "shop/car_parts|Lubrificantes": {
    "count": 82,
    "tags": {
      "brand": "Lubrificantes",
      "name": "Lubrificantes",
      "shop": "car_parts"
    }
  },
  "shop/car_parts|NAPA Auto Parts": {
    "count": 466,
    "countryCodes": ["ca", "mx", "us"],
    "logos": {
      "wikidata": "https://commons.wikimedia.org/w/index.php?title=Special%3ARedirect%2Ffile%2FLogo%20of%20the%20National%20Automotive%20Parts%20Association.svg&width=100",
      "twitter": "https://pbs.twimg.com/profile_images/877735026703519744/4gppscV7_bigger.jpg"
    },
    "match": [
      "shop/car_parts|NAPA",
      "shop/car_parts|Napa Auto Parts",
      "shop/car_repair|NAPA Auto Parts",
      "shop/car_repair|Napa Auto Parts"
    ],
    "tags": {
      "brand": "NAPA Auto Parts",
      "brand:wikidata": "Q6970842",
      "brand:wikipedia": "en:National Automotive Parts Association",
      "name": "NAPA Auto Parts",
      "operator": "Genuine Parts Company",
      "operator:wikidata": "Q5533818",
      "operator:wikipedia": "en:Genuine Parts Company",
      "shop": "car_parts"
    }
  },
  "shop/car_parts|O'Reilly Auto Parts": {
    "count": 753,
    "countryCodes": ["us"],
    "match": [
      "shop/car_repair|O'Reilly Auto Parts"
    ],
    "tags": {
      "brand": "O'Reilly Auto Parts",
      "brand:wikidata": "Q7071951",
      "brand:wikipedia": "en:O'Reilly Auto Parts",
      "name": "O'Reilly Auto Parts",
      "shop": "car_parts"
    }
  },
  "shop/car_parts|Repco": {
    "count": 107,
    "countryCodes": ["au", "nz"],
    "tags": {
      "brand": "Repco",
      "brand:wikidata": "Q173425",
      "brand:wikipedia": "en:Repco",
      "name": "Repco",
      "shop": "car_parts"
    }
  },
  "shop/car_parts|Supercheap Auto": {
    "count": 63,
    "countryCodes": ["au", "nz"],
    "tags": {
      "brand": "Supercheap Auto",
      "brand:wikidata": "Q7643119",
      "brand:wikipedia": "en:Supercheap Auto",
      "name": "Supercheap Auto",
      "shop": "car_parts"
    }
  },
  "shop/car_parts|Tokić": {
    "count": 61,
    "countryCodes": ["ba", "hr"],
    "tags": {
      "brand": "Tokić",
      "name": "Tokić",
      "shop": "car_parts"
    }
  },
  "shop/car_parts|Автомир": {
    "count": 78,
    "countryCodes": ["ru"],
    "tags": {
      "brand": "Автомир",
      "brand:wikidata": "Q4056321",
      "brand:wikipedia": "ru:Автомир (автодилер)",
      "name": "Автомир",
      "shop": "car_parts"
    }
  },
  "shop/car_parts|Армтек": {
    "count": 87,
    "countryCodes": ["ru"],
    "tags": {
      "brand": "Армтек",
      "name": "Армтек",
      "shop": "car_parts"
    }
  },
  "shop/car_parts|イエローハット": {
    "count": 128,
    "countryCodes": ["jp"],
    "tags": {
      "brand": "イエローハット",
      "brand:en": "Yellow Hat",
      "brand:ja": "イエローハット",
      "brand:wikidata": "Q11285915",
      "brand:wikipedia": "ja:イエローハット",
      "name": "イエローハット",
      "name:en": "Yellow Hat",
      "name:ja": "イエローハット",
      "shop": "car_parts"
    }
  },
  "shop/car_parts|オートバックス": {
    "count": 120,
    "countryCodes": ["jp"],
    "logos": {
      "wikidata": "https://commons.wikimedia.org/w/index.php?title=Special%3ARedirect%2Ffile%2FAutobacs%20Seven%20%E3%82%AA%E3%83%BC%E3%83%88%E3%83%90%E3%83%83%E3%82%AF%E3%82%B9%E7%9C%8B%E6%9D%BF.JPG&width=100",
      "twitter": "https://pbs.twimg.com/profile_images/898398595002417154/CgR8Rgjd_bigger.jpg"
    },
    "tags": {
      "brand": "オートバックス",
      "brand:en": "Autobacs",
      "brand:ja": "オートバックス",
      "brand:wikidata": "Q7886426",
      "brand:wikipedia": "ja:オートバックスセブン",
      "name": "オートバックス",
      "name:en": "Autobacs",
      "name:ja": "オートバックス",
      "shop": "car_parts"
    }
  },
  "shop/car_parts|タイヤ館": {
    "count": 108,
    "countryCodes": ["jp"],
    "tags": {
      "brand": "タイヤ館",
      "brand:en": "Taiyakan",
      "brand:ja": "タイヤ館",
      "brand:wikidata": "Q11315808",
      "brand:wikipedia": "ja:タイヤ館",
      "name": "タイヤ館",
      "name:en": "Taiyakan",
      "name:ja": "タイヤ館",
      "shop": "car_parts"
    }
  }
}