{
  "shop": {
    "confectionery": [
      {
        "displayName": "Adyar Ananda Bhavan",
        "id": "adyaranandabhavan-7daee2",
        "locationSet": {"include": ["in"]},
        "matchTags": ["amenity/restaurant"],
        "oldid": "shop/confectionery|Adyar Ananda Bhavan",
        "tags": {
          "brand": "Adyar Ananda Bhavan",
          "brand:wikidata": "Q15178238",
          "brand:wikipedia": "en:Adyar Ananda Bhavan",
          "name": "Adyar Ananda Bhavan",
          "shop": "confectionery"
        }
      },
      {
        "displayName": "El Rincón",
        "id": "elrincon-28e0fa",
        "locationSet": {"include": ["es"]},
        "matchNames": ["frutos secos el rincón"],
        "oldid": "shop/confectionery|El Rincón",
        "tags": {
          "brand": "El Rincón",
          "brand:wikidata": "Q98456614",
          "name": "El Rincón",
          "shop": "confectionery"
        }
      },
      {
        "displayName": "El Rincón & Coffee",
        "id": "elrinconandcoffee-28e0fa",
        "locationSet": {"include": ["es"]},
        "matchTags": ["amenity/cafe"],
        "oldid": "shop/confectionery|El Rincón & Coffee",
        "tags": {
          "amenity": "cafe",
          "brand": "El Rincón",
          "brand:wikidata": "Q98456614",
          "name": "El Rincón & Coffee",
          "shop": "confectionery"
        }
      },
      {
        "displayName": "Hemmakvall",
        "id": "hemmakvall-4f7dbb",
        "locationSet": {"include": ["se"]},
        "oldid": "shop/confectionery|Hemmakvall",
        "tags": {
          "brand": "Hemmakväll",
          "brand:wikidata": "Q10521791",
          "brand:wikipedia": "sv:Hemmakväll",
          "name": "Hemmakväll",
          "shop": "confectionery"
        }
      },
      {
        "displayName": "Hotel Chocolat",
        "id": "hotelchocolat-cadec8",
        "locationSet": {"include": ["gb"]},
        "oldid": "shop/confectionery|Hotel Chocolat",
        "tags": {
          "brand": "Hotel Chocolat",
          "brand:wikidata": "Q5911369",
          "brand:wikipedia": "en:Hotel Chocolat",
          "name": "Hotel Chocolat",
          "shop": "confectionery"
        }
      },
      {
        "displayName": "Hussel",
        "id": "hussel-60f48c",
        "locationSet": {"include": ["at", "de"]},
        "oldid": "shop/confectionery|Hussel",
        "tags": {
          "brand": "Hussel",
          "brand:wikidata": "Q17123688",
          "brand:wikipedia": "de:Hussel",
          "name": "Hussel",
          "shop": "confectionery"
        }
      },
      {
        "displayName": "Jamin",
        "id": "jamin-28d423",
        "locationSet": {"include": ["nl"]},
        "oldid": "shop/confectionery|Jamin",
        "tags": {
          "brand": "Jamin",
          "brand:wikidata": "Q2291848",
          "brand:wikipedia": "nl:Jamin",
          "name": "Jamin",
          "shop": "confectionery"
        }
      },
      {
        "displayName": "Kilwins",
        "id": "kilwins-3a4217",
        "locationSet": {"include": ["us"]},
        "matchTags": ["amenity/ice_cream"],
        "oldid": "shop/confectionery|Kilwins",
        "tags": {
          "brand": "Kilwins",
          "brand:wikidata": "Q38250832",
          "brand:wikipedia": "en:Kilwins",
          "cuisine": "chocolate;ice_cream;popcorn",
          "name": "Kilwins",
          "shop": "confectionery"
        }
      },
      {
        "displayName": "Rocky Mountain Chocolate Factory",
        "id": "rockymountainchocolatefactory-7e0b30",
        "locationSet": {"include": ["ca", "us"]},
        "oldid": "shop/confectionery|Rocky Mountain Chocolate Factory",
        "tags": {
          "brand": "Rocky Mountain Chocolate Factory",
          "brand:wikidata": "Q7355878",
          "brand:wikipedia": "en:Rocky Mountain Chocolate Factory",
          "name": "Rocky Mountain Chocolate Factory",
          "shop": "confectionery"
        }
      },
      {
        "displayName": "See's Candies",
        "id": "seescandies-3a4217",
        "locationSet": {"include": ["us"]},
        "matchNames": ["sees candy"],
        "oldid": "shop/confectionery|See's Candies",
        "tags": {
          "brand": "See's Candies",
          "brand:wikidata": "Q2103510",
          "brand:wikipedia": "en:See's Candies",
          "name": "See's Candies",
          "shop": "confectionery"
        }
      },
      {
        "displayName": "T. SN",
        "id": "tsn-4f1dbc",
        "locationSet": {"include": ["ec"]},
        "oldid": "shop/confectionery|T. SN",
        "tags": {
          "brand": "T. SN",
          "name": "T. SN",
          "shop": "confectionery"
        }
      },
      {
        "displayName": "Thorntons",
        "id": "thorntons-cadec8",
        "locationSet": {"include": ["gb"]},
        "oldid": "shop/confectionery|Thorntons",
        "tags": {
          "brand": "Thorntons",
          "brand:wikidata": "Q683102",
          "brand:wikipedia": "en:Thorntons",
          "name": "Thorntons",
          "shop": "confectionery"
        }
      },
      {
        "displayName": "Вацак",
        "id": "вацак-39e236",
        "locationSet": {"include": ["ua"]},
        "oldid": "shop/confectionery|Вацак",
        "tags": {
          "brand": "Вацак",
          "brand:wikidata": "Q30966576",
          "brand:wikipedia": "uk:Кондитерський Дім «Вацак»",
          "name": "Вацак",
          "shop": "confectionery"
        }
      },
      {
        "displayName": "Красный пищевик",
        "id": "красныйпищевик-8864a2",
        "locationSet": {"include": ["by"]},
        "matchTags": ["shop/pastry"],
        "oldid": "shop/confectionery|Красный пищевик",
        "tags": {
          "brand": "Красный пищевик",
          "brand:wikidata": "Q61742027",
          "brand:wikipedia": "ru:Красный пищевик",
          "name": "Красный пищевик",
          "shop": "confectionery"
        }
      },
      {
        "displayName": "Лакомка",
        "id": "nакомка-a755cf",
        "locationSet": {"include": ["001"]},
        "oldid": "shop/confectionery|Лакомка",
        "tags": {
          "brand": "Лакомка",
          "name": "Лакомка",
          "shop": "confectionery"
        }
      },
      {
        "displayName": "おかしのまちおか",
        "id": "おかしのまちおか-396b54",
        "locationSet": {"include": ["jp"]},
        "oldid": "shop/confectionery|おかしのまちおか",
        "tags": {
          "brand": "おかしのまちおか",
          "brand:ja": "おかしのまちおか",
          "name": "おかしのまちおか",
          "name:ja": "おかしのまちおか",
          "shop": "confectionery"
        }
      },
      {
        "displayName": "シャトレーゼ",
        "id": "シャトレーゼ-396b54",
        "locationSet": {"include": ["jp"]},
        "oldid": "shop/confectionery|シャトレーゼ",
        "tags": {
          "brand": "シャトレーゼ",
          "brand:en": "Chateraise",
          "brand:ja": "シャトレーゼ",
          "brand:wikidata": "Q11307696",
          "brand:wikipedia": "ja:シャトレーゼ",
          "name": "シャトレーゼ",
          "name:en": "Chateraise",
          "name:ja": "シャトレーゼ",
          "shop": "confectionery"
        }
      },
      {
        "displayName": "不二家",
        "id": "不二家-396b54",
        "locationSet": {"include": ["jp"]},
        "oldid": "shop/confectionery|不二家",
        "tags": {
          "brand": "不二家",
          "brand:en": "Fujiya",
          "brand:ja": "不二家",
          "brand:wikidata": "Q858452",
          "brand:wikipedia": "ja:不二家",
          "name": "不二家",
          "name:en": "Fujiya",
          "name:ja": "不二家",
          "shop": "confectionery"
        }
      },
      {
        "displayName": "銀座コージーコーナー",
        "id": "銀座コージーコーナー-396b54",
        "locationSet": {"include": ["jp"]},
        "matchNames": ["コージーコーナー"],
        "oldid": "shop/confectionery|銀座コージーコーナー",
        "tags": {
          "brand": "銀座コージーコーナー",
          "brand:en": "Ginza Cozy Corner",
          "brand:ja": "銀座コージーコーナー",
          "brand:wikidata": "Q11649983",
          "brand:wikipedia": "ja:銀座コージーコーナー",
          "name": "銀座コージーコーナー",
          "name:en": "Ginza Cozy Corner",
          "name:ja": "銀座コージーコーナー",
          "shop": "confectionery"
        }
      }
    ]
  }
}