{
  "shop/dry_cleaning|Диана": {
    "count": 114,
    "tags": {
      "brand": "Диана",
      "brand:wikidata": "Q62105088",
      "name": "Диана",
      "shop": "dry_cleaning"
    }
  },
  "shop/dry_cleaning|タカケンサンシャイン": {
    "countryCodes": ["jp"],
    "match": ["shop/dry_cleaning|タカケンクリーング"],
    "nocount": true,
    "tags": {
      "brand": "タカケンサンシャイン",
      "brand:en": "Takaken Sunshine",
      "brand:ja": "タカケンサンシャイン",
      "brand:wikidata": "Q11315914",
      "brand:wikipedia": "ja:タカケンサンシャイン",
      "name": "タカケンサンシャイン",
      "name:en": "Takaken Sunshine",
      "name:ja": "タカケンサンシャイン",
      "shop": "dry_cleaning"
    }
  },
  "shop/dry_cleaning|ホワイト急便": {
    "count": 273,
    "countryCodes": ["jp"],
    "tags": {
      "brand": "ホワイト急便",
      "brand:en": "White Kyuubin",
      "brand:ja": "ホワイト急便",
      "brand:wikidata": "Q11505557",
      "brand:wikipedia": "ja:日本さわやかグループ",
      "name": "ホワイト急便",
      "name:en": "White Kyuubin",
      "name:ja": "ホワイト急便",
      "shop": "dry_cleaning"
    }
  },
  "shop/dry_cleaning|白洋舎": {
    "count": 63,
    "countryCodes": ["jp"],
    "tags": {
      "brand": "白洋舎",
      "brand:en": "Hakuyosha",
      "brand:wikidata": "Q11579995",
      "brand:wikipedia": "ja:白洋舎",
      "name": "白洋舎",
      "name:en": "Hakuyosha",
      "shop": "dry_cleaning"
    }
  }
}