{
  "shop/electronics|Aaron's": {
    "count": 54,
    "tags": {
      "brand": "Aaron's",
      "name": "Aaron's",
      "shop": "electronics"
    }
  },
  "shop/electronics|Apple Store": {
    "count": 91,
    "logos": {
      "wikidata": "https://commons.wikimedia.org/w/index.php?title=Special%3ARedirect%2Ffile%2FApple%20Store.png&width=100"
    },
    "match": ["shop/computer|Apple Store"],
    "tags": {
      "brand": "Apple Store",
      "brand:wikidata": "Q421253",
      "brand:wikipedia": "en:Apple Store",
      "name": "Apple Store",
      "shop": "electronics"
    }
  },
  "shop/electronics|BCC": {
    "count": 51,
    "tags": {
      "brand": "BCC",
      "name": "BCC",
      "shop": "electronics"
    }
  },
  "shop/electronics|Batteries Plus Bulbs": {
    "count": 100,
    "logos": {
      "wikidata": "https://commons.wikimedia.org/w/index.php?title=Special%3ARedirect%2Ffile%2FBatteries%20Plus%20Bulbs%20logo.png&width=100"
    },
    "match": ["shop/electronics|Batteries Plus"],
    "tags": {
      "brand": "Batteries Plus Bulbs",
      "brand:wikidata": "Q17005157",
      "name": "Batteries Plus Bulbs",
      "shop": "electronics"
    }
  },
  "shop/electronics|Best Buy": {
    "count": 823,
    "logos": {
      "wikidata": "https://commons.wikimedia.org/w/index.php?title=Special%3ARedirect%2Ffile%2FBest%20Buy%20logo%202018.svg&width=100"
    },
    "match": ["shop/hifi|Best Buy"],
    "tags": {
      "brand": "Best Buy",
      "brand:wikidata": "Q533415",
      "brand:wikipedia": "en:Best Buy",
      "name": "Best Buy",
      "shop": "electronics"
    }
  },
  "shop/electronics|Boulanger": {
    "count": 80,
    "countryCodes": ["fr"],
    "logos": {
      "twitter": "https://pbs.twimg.com/profile_images/995934742775255040/Golp0sMi_bigger.jpg"
    },
    "tags": {
      "brand": "Boulanger",
      "brand:wikidata": "Q2921695",
      "brand:wikipedia": "fr:Boulanger (entreprise)",
      "name": "Boulanger",
      "shop": "electronics"
    }
  },
  "shop/electronics|CeX": {
    "countryCodes": [
      "au",
      "es",
      "gb",
      "ie",
      "in",
      "it",
      "mx",
      "nl",
      "pl",
      "pt"
    ],
    "logos": {
      "twitter": "https://pbs.twimg.com/profile_images/919907430158479362/BEbGhbXs_bigger.jpg"
    },
    "nocount": true,
    "tags": {
      "brand": "CeX",
      "brand:wikidata": "Q5055676",
      "brand:wikipedia": "en:CeX (company)",
      "name": "CeX",
      "shop": "electronics"
    }
  },
  "shop/electronics|Currys": {
    "count": 78,
    "countryCodes": ["gb", "ie"],
    "logos": {
      "facebook": "https://graph.facebook.com/curryspcworld/picture?type=square",
      "twitter": "https://pbs.twimg.com/profile_images/585799551455522817/SuqRlREo_bigger.jpg"
    },
    "tags": {
      "brand": "Currys",
      "brand:wikidata": "Q3246464",
      "brand:wikipedia": "en:Currys",
      "name": "Currys",
      "shop": "electronics"
    }
  },
  "shop/electronics|Currys PC World": {
    "count": 108,
    "countryCodes": ["gb", "ie"],
    "tags": {
      "brand": "Currys PC World",
      "brand:wikidata": "Q7118727",
      "brand:wikipedia": "en:PC World (retailer)",
      "name": "Currys PC World",
      "shop": "electronics"
    }
  },
  "shop/electronics|DNS": {
    "count": 179,
    "tags": {
      "brand": "DNS",
      "name": "DNS",
      "shop": "electronics"
    }
  },
  "shop/electronics|Darty": {
    "count": 203,
    "logos": {
      "wikidata": "https://commons.wikimedia.org/w/index.php?title=Special%3ARedirect%2Ffile%2FLogo%20Fnac%20Darty.svg&width=100"
    },
    "tags": {
      "brand": "Darty",
      "brand:wikidata": "Q3117381",
      "brand:wikipedia": "en:Groupe Fnac Darty",
      "name": "Darty",
      "shop": "electronics"
    }
  },
  "shop/electronics|Elektra": {
    "count": 91,
    "tags": {
      "brand": "Elektra",
      "name": "Elektra",
      "shop": "electronics"
    }
  },
  "shop/electronics|Elgiganten": {
    "count": 82,
    "logos": {
      "wikidata": "https://commons.wikimedia.org/w/index.php?title=Special%3ARedirect%2Ffile%2FElgiganten.PNG&width=100"
    },
    "tags": {
      "brand": "Elgiganten",
      "brand:wikidata": "Q17050121",
      "brand:wikipedia": "en:Elgiganten",
      "name": "Elgiganten",
      "shop": "electronics"
    }
  },
  "shop/electronics|Euronics": {
    "count": 303,
    "logos": {
      "wikidata": "https://commons.wikimedia.org/w/index.php?title=Special%3ARedirect%2Ffile%2FLogo%20Euronics.svg&width=100",
      "facebook": "https://graph.facebook.com/EuronicsItalia/picture?type=square"
    },
    "tags": {
      "brand": "Euronics",
      "brand:wikidata": "Q184860",
      "brand:wikipedia": "en:Euronics",
      "name": "Euronics",
      "shop": "electronics"
    }
  },
  "shop/electronics|Expert": {
    "count": 238,
    "tags": {
      "brand": "Expert",
      "brand:wikidata": "Q680990",
      "brand:wikipedia": "en:Expert (company)",
      "name": "Expert",
      "shop": "electronics"
    }
  },
  "shop/electronics|Hartlauer": {
    "count": 73,
    "countryCodes": ["at"],
    "tags": {
      "brand": "Hartlauer",
      "brand:wikidata": "Q1587223",
      "brand:wikipedia": "de:Hartlauer",
      "name": "Hartlauer",
      "shop": "electronics"
    }
  },
  "shop/electronics|Interdiscount": {
    "count": 66,
    "countryCodes": ["ch"],
    "logos": {
      "wikidata": "https://commons.wikimedia.org/w/index.php?title=Special%3ARedirect%2Ffile%2FLogo%20Interdiscount.svg&width=100"
    },
    "tags": {
      "brand": "Interdiscount",
      "brand:wikidata": "Q1665980",
      "brand:wikipedia": "de:Interdiscount",
      "name": "Interdiscount",
      "shop": "electronics"
    }
  },
  "shop/electronics|JB Hi-Fi": {
    "countryCodes": ["au", "nz"],
    "logos": {
      "wikidata": "https://commons.wikimedia.org/w/index.php?title=Special%3ARedirect%2Ffile%2FJB%20Hi-Fi%20Wagga%20Wagga.jpg&width=100"
    },
    "nocount": true,
    "tags": {
      "brand": "JB Hi-Fi",
      "brand:wikidata": "Q3310113",
      "brand:wikipedia": "en:JB Hi-Fi",
      "name": "JB Hi-Fi",
      "shop": "electronics"
    }
  },
  "shop/electronics|Kjell & Company": {
    "countryCodes": ["no", "se"],
    "match": [
      "shop/electronics|Kjell och Company"
    ],
    "nocount": true,
    "tags": {
      "brand": "Kjell & Company",
      "brand:wikidata": "Q6419332",
      "brand:wikipedia": "en:Kjell & Company",
      "name": "Kjell & Company",
      "shop": "electronics"
    }
  },
  "shop/electronics|Komputronik": {
    "countryCodes": ["pl"],
    "match": ["shop/computer|Komputronik"],
    "nocount": true,
    "tags": {
      "brand": "Komputronik",
      "brand:wikidata": "Q11742085",
      "brand:wikipedia": "pl:Komputronik",
      "name": "Komputronik",
      "shop": "electronics"
    }
  },
  "shop/electronics|La Curacao": {
    "count": 80,
    "tags": {
      "brand": "La Curacao",
      "brand:wikidata": "Q5194599",
      "brand:wikipedia": "en:Curacao (retail store)",
      "name": "La Curacao",
      "shop": "electronics"
    }
  },
  "shop/electronics|Maplin": {
    "count": 58,
    "logos": {
      "wikidata": "https://commons.wikimedia.org/w/index.php?title=Special%3ARedirect%2Ffile%2FMaplin%20Electronics%20logo.svg&width=100",
      "twitter": "https://pbs.twimg.com/profile_images/814044033483948032/IozUMsvp_bigger.jpg"
    },
    "tags": {
      "brand": "Maplin",
      "brand:wikidata": "Q6754124",
      "brand:wikipedia": "en:Maplin (retailer)",
      "name": "Maplin",
      "shop": "electronics"
    }
  },
  "shop/electronics|Media Expert": {
    "count": 213,
    "countryCodes": ["pl"],
    "tags": {
      "brand": "Media Expert",
      "brand:wikidata": "Q11776794",
      "brand:wikipedia": "pl:Media Expert",
      "name": "Media Expert",
      "shop": "electronics"
    }
  },
  "shop/electronics|Media Markt": {
    "count": 400,
    "logos": {
      "wikidata": "https://commons.wikimedia.org/w/index.php?title=Special%3ARedirect%2Ffile%2FMedia%20Markt%20logo.svg&width=100",
      "facebook": "https://graph.facebook.com/MediaMarkt.ES/picture?type=square",
      "twitter": "https://pbs.twimg.com/profile_images/694569853663903744/nMQY5qc4_bigger.png"
    },
    "match": [
      "shop/electronics|MediaMarkt",
      "shop/electronics|Mediamarkt"
    ],
    "tags": {
      "brand": "Media Markt",
      "brand:wikidata": "Q2381223",
      "brand:wikipedia": "en:Media Markt",
      "name": "Media Markt",
      "shop": "electronics"
    }
  },
  "shop/electronics|Medimax": {
    "count": 59,
    "tags": {
      "brand": "Medimax",
      "name": "Medimax",
      "operator": "ElectronicPartner",
      "operator:wikidata": "Q1326008",
      "operator:wikipedia": "de:ElectronicPartner",
      "shop": "electronics"
    }
  },
  "shop/electronics|Musimundo": {
    "count": 64,
    "countryCodes": ["ar"],
    "logos": {
      "twitter": "https://pbs.twimg.com/profile_images/1098565316609748992/J7JMYhTN_bigger.png"
    },
    "tags": {
      "brand": "Musimundo",
      "brand:wikidata": "Q6034719",
      "brand:wikipedia": "es:Musimundo",
      "name": "Musimundo",
      "shop": "electronics"
    }
  },
  "shop/electronics|Neonet": {
    "count": 121,
    "countryCodes": ["pl"],
    "tags": {
      "brand": "Neonet",
      "brand:wikidata": "Q11790622",
      "brand:wikipedia": "pl:Neonet",
      "name": "Neonet",
      "shop": "electronics"
    }
  },
  "shop/electronics|Power": {
    "count": 51,
    "tags": {
      "brand": "Power",
      "name": "Power",
      "shop": "electronics"
    }
  },
  "shop/electronics|RTV Euro AGD": {
    "count": 103,
    "countryCodes": ["pl"],
    "logos": {
      "facebook": "https://graph.facebook.com/rtveuroagd/picture?type=square"
    },
    "tags": {
      "brand": "RTV Euro AGD",
      "brand:wikidata": "Q7277895",
      "brand:wikipedia": "pl:RTV Euro AGD",
      "name": "RTV Euro AGD",
      "shop": "electronics"
    }
  },
  "shop/electronics|RadioShack": {
    "count": 181,
    "logos": {
      "wikidata": "https://commons.wikimedia.org/w/index.php?title=Special%3ARedirect%2Ffile%2FRadioShack%20logo.svg&width=100"
    },
    "match": ["shop/electronics|Radio Shack"],
    "tags": {
      "brand": "RadioShack",
      "brand:wikidata": "Q1195490",
      "brand:wikipedia": "en:RadioShack",
      "name": "RadioShack",
      "shop": "electronics"
    }
  },
  "shop/electronics|Samsung": {
    "count": 241,
    "logos": {
      "wikidata": "https://commons.wikimedia.org/w/index.php?title=Special%3ARedirect%2Ffile%2FSamsung%20wordmark.svg&width=100",
      "facebook": "https://graph.facebook.com/SamsungNewsroom/picture?type=square",
      "twitter": "https://pbs.twimg.com/profile_images/773340588154380288/2ZTg4WC-_bigger.jpg"
    },
    "match": [
      "shop/computer|Samsung",
      "shop/mobile_phone|Samsung"
    ],
    "tags": {
      "brand": "Samsung",
      "brand:wikidata": "Q20718",
      "brand:wikipedia": "en:Samsung Electronics",
      "name": "Samsung",
      "shop": "electronics"
    }
  },
  "shop/electronics|Saturn": {
    "count": 164,
    "countryCodes": ["at", "de", "lu", "pl"],
    "logos": {
      "wikidata": "https://commons.wikimedia.org/w/index.php?title=Special%3ARedirect%2Ffile%2FSaturn-Logo.svg&width=100",
      "facebook": "https://graph.facebook.com/SaturnDE/picture?type=square",
      "twitter": "https://pbs.twimg.com/profile_images/1075752779350769664/c2nygxRU_bigger.jpg"
    },
    "tags": {
      "brand": "Saturn",
      "brand:wikidata": "Q2543504",
      "brand:wikipedia": "en:Saturn (retailer)",
      "name": "Saturn",
      "shop": "electronics"
    }
  },
  "shop/electronics|Sony": {
    "count": 61,
    "logos": {
      "wikidata": "https://commons.wikimedia.org/w/index.php?title=Special%3ARedirect%2Ffile%2FSony%20logo.svg&width=100",
      "facebook": "https://graph.facebook.com/sony.jpn/picture?type=square",
      "twitter": "https://pbs.twimg.com/profile_images/419987824717213696/jDu1T8do_bigger.jpeg"
    },
    "tags": {
      "brand": "Sony",
      "brand:wikidata": "Q41187",
      "brand:wikipedia": "en:Sony",
      "name": "Sony",
      "shop": "electronics"
    }
  },
  "shop/electronics|Teknikmagasinet": {
    "countryCodes": ["fi", "no", "se"],
    "nocount": true,
    "tags": {
      "brand": "Teknikmagasinet",
      "brand:wikidata": "Q3357520",
      "brand:wikipedia": "en:Teknikmagasinet",
      "name": "Teknikmagasinet",
      "shop": "electronics"
    }
  },
  "shop/electronics|The Source": {
    "count": 112,
    "countryCodes": ["ca"],
    "logos": {
      "wikidata": "https://commons.wikimedia.org/w/index.php?title=Special%3ARedirect%2Ffile%2FThe%20Source%20logo%20en-fr.svg&width=100"
    },
    "tags": {
      "brand": "The Source",
      "brand:wikidata": "Q3212934",
      "brand:wikipedia": "en:The Source (retailer)",
      "name": "The Source",
      "shop": "electronics"
    }
  },
  "shop/electronics|Trony": {
    "count": 51,
    "tags": {
      "brand": "Trony",
      "name": "Trony",
      "shop": "electronics"
    }
  },
  "shop/electronics|Unieuro": {
    "count": 95,
    "tags": {
      "brand": "Unieuro",
      "brand:wikidata": "Q4004687",
      "brand:wikipedia": "en:Unieuro",
      "name": "Unieuro",
      "shop": "electronics"
    }
  },
  "shop/electronics|Worten": {
    "count": 52,
    "countryCodes": ["es", "pt"],
    "logos": {
      "wikidata": "https://commons.wikimedia.org/w/index.php?title=Special%3ARedirect%2Ffile%2FLogo%202x.png&width=100",
      "facebook": "https://graph.facebook.com/WortenES/picture?type=square"
    },
    "tags": {
      "brand": "Worten",
      "brand:wikidata": "Q10394039",
      "brand:wikipedia": "pt:Worten",
      "name": "Worten",
      "shop": "electronics"
    }
  },
  "shop/electronics|М.Видео": {
    "count": 152,
    "countryCodes": ["ru"],
    "logos": {
      "wikidata": "https://commons.wikimedia.org/w/index.php?title=Special%3ARedirect%2Ffile%2FMvideo.svg&width=100"
    },
    "tags": {
      "brand": "М.Видео",
      "brand:en": "M.video",
      "brand:wikidata": "Q6558800",
      "brand:wikipedia": "en:M.video",
      "name": "М.Видео",
      "name:en": "M.video",
      "shop": "electronics"
    }
  },
  "shop/electronics|Фокстрот": {
    "count": 78,
    "countryCodes": ["ua"],
    "tags": {
      "brand": "Фокстрот",
      "brand:wikidata": "Q16721578",
      "brand:wikipedia": "uk:Фокстрот (торгова мережа)",
      "name": "Фокстрот",
      "shop": "electronics"
    }
  },
  "shop/electronics|Эксперт": {
    "count": 72,
    "tags": {
      "brand": "Эксперт",
      "name": "Эксперт",
      "shop": "electronics"
    }
  },
  "shop/electronics|Эльдорадо": {
    "count": 340,
    "logos": {
      "facebook": "https://graph.facebook.com/Eldorado.Stores/picture?type=square",
      "twitter": "https://pbs.twimg.com/profile_images/1057267580447133696/37MhSbcc_bigger.jpg"
    },
    "tags": {
      "brand": "Эльдорадо",
      "brand:wikidata": "Q4531492",
      "brand:wikipedia": "ru:Эльдорадо (сеть магазинов)",
      "name": "Эльдорадо",
      "shop": "electronics"
    }
  },
  "shop/electronics|エディオン": {
    "count": 110,
    "countryCodes": ["jp"],
    "logos": {
      "wikidata": "https://commons.wikimedia.org/w/index.php?title=Special%3ARedirect%2Ffile%2FEdion%20logo.svg&width=100",
      "facebook": "https://graph.facebook.com/edion.jp/picture?type=square"
    },
    "tags": {
      "brand": "エディオン",
      "brand:en": "EDION",
      "brand:ja": "エディオン",
      "brand:wikidata": "Q11290252",
      "brand:wikipedia": "ja:エディオン",
      "name": "エディオン",
      "name:en": "EDION",
      "name:ja": "エディオン",
      "shop": "electronics"
    }
  },
  "shop/electronics|ケーズデンキ": {
    "count": 176,
    "countryCodes": ["jp"],
    "tags": {
      "brand": "ケーズデンキ",
      "brand:en": "K's Denki",
      "brand:ja": "ケーズデンキ",
      "brand:wikidata": "Q6322472",
      "brand:wikipedia": "ja:ケーズホールディングス",
      "name": "ケーズデンキ",
      "name:en": "K's Denki",
      "name:ja": "ケーズデンキ",
      "shop": "electronics"
    }
  },
  "shop/electronics|コジマ": {
    "count": 55,
    "countryCodes": ["jp"],
    "logos": {
      "facebook": "https://graph.facebook.com/kojima.official/picture?type=square"
    },
    "tags": {
      "brand": "コジマ",
      "brand:en": "Kojima",
      "brand:ja": "コジマ",
      "brand:wikidata": "Q11302052",
      "brand:wikipedia": "ja:コジマ",
      "name": "コジマ",
      "name:en": "Kojima",
      "name:ja": "コジマ",
      "shop": "electronics"
    }
  },
  "shop/electronics|ソフマップ": {
    "countryCodes": ["jp"],
    "logos": {
      "wikidata": "https://commons.wikimedia.org/w/index.php?title=Special%3ARedirect%2Ffile%2FSofmap%20Logo.svg&width=100"
    },
    "nocount": true,
    "tags": {
      "brand": "ソフマップ",
      "brand:en": "Sofmap",
      "brand:wikidata": "Q7553789",
      "brand:wikipedia": "ja:ソフマップ",
      "name": "ソフマップ",
      "name:en": "Sofmap",
      "shop": "electronics"
    }
  },
  "shop/electronics|ビックカメラ": {
    "countryCodes": ["jp"],
    "logos": {
      "wikidata": "https://commons.wikimedia.org/w/index.php?title=Special%3ARedirect%2Ffile%2FBICCAMERA%20logo.svg&width=100",
      "facebook": "https://graph.facebook.com/biccamera.page/picture?type=square"
    },
    "nocount": true,
    "tags": {
      "brand": "ビックカメラ",
      "brand:en": "Bic Camera",
      "brand:wikidata": "Q4903531",
      "brand:wikipedia": "ja:ビックカメラ",
      "name": "ビックカメラ",
      "name:en": "Bic Camera",
      "shop": "electronics"
    }
  },
  "shop/electronics|ヤマダ電機": {
    "count": 211,
    "countryCodes": ["jp"],
    "tags": {
      "brand": "ヤマダ電機",
      "brand:en": "Yamada Denki",
      "brand:ja": "ヤマダ電機",
      "brand:wikidata": "Q1096390",
      "brand:wikipedia": "en:Yamada Denki",
      "name": "ヤマダ電機",
      "name:en": "Yamada Denki",
      "name:ja": "ヤマダ電機",
      "shop": "electronics"
    }
  },
  "shop/electronics|全國電子": {
    "count": 96,
    "countryCodes": ["tw"],
    "tags": {
      "brand": "全國電子",
      "brand:en": "E-life Mall",
      "brand:wikidata": "Q10891540",
      "brand:wikipedia": "zh:全國電子",
      "name": "全國電子",
      "name:en": "E-life Mall",
      "shop": "electronics"
    }
  },
  "shop/electronics|燦坤3C": {
    "count": 80,
    "countryCodes": ["tw"],
    "tags": {
      "brand": "燦坤3C",
      "brand:en": "Tsannkuen 3C",
      "brand:wikidata": "Q11569285",
      "brand:wikipedia": "zh:燦坤",
      "name": "燦坤3C",
      "name:en": "Tsannkuen 3C",
      "shop": "electronics"
    }
  }
}