{
  "brands/shop/hairdresser": [
    {
      "displayName": "Art of Hair",
      "id": "artofhair-ece769",
      "locationSet": {"include": ["001"]},
      "oldid": "shop/hairdresser|Art of Hair",
      "tags": {
        "brand": "Art of Hair",
        "name": "Art of Hair",
        "shop": "hairdresser"
      }
    },
    {
      "displayName": "Camille Albane",
      "id": "camillealbane-40f1cc",
      "locationSet": {"include": ["fr"]},
      "oldid": "shop/hairdresser|Camille Albane",
      "tags": {
        "brand": "Camille Albane",
        "brand:wikidata": "Q62965183",
        "name": "Camille Albane",
        "shop": "hairdresser"
      }
    },
    {
      "displayName": "Celly's",
      "id": "cellys-afda3f",
      "locationSet": {"include": ["gb"]},
      "oldid": "shop/hairdresser|Celly's",
      "tags": {
        "brand": "Celly's",
        "brand:wikidata": "Q86837698",
        "name": "Celly's",
        "shop": "hairdresser"
      }
    },
    {
      "displayName": "Coiff&Co",
      "id": "coiffandco-40f1cc",
      "locationSet": {"include": ["fr"]},
      "oldid": "shop/hairdresser|Coiff&Co",
      "tags": {
        "brand": "Coiff&Co",
        "name": "Coiff&Co",
        "shop": "hairdresser"
      }
    },
    {
      "displayName": "Cost Cutters",
      "id": "costcutters-28f1a5",
      "locationSet": {"include": ["us"]},
      "oldid": "shop/hairdresser|Cost Cutters",
      "tags": {
        "brand": "Cost Cutters",
        "brand:wikidata": "Q62029366",
        "name": "Cost Cutters",
        "shop": "hairdresser"
      }
    },
    {
      "displayName": "Dessange",
      "id": "dessange-ece769",
      "locationSet": {"include": ["001"]},
      "oldid": "shop/hairdresser|Dessange",
      "tags": {
        "brand": "Dessange",
        "brand:wikidata": "Q62979914",
        "name": "Dessange",
        "shop": "hairdresser"
      }
    },
    {
      "displayName": "Fantastic Sams",
      "id": "fantasticsams-28f1a5",
      "locationSet": {"include": ["us"]},
      "oldid": "shop/hairdresser|Fantastic Sams",
      "tags": {
        "brand": "Fantastic Sams",
        "brand:wikidata": "Q5434222",
        "brand:wikipedia": "en:Fantastic Sams",
        "name": "Fantastic Sams",
        "shop": "hairdresser"
      }
    },
    {
      "displayName": "Ferber",
      "id": "ferber-6ad147",
      "locationSet": {"include": ["lu"]},
      "oldid": "shop/hairdresser|Ferber",
      "tags": {
        "brand": "Ferber",
        "brand:wikidata": "Q88180887",
        "name": "Ferber",
        "shop": "hairdresser"
      }
    },
    {
      "displayName": "First Choice Haircutters",
      "id": "firstchoicehaircutters-7e5a14",
      "locationSet": {"include": ["ca"]},
      "oldid": "shop/hairdresser|First Choice Haircutters",
      "tags": {
        "brand": "First Choice Haircutters",
        "brand:wikidata": "Q5452622",
        "brand:wikipedia": "en:First Choice Haircutters",
        "name": "First Choice Haircutters",
        "shop": "hairdresser"
      }
    },
    {
      "displayName": "Franck Provost",
      "id": "franckprovost-343148",
      "locationSet": {
        "include": ["be", "fr", "lu", "pl"]
      },
      "oldid": "shop/hairdresser|Franck Provost",
      "tags": {
        "brand": "Franck Provost",
        "brand:wikidata": "Q62805922",
        "brand:wikipedia": "fr:Franck Provost (Salons de coiffure)",
        "name": "Franck Provost",
        "shop": "hairdresser"
      }
    },
    {
      "displayName": "Gidor",
      "id": "gidor-ece769",
      "locationSet": {"include": ["001"]},
      "oldid": "shop/hairdresser|Gidor",
      "tags": {
        "brand": "Gidor",
        "name": "Gidor",
        "shop": "hairdresser"
      }
    },
    {
      "displayName": "Great Clips",
      "id": "greatclips-46af32",
      "locationSet": {"include": ["ca", "us"]},
      "oldid": "shop/hairdresser|Great Clips",
      "tags": {
        "brand": "Great Clips",
        "brand:wikidata": "Q5598967",
        "brand:wikipedia": "en:Great Clips",
        "name": "Great Clips",
        "shop": "hairdresser"
      }
    },
    {
      "displayName": "Hair Cuttery",
      "id": "haircuttery-28f1a5",
      "locationSet": {"include": ["us"]},
      "oldid": "shop/hairdresser|Hair Cuttery",
      "tags": {
        "brand": "Hair Cuttery",
        "brand:wikidata": "Q5639484",
        "brand:wikipedia": "en:Hair Cuttery",
        "name": "Hair Cuttery",
        "shop": "hairdresser"
      }
    },
    {
      "displayName": "Hair Express",
      "id": "hairexpress-30db9d",
      "locationSet": {"include": ["de", "us"]},
      "oldid": "shop/hairdresser|Hair Express",
      "tags": {
        "brand": "Hair Express",
        "brand:wikidata": "Q57550814",
        "name": "Hair Express",
        "shop": "hairdresser"
      }
    },
    {
      "displayName": "Hairkiller",
      "id": "hairkiller-173527",
      "locationSet": {
        "include": ["at", "de", "lu"]
      },
      "oldid": "shop/hairdresser|Hairkiller",
      "tags": {
        "brand": "Hairkiller",
        "brand:wikidata": "Q58305998",
        "name": "Hairkiller",
        "shop": "hairdresser"
      }
    },
    {
      "displayName": "Igorance",
      "id": "igorance-6ad147",
      "locationSet": {"include": ["lu"]},
      "oldid": "shop/hairdresser|Igorance",
      "tags": {
        "brand": "Igorance",
        "brand:wikidata": "Q88181481",
        "name": "Igorance",
        "shop": "hairdresser"
      }
    },
    {
      "displayName": "Jean Louis David",
      "id": "jeanlouisdavid-c24876",
      "locationSet": {
        "include": ["es", "fr", "it", "pl"]
      },
      "oldid": "shop/hairdresser|Jean Louis David",
      "tags": {
        "brand": "Jean Louis David",
        "brand:wikidata": "Q64445174",
        "name": "Jean Louis David",
        "shop": "hairdresser"
      }
    },
    {
      "displayName": "Kirpykla",
      "id": "kirpykla-1e6f8d",
      "locationSet": {"include": ["lt"]},
      "oldid": "shop/hairdresser|Kirpykla",
      "tags": {
        "brand": "Kirpykla",
        "name": "Kirpykla",
        "shop": "hairdresser"
      }
    },
    {
      "displayName": "Klier",
      "id": "klier-03dd74",
      "locationSet": {
        "include": ["at", "cz", "de", "sk"]
      },
      "oldid": "shop/hairdresser|Klier",
      "tags": {
        "brand": "Klier",
        "brand:wikidata": "Q1465159",
        "brand:wikipedia": "de:Frisör Klier",
        "name": "Klier",
        "shop": "hairdresser"
      }
    },
    {
      "displayName": "Klipp",
      "id": "klipp-8c968f",
      "locationSet": {"include": ["at"]},
      "oldid": "shop/hairdresser|Klipp",
      "tags": {
        "brand": "Klipp",
        "brand:wikidata": "Q1737304",
        "brand:wikipedia": "de:Klipp Frisör",
        "name": "Klipp",
        "shop": "hairdresser"
      }
    },
    {
      "displayName": "Magicuts",
      "id": "magicuts-7e5a14",
      "locationSet": {"include": ["ca"]},
      "oldid": "shop/hairdresser|Magicuts",
      "tags": {
        "brand": "Magicuts",
        "name": "Magicuts",
        "shop": "hairdresser"
      }
    },
    {
      "displayName": "Marco Aldany",
      "id": "marcoaldany-ece769",
      "locationSet": {"include": ["001"]},
      "oldid": "shop/hairdresser|Marco Aldany",
      "tags": {
        "brand": "Marco Aldany",
        "name": "Marco Aldany",
        "shop": "hairdresser"
      }
    },
    {
      "displayName": "Mastercuts",
      "id": "mastercuts-46af32",
      "locationSet": {"include": ["ca", "us"]},
      "oldid": "shop/hairdresser|Mastercuts",
      "tags": {
        "brand": "Mastercuts",
        "brand:wikidata": "Q64026258",
        "name": "Mastercuts",
        "shop": "hairdresser"
      }
    },
    {
      "displayName": "New Look",
      "id": "newlook-ece769",
      "locationSet": {"include": ["001"]},
      "oldid": "shop/hairdresser|New Look",
      "tags": {
        "brand": "New Look",
        "name": "New Look",
        "shop": "hairdresser"
      }
    },
    {
      "displayName": "Pascal Coste",
      "id": "pascalcoste-40f1cc",
      "locationSet": {"include": ["fr"]},
      "oldid": "shop/hairdresser|Pascal Coste",
      "tags": {
        "brand": "Pascal Coste",
        "brand:wikidata": "Q66555630",
        "name": "Pascal Coste",
        "shop": "hairdresser"
      }
    },
    {
      "displayName": "QBハウス",
      "id": "qbhouse-946510",
      "locationSet": {"include": ["jp"]},
      "matchNames": ["qb", "キュービーハウス"],
      "oldid": "shop/hairdresser|QBハウス",
      "tags": {
        "brand": "QBハウス",
        "brand:en": "QB HOUSE",
        "brand:ja": "QBハウス",
        "brand:wikidata": "Q11297528",
        "brand:wikipedia": "ja:キュービーネット",
        "name": "QBハウス",
        "name:en": "QB HOUSE",
        "name:ja": "QBハウス",
        "shop": "hairdresser"
      }
    },
    {
      "displayName": "Ryanhair",
      "id": "ryanhair-6ad147",
      "locationSet": {"include": ["lu"]},
      "oldid": "shop/hairdresser|Ryanhair",
      "tags": {
        "brand": "Ryanhair",
        "brand:wikidata": "Q88180487",
        "name": "Ryanhair",
        "shop": "hairdresser"
      }
    },
    {
      "displayName": "Saint Algue",
      "id": "saintalgue-ece769",
      "locationSet": {"include": ["001"]},
      "oldid": "shop/hairdresser|Saint Algue",
      "tags": {
        "brand": "Saint Algue",
        "brand:wikidata": "Q62973210",
        "name": "Saint Algue",
        "shop": "hairdresser"
      }
    },
    {
      "displayName": "Sport Clips",
      "id": "sportclips-46af32",
      "locationSet": {"include": ["ca", "us"]},
      "matchNames": [
        "sport clips haircuts",
        "sports clips"
      ],
      "oldid": "shop/hairdresser|Sport Clips",
      "tags": {
        "brand": "Sport Clips",
        "brand:wikidata": "Q7579310",
        "name": "Sport Clips",
        "shop": "hairdresser"
      }
    },
    {
      "displayName": "Super Cut",
      "id": "supercut-b30c9d",
      "locationSet": {"include": ["de"]},
      "oldid": "shop/hairdresser|Super Cut",
      "tags": {
        "brand": "Super Cut",
        "brand:wikidata": "Q64139077",
        "name": "Super Cut",
        "shop": "hairdresser"
      }
    },
    {
      "displayName": "Supercuts",
      "id": "supercuts-cc3156",
      "locationSet": {
        "include": ["ca", "gb", "us"]
      },
      "oldid": "shop/hairdresser|Supercuts",
      "tags": {
        "brand": "Supercuts",
        "brand:wikidata": "Q7643239",
        "brand:wikipedia": "en:Supercuts",
        "name": "Supercuts",
        "shop": "hairdresser"
      }
    },
    {
      "displayName": "Tchip",
      "id": "tchip-40f1cc",
      "locationSet": {"include": ["fr"]},
      "oldid": "shop/hairdresser|Tchip",
      "tags": {
        "brand": "Tchip",
        "brand:wikidata": "Q62871250",
        "name": "Tchip",
        "shop": "hairdresser"
      }
    },
    {
      "displayName": "The Salon at Ulta Beauty",
      "id": "thesalonatultabeauty-28f1a5",
      "locationSet": {"include": ["us"]},
      "oldid": "shop/hairdresser|The Salon at Ulta Beauty",
      "tags": {
        "alt_name": "Ulta Salon",
        "brand": "Ulta Beauty",
        "brand:wikidata": "Q7880076",
        "brand:wikipedia": "en:Ulta Beauty",
        "name": "The Salon at Ulta Beauty",
        "shop": "hairdresser"
      }
    },
    {
      "displayName": "Toni & Guy",
      "id": "toniandguy-ece769",
      "locationSet": {"include": ["001"]},
      "oldid": "shop/hairdresser|Toni & Guy",
      "tags": {
        "brand": "Toni & Guy",
        "brand:wikidata": "Q324784",
        "brand:wikipedia": "en:Toni & Guy",
        "name": "Toni & Guy",
        "shop": "hairdresser"
      }
    },
    {
      "displayName": "Top Hair",
      "id": "tophair-b30c9d",
      "locationSet": {"include": ["de"]},
      "oldid": "shop/hairdresser|Top Hair",
      "tags": {
        "brand": "Top Hair",
        "brand:wikidata": "Q62523343",
        "name": "Top Hair",
        "shop": "hairdresser"
      }
    },
    {
      "displayName": "Виктория",
      "id": "9034b8-ece769",
      "locationSet": {"include": ["001"]},
      "oldid": "shop/hairdresser|Виктория",
      "tags": {
        "brand": "Виктория",
        "name": "Виктория",
        "shop": "hairdresser"
      }
    },
    {
      "displayName": "Елена",
      "id": "531658-347366",
      "locationSet": {
        "include": ["by", "kz", "ru"]
      },
      "oldid": "shop/hairdresser|Елена",
      "tags": {
        "brand": "Елена",
        "name": "Елена",
        "shop": "hairdresser"
      }
    },
    {
      "displayName": "Имидж",
      "id": "67ad19-ece769",
      "locationSet": {"include": ["001"]},
      "oldid": "shop/hairdresser|Имидж",
      "tags": {
        "brand": "Имидж",
        "name": "Имидж",
        "shop": "hairdresser"
      }
    },
    {
      "displayName": "Каприз",
      "id": "1783eb-8106f0",
      "locationSet": {"include": ["ru", "ua"]},
      "oldid": "shop/hairdresser|Каприз",
      "tags": {
        "brand": "Каприз",
        "name": "Каприз",
        "shop": "hairdresser"
      }
    },
    {
      "displayName": "Фея",
      "id": "95dd71-8106f0",
      "locationSet": {"include": ["ru", "ua"]},
      "oldid": "shop/hairdresser|Фея",
      "tags": {
        "brand": "Фея",
        "name": "Фея",
        "shop": "hairdresser"
      }
    },
    {
      "displayName": "Чио Чио",
      "id": "6d125a-ece769",
      "locationSet": {"include": ["001"]},
      "oldid": "shop/hairdresser|Чио Чио",
      "tags": {
        "brand": "Чио Чио",
        "name": "Чио Чио",
        "shop": "hairdresser"
      }
    },
    {
      "displayName": "カットコムズ",
      "id": "cutcomz-946510",
      "locationSet": {"include": ["jp"]},
      "oldid": "shop/hairdresser|カットコムズ",
      "tags": {
        "brand": "カットコムズ",
        "brand:en": "Cutcomz",
        "brand:ja": "カットコムズ",
        "brand:wikidata": "Q91104902",
        "name": "カットコムズ",
        "name:en": "Cutcomz",
        "name:ja": "カットコムズ",
        "shop": "hairdresser"
      }
    },
    {
      "displayName": "カットファクトリー",
      "id": "cutfactory-946510",
      "locationSet": {"include": ["jp"]},
      "oldid": "shop/hairdresser|カットファクトリー",
      "tags": {
        "brand": "カットファクトリー",
        "brand:en": "Cut Factory",
        "brand:ja": "カットファクトリー",
        "brand:wikidata": "Q91102312",
        "name": "カットファクトリー",
        "name:en": "Cut Factory",
        "name:ja": "カットファクトリー",
        "shop": "hairdresser"
      }
    },
    {
      "displayName": "ファミリーカット1000",
      "id": "familycut1000-946510",
      "locationSet": {"include": ["jp"]},
      "matchNames": ["ファミリーカット"],
      "oldid": "shop/hairdresser|ファミリーカット1000",
      "tags": {
        "brand": "ファミリーカット1000",
        "brand:en": "Family Cut 1000",
        "brand:ja": "ファミリーカット1000",
        "brand:wikidata": "Q91108482",
        "name": "ファミリーカット1000",
        "name:en": "Family Cut 1000",
        "name:ja": "ファミリーカット1000",
        "shop": "hairdresser"
      }
    }
  ]
}