{
  "brands/shop/hobby": [
    {
      "displayName": "アニメイト",
      "id": "アニメイト-dd8d0c",
      "locationSet": {"include": ["jp"]},
      "oldid": "shop/hobby|アニメイト",
      "tags": {
        "brand": "アニメイト",
        "brand:en": "Animate",
        "brand:ja": "アニメイト",
        "brand:wikidata": "Q1041890",
        "brand:wikipedia": "ja:アニメイト",
        "name": "アニメイト",
        "name:en": "Animate",
        "name:ja": "アニメイト",
        "shop": "hobby"
      }
    },
    {
      "displayName": "イエロー・サブマリン",
      "id": "イエローサブマリン-dd8d0c",
      "locationSet": {"include": ["jp"]},
      "oldid": "shop/hobby|イエロー・サブマリン",
      "tags": {
        "brand": "イエロー・サブマリン",
        "brand:en": "Yellow Submarine",
        "brand:ja": "イエロー・サブマリン",
        "brand:wikidata": "Q11668496",
        "brand:wikipedia": "ja:ホビーベースイエローサブマリン",
        "name": "イエロー・サブマリン",
        "name:en": "Yellow Submarine",
        "name:ja": "イエロー・サブマリン",
        "shop": "hobby"
      }
    },
    {
      "displayName": "ジャンプショップ",
      "id": "ジャンプショップ-dd8d0c",
      "locationSet": {"include": ["jp"]},
      "matchNames": ["ジャンプ"],
      "oldid": "shop/hobby|ジャンプショップ",
      "tags": {
        "brand": "ジャンプショップ",
        "brand:en": "Jump Shop",
        "brand:ja": "ジャンプショップ",
        "brand:wikidata": "Q11310200",
        "brand:wikipedia": "ja:ジャンプショップ",
        "name": "ジャンプショップ",
        "name:en": "Jump Shop",
        "name:ja": "ジャンプショップ",
        "shop": "hobby"
      }
    },
    {
      "displayName": "ポケモンセンター",
      "id": "ポケモンセンター-dd8d0c",
      "locationSet": {"include": ["jp"]},
      "oldid": "shop/hobby|ポケモンセンター",
      "tags": {
        "brand": "ポケモンセンター",
        "brand:en": "Pokémon Center",
        "brand:ja": "ポケモンセンター",
        "brand:wikidata": "Q89673816",
        "name": "ポケモンセンター",
        "name:en": "Pokémon Center",
        "name:ja": "ポケモンセンター",
        "shop": "hobby"
      }
    },
    {
      "displayName": "駿河屋",
      "id": "駿河屋-dd8d0c",
      "locationSet": {"include": ["jp"]},
      "oldid": "shop/hobby|駿河屋",
      "tags": {
        "brand": "駿河屋",
        "brand:en": "Surugaya",
        "brand:ja": "駿河屋",
        "brand:wikidata": "Q88485610",
        "name": "駿河屋",
        "name:en": "Surugaya",
        "name:ja": "駿河屋",
        "shop": "hobby"
      }
    }
  ]
}