{
  "shop": {
    "massage": [
      {
        "displayName": "Hand & Stone Massage and Facial Spa",
        "id": "handandstonemassageandfacialspa-2ffcad",
        "locationSet": {"include": ["us"]},
        "matchNames": ["hand and stone massage"],
        "oldid": "shop/massage|Hand & Stone Massage and Facial Spa",
        "tags": {
          "brand": "Hand & Stone Massage and Facial Spa",
          "brand:wikidata": "Q55613342",
          "brand:wikipedia": "en:Hand & Stone Massage and Facial Spa",
          "name": "Hand & Stone Massage and Facial Spa",
          "shop": "massage"
        }
      },
      {
        "displayName": "Massage Envy",
        "id": "massageenvy-2ffcad",
        "locationSet": {"include": ["us"]},
        "matchNames": ["massage envy spa"],
        "oldid": "shop/massage|Massage Envy",
        "tags": {
          "brand": "Massage Envy",
          "brand:wikidata": "Q22922899",
          "brand:wikipedia": "en:Massage Envy",
          "name": "Massage Envy",
          "shop": "massage"
        }
      },
      {
        "displayName": "Massage Heights",
        "id": "massageheights-c6aa60",
        "locationSet": {"include": ["ca", "us"]},
        "oldid": "shop/massage|Massage Heights",
        "tags": {
          "brand": "Massage Heights",
          "brand:wikidata": "Q64573956",
          "name": "Massage Heights",
          "shop": "massage"
        }
      },
      {
        "displayName": "Re.Ra.Ku",
        "id": "reraku-dab8c1",
        "locationSet": {"include": ["jp"]},
        "oldid": "shop/massage|Re.Ra.Ku",
        "tags": {
          "brand": "Re.Ra.Ku",
          "brand:en": "Re.Ra.Ku",
          "brand:ja": "リラク",
          "brand:wikidata": "Q92941605",
          "name": "Re.Ra.Ku",
          "name:en": "Re.Ra.Ku",
          "name:ja": "リラク",
          "shop": "massage"
        }
      },
      {
        "displayName": "Thai Massage",
        "id": "thaimassage-6065e1",
        "locationSet": {"include": ["001"]},
        "oldid": "shop/massage|Thai Massage",
        "tags": {
          "brand": "Thai Massage",
          "name": "Thai Massage",
          "shop": "massage"
        }
      },
      {
        "displayName": "りらくる",
        "id": "りらくる-dab8c1",
        "locationSet": {"include": ["jp"]},
        "oldid": "shop/massage|りらくる",
        "tags": {
          "brand": "りらくる",
          "brand:en": "RELXLE",
          "brand:ja": "りらくる",
          "brand:wikidata": "Q92944647",
          "name": "りらくる",
          "name:en": "RELXLE",
          "name:ja": "りらくる",
          "shop": "massage"
        }
      },
      {
        "displayName": "カラダファクトリー",
        "id": "カラダファクトリー-dab8c1",
        "locationSet": {"include": ["jp"]},
        "oldid": "shop/massage|カラダファクトリー",
        "tags": {
          "brand": "カラダファクトリー",
          "brand:en": "Karada Factory",
          "brand:ja": "カラダファクトリー",
          "brand:wikidata": "Q87833239",
          "name": "カラダファクトリー",
          "name:en": "Karada Factory",
          "name:ja": "カラダファクトリー",
          "shop": "massage"
        }
      }
    ]
  }
}