{
  "shop/mobile_phone|3 Store": {
    "count": 115,
    "tags": {
      "brand": "3 Store",
      "brand:wikidata": "Q407009",
      "brand:wikipedia": "en:3 (telecommunications)",
      "name": "3 Store",
      "shop": "mobile_phone"
    }
  },
  "shop/mobile_phone|AT&T": {
    "count": 906,
    "match": [
      "shop/electronics|AT&T",
      "shop/electronics|ATT"
    ],
    "tags": {
      "brand": "AT&T",
      "brand:wikidata": "Q298594",
      "brand:wikipedia": "en:AT&T Mobility",
      "name": "AT&T",
      "shop": "mobile_phone"
    }
  },
  "shop/mobile_phone|Bell": {
    "count": 149,
    "countryCodes": ["ca"],
    "match": ["shop/electronics|Bell"],
    "tags": {
      "brand": "Bell",
      "brand:wikidata": "Q2894594",
      "brand:wikipedia": "en:Bell Mobility",
      "name": "Bell",
      "shop": "mobile_phone"
    }
  },
  "shop/mobile_phone|Bitė": {
    "count": 64,
    "tags": {
      "brand": "Bitė",
      "name": "Bitė",
      "shop": "mobile_phone"
    }
  },
  "shop/mobile_phone|Boost Mobile": {
    "count": 315,
    "tags": {
      "brand": "Boost Mobile",
      "brand:wikidata": "Q4943790",
      "brand:wikipedia": "en:Boost Mobile",
      "name": "Boost Mobile",
      "shop": "mobile_phone"
    }
  },
  "shop/mobile_phone|Bouygues Telecom": {
    "count": 56,
    "tags": {
      "brand": "Bouygues Telecom",
      "name": "Bouygues Telecom",
      "shop": "mobile_phone"
    }
  },
  "shop/mobile_phone|Carphone Warehouse": {
    "count": 360,
    "tags": {
      "brand": "Carphone Warehouse",
      "brand:wikidata": "Q118046",
      "brand:wikipedia": "en:Carphone Warehouse",
      "name": "Carphone Warehouse",
      "shop": "mobile_phone"
    }
  },
  "shop/mobile_phone|Claro": {
    "count": 596,
    "tags": {
      "brand": "Claro",
      "brand:wikidata": "Q1770208",
      "brand:wikipedia": "en:Claro (company)",
      "name": "Claro",
      "shop": "mobile_phone"
    }
  },
  "shop/mobile_phone|Cricket Wireless": {
    "count": 202,
    "match": ["shop/mobile_phone|Cricket"],
    "tags": {
      "brand": "Cricket Wireless",
      "brand:wikidata": "Q5184987",
      "brand:wikipedia": "en:Cricket Wireless",
      "name": "Cricket Wireless",
      "shop": "mobile_phone"
    }
  },
  "shop/mobile_phone|Digicel": {
    "count": 155,
    "tags": {
      "brand": "Digicel",
      "brand:wikidata": "Q2117506",
      "brand:wikipedia": "en:Digicel",
      "name": "Digicel",
      "shop": "mobile_phone"
    }
  },
  "shop/mobile_phone|EE": {
    "count": 237,
    "tags": {
      "brand": "EE",
      "brand:wikidata": "Q5322942",
      "brand:wikipedia": "en:EE Limited",
      "name": "EE",
      "shop": "mobile_phone"
    }
  },
  "shop/mobile_phone|Entel": {
    "count": 73,
    "tags": {
      "brand": "Entel",
      "brand:wikidata": "Q5323742",
      "brand:wikipedia": "en:ENTel",
      "name": "Entel",
      "shop": "mobile_phone"
    }
  },
  "shop/mobile_phone|Espace SFR": {
    "count": 52,
    "tags": {
      "brand": "Espace SFR",
      "name": "Espace SFR",
      "shop": "mobile_phone"
    }
  },
  "shop/mobile_phone|Freedom Mobile": {
    "count": 51,
    "countryCodes": ["ca"],
    "match": ["shop/mobile_phone|Wind Mobile"],
    "tags": {
      "brand": "Freedom Mobile",
      "brand:wikidata": "Q8023931",
      "brand:wikipedia": "en:Freedom Mobile",
      "name": "Freedom Mobile",
      "shop": "mobile_phone"
    }
  },
  "shop/mobile_phone|MTN": {
    "count": 56,
    "match": [
      "office/telecommunication|Agence MTN",
      "office/telecommunication|MTN",
      "shop/mobile_phone|Agence MTN"
    ],
    "tags": {
      "brand": "MTN",
      "brand:wikidata": "Q1813361",
      "brand:wikipedia": "en:MTN Group",
      "name": "MTN",
      "shop": "mobile_phone"
    }
  },
  "shop/mobile_phone|MetroPCS": {
    "count": 309,
    "match": ["shop/mobile_phone|Metro PCS"],
    "tags": {
      "brand": "MetroPCS",
      "brand:wikidata": "Q1925685",
      "brand:wikipedia": "en:Metro by T-Mobile",
      "name": "MetroPCS",
      "shop": "mobile_phone"
    }
  },
  "shop/mobile_phone|Mobilcom Debitel": {
    "count": 53,
    "match": [
      "shop/mobile_phone|Debitel",
      "shop/mobile_phone|mobilcom debitel"
    ],
    "tags": {
      "brand": "Mobilcom Debitel",
      "brand:wikidata": "Q344744",
      "brand:wikipedia": "en:Debitel",
      "name": "Mobilcom Debitel",
      "shop": "mobile_phone"
    }
  },
  "shop/mobile_phone|Moov": {
    "match": [
      "office/telecommunication|Agence Moov",
      "office/telecommunication|Moov",
      "shop/mobile_phone|Agence Moov"
    ],
    "nocount": true,
    "tags": {
      "brand": "Moov",
      "brand:wikidata": "Q3323637",
      "brand:wikipedia": "fr:Moov Côte d'Ivoire",
      "name": "Moov",
      "shop": "mobile_phone"
    }
  },
  "shop/mobile_phone|Movistar": {
    "count": 519,
    "tags": {
      "brand": "Movistar",
      "brand:wikidata": "Q967735",
      "brand:wikipedia": "en:Movistar",
      "name": "Movistar",
      "shop": "mobile_phone"
    }
  },
  "shop/mobile_phone|O2": {
    "count": 631,
    "tags": {
      "brand": "O2",
      "brand:wikidata": "Q7072246",
      "brand:wikipedia": "en:O2 (Ireland)",
      "name": "O2",
      "shop": "mobile_phone"
    }
  },
  "shop/mobile_phone|Optie1": {
    "count": 52,
    "tags": {
      "brand": "Optie1",
      "name": "Optie1",
      "operator": "The Phone House",
      "operator:wikidata": "Q325113",
      "operator:wikipedia": "nl:The Phone House",
      "shop": "mobile_phone"
    }
  },
  "shop/mobile_phone|Orange": {
    "count": 866,
    "match": [
      "office/telecommunication|Agence Orange",
      "office/telecommunication|Orange",
      "shop/mobile_phone|Agence Orange"
    ],
    "tags": {
      "brand": "Orange",
      "brand:wikidata": "Q1431486",
      "brand:wikipedia": "fr:Orange S.A.",
      "name": "Orange",
      "shop": "mobile_phone"
    }
  },
  "shop/mobile_phone|Personal": {
    "count": 61,
    "tags": {
      "brand": "Personal",
      "name": "Personal",
      "shop": "mobile_phone"
    }
  },
  "shop/mobile_phone|Phone House": {
    "count": 58,
    "match": [
      "shop/mobile_phone|The Phone House"
    ],
    "tags": {
      "brand": "Phone House",
      "brand:wikidata": "Q118046",
      "brand:wikipedia": "en:Carphone Warehouse",
      "name": "Phone House",
      "shop": "mobile_phone"
    }
  },
  "shop/mobile_phone|Play": {
    "count": 192,
    "tags": {
      "brand": "Play",
      "brand:wikidata": "Q7202998",
      "brand:wikipedia": "en:Play (telecommunications)",
      "name": "Play",
      "shop": "mobile_phone"
    }
  },
  "shop/mobile_phone|Plus": {
    "count": 158,
    "countryCodes": ["pl"],
    "nomatch": ["shop/supermarket|PLUS"],
    "tags": {
      "brand": "Plus",
      "brand:wikidata": "Q7205598",
      "brand:wikipedia": "pl:Plus (sieć telefonii komórkowej)",
      "name": "Plus",
      "shop": "mobile_phone"
    }
  },
  "shop/mobile_phone|Rogers": {
    "count": 77,
    "countryCodes": ["ca"],
    "match": ["shop/electronics|Rogers"],
    "tags": {
      "brand": "Rogers",
      "brand:wikidata": "Q3439663",
      "brand:wikipedia": "en:Rogers Wireless",
      "name": "Rogers",
      "shop": "mobile_phone"
    }
  },
  "shop/mobile_phone|SFR": {
    "count": 204,
    "tags": {
      "brand": "SFR",
      "brand:wikidata": "Q218765",
      "brand:wikipedia": "en:SFR",
      "name": "SFR",
      "shop": "mobile_phone"
    }
  },
  "shop/mobile_phone|Sprint": {
    "count": 651,
    "nomatch": ["amenity/fuel|Sprint"],
    "tags": {
      "brand": "Sprint",
      "brand:wikidata": "Q301965",
      "brand:wikipedia": "en:Sprint Corporation",
      "name": "Sprint",
      "shop": "mobile_phone"
    }
  },
  "shop/mobile_phone|T-Mobile": {
    "count": 1034,
    "match": ["shop/mobile_phone|T Mobile"],
    "tags": {
      "brand": "T-Mobile",
      "brand:wikidata": "Q327634",
      "brand:wikipedia": "en:T-Mobile",
      "name": "T-Mobile",
      "shop": "mobile_phone"
    }
  },
  "shop/mobile_phone|TIM": {
    "count": 109,
    "match": ["shop/mobile_phone|Tim"],
    "tags": {
      "brand": "TIM",
      "brand:wikidata": "Q144617",
      "brand:wikipedia": "en:Telecom Italia",
      "name": "TIM",
      "shop": "mobile_phone"
    }
  },
  "shop/mobile_phone|Telcel": {
    "count": 88,
    "tags": {
      "brand": "Telcel",
      "brand:wikidata": "Q3517255",
      "brand:wikipedia": "en:Telcel",
      "name": "Telcel",
      "shop": "mobile_phone"
    }
  },
  "shop/mobile_phone|Tele2": {
    "count": 282,
    "tags": {
      "brand": "Tele2",
      "brand:wikidata": "Q309865",
      "brand:wikipedia": "en:Tele2",
      "name": "Tele2",
      "shop": "mobile_phone"
    }
  },
  "shop/mobile_phone|Telekom": {
    "count": 220,
    "match": ["shop/mobile_phone|Telekom Shop"],
    "tags": {
      "brand": "Telekom",
      "brand:wikidata": "Q9396",
      "brand:wikipedia": "en:Deutsche Telekom",
      "name": "Telekom",
      "shop": "mobile_phone"
    }
  },
  "shop/mobile_phone|Telenor": {
    "count": 117,
    "tags": {
      "brand": "Telenor",
      "brand:wikidata": "Q845632",
      "brand:wikipedia": "en:Telenor",
      "name": "Telenor",
      "shop": "mobile_phone"
    }
  },
  "shop/mobile_phone|Telia": {
    "count": 52,
    "tags": {
      "brand": "Telia",
      "name": "Telia",
      "shop": "mobile_phone"
    }
  },
  "shop/mobile_phone|Telstra": {
    "countryCodes": ["au"],
    "nocount": true,
    "tags": {
      "brand": "Telstra",
      "brand:wikidata": "Q721162",
      "brand:wikipedia": "en:Telstra",
      "name": "Telstra",
      "shop": "mobile_phone"
    }
  },
  "shop/mobile_phone|Telus": {
    "count": 91,
    "tags": {
      "brand": "Telus",
      "brand:wikidata": "Q165858",
      "brand:wikipedia": "en:Telus",
      "name": "Telus",
      "shop": "mobile_phone"
    }
  },
  "shop/mobile_phone|Three": {
    "count": 86,
    "tags": {
      "brand": "Three",
      "name": "Three",
      "shop": "mobile_phone"
    }
  },
  "shop/mobile_phone|Turkcell": {
    "count": 164,
    "tags": {
      "brand": "Turkcell",
      "brand:wikidata": "Q283852",
      "brand:wikipedia": "en:Turkcell",
      "name": "Turkcell",
      "shop": "mobile_phone"
    }
  },
  "shop/mobile_phone|Télécentre": {
    "count": 76,
    "tags": {
      "brand": "Télécentre",
      "brand:wikidata": "Q180034",
      "brand:wikipedia": "en:Telecentre",
      "name": "Télécentre",
      "shop": "mobile_phone"
    }
  },
  "shop/mobile_phone|U.S. Cellular": {
    "match": ["shop/mobile_phone|US Cellular"],
    "nocount": true,
    "tags": {
      "brand": "U.S. Cellular",
      "brand:wikidata": "Q2466256",
      "brand:wikipedia": "en:U.S. Cellular",
      "name": "U.S. Cellular",
      "shop": "mobile_phone"
    }
  },
  "shop/mobile_phone|Verizon Wireless": {
    "count": 907,
    "match": ["shop/mobile_phone|Verizon"],
    "tags": {
      "brand": "Verizon Wireless",
      "brand:wikidata": "Q919641",
      "brand:wikipedia": "en:Verizon Wireless",
      "name": "Verizon Wireless",
      "shop": "mobile_phone"
    }
  },
  "shop/mobile_phone|Vodafone": {
    "count": 1508,
    "match": [
      "shop/mobile_phone|Vodafone Shop",
      "shop/mobile_phone|vodafone"
    ],
    "tags": {
      "brand": "Vodafone",
      "brand:wikidata": "Q122141",
      "brand:wikipedia": "en:Vodafone",
      "name": "Vodafone",
      "shop": "mobile_phone"
    }
  },
  "shop/mobile_phone|WIFI_ETECSA": {
    "count": 78,
    "countryCodes": ["cu"],
    "tags": {
      "brand": "WIFI_ETECSA",
      "brand:wikidata": "Q490323",
      "brand:wikipedia": "es:Empresa de Telecomunicaciones de Cuba",
      "name": "WIFI_ETECSA",
      "shop": "mobile_phone"
    }
  },
  "shop/mobile_phone|Wind": {
    "count": 200,
    "countryCodes": ["it"],
    "tags": {
      "brand": "Wind",
      "brand:wikidata": "Q650467",
      "brand:wikipedia": "en:WIND (Italy)",
      "name": "Wind",
      "shop": "mobile_phone"
    }
  },
  "shop/mobile_phone|Yoigo": {
    "count": 84,
    "tags": {
      "brand": "Yoigo",
      "brand:wikidata": "Q2630989",
      "brand:wikipedia": "en:Yoigo",
      "name": "Yoigo",
      "shop": "mobile_phone"
    }
  },
  "shop/mobile_phone|auショップ": {
    "count": 411,
    "countryCodes": ["jp"],
    "match": ["shop/mobile_phone|au"],
    "tags": {
      "brand": "au",
      "brand:wikidata": "Q11190521",
      "brand:wikipedia": "ja:au (通信)",
      "name": "auショップ",
      "name:en": "au shop",
      "shop": "mobile_phone"
    }
  },
  "shop/mobile_phone|Алло": {
    "count": 97,
    "countryCodes": ["md", "ua"],
    "tags": {
      "brand": "Алло",
      "brand:wikidata": "Q18683057",
      "brand:wikipedia": "uk:Алло (торгова мережа)",
      "name": "Алло",
      "shop": "mobile_phone"
    }
  },
  "shop/mobile_phone|Билайн": {
    "count": 607,
    "tags": {
      "brand": "Билайн",
      "brand:en": "Beeline",
      "brand:wikidata": "Q402880",
      "brand:wikipedia": "en:Beeline (brand)",
      "name": "Билайн",
      "name:en": "Beeline",
      "shop": "mobile_phone"
    }
  },
  "shop/mobile_phone|Евросеть": {
    "count": 1037,
    "tags": {
      "brand": "Евросеть",
      "brand:en": "Euroset",
      "brand:wikidata": "Q65310",
      "brand:wikipedia": "en:Euroset",
      "name": "Евросеть",
      "name:en": "Euroset",
      "shop": "mobile_phone"
    }
  },
  "shop/mobile_phone|Київстар": {
    "count": 75,
    "tags": {
      "brand": "Київстар",
      "brand:en": "Kyivstar",
      "brand:wikidata": "Q2288463",
      "brand:wikipedia": "en:Kyivstar",
      "name": "Київстар",
      "name:en": "Kyivstar",
      "shop": "mobile_phone"
    }
  },
  "shop/mobile_phone|МТС": {
    "count": 1208,
    "tags": {
      "brand": "МТС",
      "brand:en": "MTS",
      "brand:wikidata": "Q1368919",
      "brand:wikipedia": "en:MTS (network provider)",
      "name": "МТС",
      "name:en": "MTS",
      "shop": "mobile_phone"
    }
  },
  "shop/mobile_phone|Мегафон": {
    "count": 549,
    "match": ["shop/mobile_phone|МегаФон"],
    "tags": {
      "brand": "Мегафон",
      "brand:en": "MegaFon",
      "brand:wikidata": "Q1720713",
      "brand:wikipedia": "en:MegaFon",
      "name": "Мегафон",
      "name:en": "MegaFon",
      "shop": "mobile_phone"
    }
  },
  "shop/mobile_phone|Связной": {
    "count": 985,
    "tags": {
      "brand": "Связной",
      "brand:en": "Svyaznoy",
      "brand:wikidata": "Q65371",
      "brand:wikipedia": "en:Svyaznoy",
      "name": "Связной",
      "name:en": "Svyaznoy",
      "shop": "mobile_phone"
    }
  },
  "shop/mobile_phone|Теле2": {
    "count": 93,
    "tags": {
      "brand": "Теле2",
      "brand:en": "Tele2",
      "brand:wikidata": "Q309865",
      "brand:wikipedia": "en:Tele2",
      "name": "Теле2",
      "name:en": "Tele2",
      "shop": "mobile_phone"
    }
  },
  "shop/mobile_phone|ソフトバンク": {
    "count": 75,
    "countryCodes": ["jp"],
    "tags": {
      "brand": "ソフトバンク",
      "brand:en": "SoftBank Telecom",
      "brand:wikidata": "Q7553832",
      "brand:wikipedia": "en:SoftBank Telecom",
      "name": "ソフトバンク",
      "name:en": "SoftBank Telecom",
      "shop": "mobile_phone"
    }
  },
  "shop/mobile_phone|ソフトバンクショップ": {
    "count": 522,
    "countryCodes": ["jp"],
    "tags": {
      "brand": "ソフトバンクショップ",
      "brand:en": "SoftBankShop",
      "brand:wikidata": "Q11315281",
      "brand:wikipedia": "ja:ソフトバンクショップ",
      "name": "ソフトバンクショップ",
      "name:en": "SoftBankShop",
      "shop": "mobile_phone"
    }
  },
  "shop/mobile_phone|ドコモショップ": {
    "count": 513,
    "countryCodes": ["jp"],
    "tags": {
      "brand": "ドコモショップ",
      "brand:en": "DoCoMo Shop",
      "brand:wikidata": "Q853958",
      "brand:wikipedia": "ja:NTTドコモ",
      "name": "ドコモショップ",
      "name:en": "DoCoMo Shop",
      "shop": "mobile_phone"
    }
  },
  "shop/mobile_phone|ワイモバイル": {
    "count": 52,
    "countryCodes": ["jp"],
    "tags": {
      "brand": "ワイモバイル",
      "name": "ワイモバイル",
      "shop": "mobile_phone"
    }
  }
}