{
  "brands/shop/optician": [
    {
      "displayName": "Alain Afflelou",
      "id": "alainafflelou-b3bc92",
      "locationSet": {
        "include": ["be", "ch", "es", "fr", "pt"]
      },
      "oldid": "shop/optician|Alain Afflelou",
      "tags": {
        "brand": "Alain Afflelou",
        "brand:wikidata": "Q2829511",
        "brand:wikipedia": "fr:Alain Afflelou (entreprise)",
        "name": "Alain Afflelou",
        "shop": "optician"
      }
    },
    {
      "displayName": "America's Best Contacts & Eyeglasses",
      "id": "americasbestcontactsandeyeglasses-5b6831",
      "locationSet": {"include": ["us"]},
      "oldid": "shop/optician|America's Best Contacts & Eyeglasses",
      "tags": {
        "brand": "America's Best Contacts & Eyeglasses",
        "brand:wikidata": "Q4742504",
        "brand:wikipedia": "en:America's Best Contacts & Eyeglasses",
        "name": "America's Best Contacts & Eyeglasses",
        "shop": "optician",
        "short_name": "America's Best"
      }
    },
    {
      "displayName": "Apollo-Optik",
      "id": "apollooptik-7fb7e9",
      "locationSet": {"include": ["de"]},
      "oldid": "shop/optician|Apollo-Optik",
      "tags": {
        "brand": "Apollo-Optik",
        "brand:wikidata": "Q618940",
        "brand:wikipedia": "de:Apollo-Optik",
        "name": "Apollo-Optik",
        "shop": "optician",
        "short_name": "Apollo"
      }
    },
    {
      "displayName": "Atol",
      "id": "atol-8cd79e",
      "locationSet": {"include": ["fr"]},
      "oldid": "shop/optician|Atol",
      "tags": {
        "brand": "Atol",
        "brand:wikidata": "Q2869542",
        "brand:wikipedia": "fr:Atol (opticien)",
        "name": "Atol",
        "shop": "optician"
      }
    },
    {
      "displayName": "Boots Opticians",
      "id": "bootsopticians-610826",
      "locationSet": {"include": ["gb"]},
      "oldid": "shop/optician|Boots Opticians",
      "tags": {
        "brand": "Boots Opticians",
        "brand:wikidata": "Q4944037",
        "brand:wikipedia": "en:Boots Opticians",
        "name": "Boots Opticians",
        "shop": "optician",
        "short_name": "Boots"
      }
    },
    {
      "displayName": "Clarkson Eyecare",
      "id": "clarksoneyecare-5b6831",
      "locationSet": {"include": ["us"]},
      "oldid": "shop/optician|Clarkson Eyecare",
      "tags": {
        "brand": "Clarkson Eyecare",
        "brand:wikidata": "Q64027001",
        "healthcare": "optometrist",
        "name": "Clarkson Eyecare",
        "shop": "optician",
        "short_name": "Clarkson"
      }
    },
    {
      "displayName": "Cohen's Fashion Optical",
      "id": "cohensfashionoptical-5b6831",
      "locationSet": {"include": ["us"]},
      "matchNames": ["cohen's optical"],
      "oldid": "shop/optician|Cohen's Fashion Optical",
      "tags": {
        "brand": "Cohen's Fashion Optical",
        "brand:wikidata": "Q5141313",
        "brand:wikipedia": "en:Cohen's Fashion Optical",
        "healthcare": "optometrist",
        "name": "Cohen's Fashion Optical",
        "shop": "optician",
        "short_name": "Cohen's"
      }
    },
    {
      "displayName": "Die Brille",
      "id": "diebrille-7fb7e9",
      "locationSet": {"include": ["de"]},
      "oldid": "shop/optician|Die Brille",
      "tags": {
        "brand": "Die Brille",
        "name": "Die Brille",
        "shop": "optician"
      }
    },
    {
      "displayName": "Eye Wish",
      "id": "eyewish-2fe4c0",
      "locationSet": {"include": ["nl"]},
      "oldid": "shop/optician|Eye Wish",
      "tags": {
        "brand": "Eye Wish",
        "brand:wikidata": "Q62391641",
        "name": "Eye Wish",
        "shop": "optician"
      }
    },
    {
      "displayName": "Fielmann",
      "id": "fielmann-b8fab0",
      "locationSet": {
        "include": [
          "at",
          "by",
          "ch",
          "de",
          "it",
          "lt",
          "lu",
          "lv",
          "nl",
          "pl",
          "ru",
          "ua"
        ]
      },
      "oldid": "shop/optician|Fielmann",
      "tags": {
        "brand": "Fielmann",
        "brand:wikidata": "Q457822",
        "brand:wikipedia": "de:Fielmann",
        "name": "Fielmann",
        "shop": "optician"
      }
    },
    {
      "displayName": "General Óptica",
      "id": "generaloptica-61af00",
      "locationSet": {"include": ["es"]},
      "oldid": "shop/optician|General Óptica",
      "tags": {
        "brand": "General Óptica",
        "brand:wikidata": "Q62391672",
        "name": "General Óptica",
        "shop": "optician"
      }
    },
    {
      "displayName": "Générale d'Optique",
      "id": "generaledoptique-8cd79e",
      "locationSet": {"include": ["fr"]},
      "oldid": "shop/optician|Générale d'Optique",
      "tags": {
        "brand": "Générale d'Optique",
        "brand:wikidata": "Q62391701",
        "name": "Générale d'Optique",
        "shop": "optician"
      }
    },
    {
      "displayName": "GMO",
      "id": "gmo-963ac3",
      "locationSet": {
        "include": ["cl", "co", "ec", "pe"]
      },
      "oldid": "shop/optician|GMO",
      "tags": {
        "brand": "GMO",
        "name": "GMO",
        "shop": "optician"
      }
    },
    {
      "displayName": "Grand Optical",
      "id": "grandoptical-8cd79e",
      "locationSet": {"include": ["fr"]},
      "oldid": "shop/optician|Grand Optical",
      "tags": {
        "brand": "Grand Optical",
        "brand:wikidata": "Q3113677",
        "brand:wikipedia": "fr:Grand Optical",
        "name": "Grand Optical",
        "shop": "optician"
      }
    },
    {
      "displayName": "Hakim Optical",
      "id": "hakimoptical-8232b6",
      "locationSet": {"include": ["ca"]},
      "oldid": "shop/optician|Hakim Optical",
      "tags": {
        "brand": "Hakim Optical",
        "brand:wikidata": "Q28232761",
        "brand:wikipedia": "en:Hakim Optical",
        "name": "Hakim Optical",
        "shop": "optician"
      }
    },
    {
      "displayName": "Hans Anders",
      "id": "hansanders-9e6048",
      "locationSet": {
        "include": ["be", "fr", "nl"]
      },
      "oldid": "shop/optician|Hans Anders",
      "tags": {
        "brand": "Hans Anders",
        "brand:wikidata": "Q1884976",
        "brand:wikipedia": "nl:Hans Anders",
        "name": "Hans Anders",
        "shop": "optician"
      }
    },
    {
      "displayName": "Instrumentarium",
      "id": "instrumentarium-3a4758",
      "locationSet": {"include": ["fi"]},
      "oldid": "shop/optician|Instrumentarium",
      "tags": {
        "brand": "Instrumentarium",
        "brand:wikidata": "Q11864937",
        "brand:wikipedia": "fi:Instrumentarium",
        "name": "Instrumentarium",
        "shop": "optician"
      }
    },
    {
      "displayName": "Krys",
      "id": "krys-8cd79e",
      "locationSet": {"include": ["fr"]},
      "oldid": "shop/optician|Krys",
      "tags": {
        "brand": "Krys",
        "brand:wikidata": "Q3119538",
        "brand:wikipedia": "fr:Krys Group",
        "name": "Krys",
        "shop": "optician"
      }
    },
    {
      "displayName": "LensCrafters",
      "id": "lenscrafters-108284",
      "locationSet": {"include": ["ca", "us"]},
      "oldid": "shop/optician|LensCrafters",
      "tags": {
        "brand": "LensCrafters",
        "brand:wikidata": "Q6523209",
        "brand:wikipedia": "en:LensCrafters",
        "name": "LensCrafters",
        "shop": "optician"
      }
    },
    {
      "displayName": "Lenskart",
      "id": "lenskart-596de2",
      "locationSet": {"include": ["in"]},
      "oldid": "shop/optician|Lenskart",
      "tags": {
        "brand": "Lenskart",
        "brand:wikidata": "Q17068753",
        "name": "Lenskart",
        "shop": "optician"
      }
    },
    {
      "displayName": "Les Opticiens Mutualistes",
      "id": "lesopticiensmutualistes-8cd79e",
      "locationSet": {"include": ["fr"]},
      "matchNames": ["opticiens mutualistes"],
      "oldid": "shop/optician|Les Opticiens Mutualistes",
      "tags": {
        "brand": "Les Opticiens Mutualistes",
        "brand:wikidata": "Q18414551",
        "brand:wikipedia": "fr:Les Opticiens Mutualistes",
        "name": "Les Opticiens Mutualistes",
        "shop": "optician"
      }
    },
    {
      "displayName": "Lissac",
      "id": "lissac-8cd79e",
      "locationSet": {"include": ["fr"]},
      "oldid": "shop/optician|Lissac",
      "tags": {
        "brand": "Lissac",
        "brand:wikidata": "Q63102559",
        "name": "Lissac",
        "shop": "optician"
      }
    },
    {
      "displayName": "Lynx Optique",
      "id": "lynxoptique-8cd79e",
      "locationSet": {"include": ["fr"]},
      "oldid": "shop/optician|Lynx Optique",
      "tags": {
        "brand": "Lynx Optique",
        "brand:wikidata": "Q25387428",
        "brand:wikipedia": "fr:Lynx Optique",
        "name": "Lynx Optique",
        "shop": "optician"
      }
    },
    {
      "displayName": "Multiópticas (Portugal)",
      "id": "multiopticas-1afd50",
      "locationSet": {"include": ["pt"]},
      "oldid": "shop/optician|Multiópticas~(Portugal)",
      "tags": {
        "brand": "Multiópticas",
        "brand:wikidata": "Q62391722",
        "name": "Multiópticas",
        "shop": "optician"
      }
    },
    {
      "displayName": "Multiópticas (Spain)",
      "id": "multiopticas-61af00",
      "locationSet": {"include": ["es"]},
      "oldid": "shop/optician|Multiópticas~(Spain)",
      "tags": {
        "brand": "Multiópticas",
        "brand:wikidata": "Q62391719",
        "name": "Multiópticas",
        "shop": "optician"
      }
    },
    {
      "displayName": "Nissen",
      "id": "nissen-3a4758",
      "locationSet": {"include": ["fi"]},
      "oldid": "shop/optician|Nissen",
      "tags": {
        "brand": "Nissen",
        "name": "Nissen",
        "shop": "optician"
      }
    },
    {
      "displayName": "Oakley",
      "id": "oakley-5b6831",
      "locationSet": {"include": ["us"]},
      "matchTags": [
        "shop/clothes",
        "shop/sports"
      ],
      "oldid": "shop/optician|Oakley",
      "tags": {
        "brand": "Oakley",
        "brand:wikidata": "Q161906",
        "brand:wikipedia": "en:Oakley, Inc.",
        "name": "Oakley",
        "shop": "optician"
      }
    },
    {
      "displayName": "Oliver Peoples",
      "id": "oliverpeoples-4fd8bc",
      "locationSet": {"include": ["001"]},
      "oldid": "shop/optician|Oliver Peoples",
      "tags": {
        "brand": "Oliver Peoples",
        "brand:wikidata": "Q7087746",
        "brand:wikipedia": "en:Oliver Peoples",
        "name": "Oliver Peoples",
        "shop": "optician"
      }
    },
    {
      "displayName": "Optic 2000",
      "id": "optic2000-7d1aac",
      "locationSet": {"include": ["ch", "fr"]},
      "oldid": "shop/optician|Optic 2000",
      "tags": {
        "brand": "Optic 2000",
        "brand:wikidata": "Q3354445",
        "brand:wikipedia": "fr:Optic 2000",
        "name": "Optic 2000",
        "shop": "optician"
      }
    },
    {
      "displayName": "Optical Center",
      "id": "opticalcenter-4fd8bc",
      "locationSet": {"include": ["001"]},
      "oldid": "shop/optician|Optical Center",
      "tags": {
        "brand": "Optical Center",
        "brand:wikidata": "Q3354448",
        "brand:wikipedia": "fr:Optical Center",
        "name": "Optical Center",
        "shop": "optician"
      }
    },
    {
      "displayName": "Optical Express",
      "id": "opticalexpress-610826",
      "locationSet": {"include": ["gb"]},
      "oldid": "shop/optician|Optical Express",
      "tags": {
        "brand": "Optical Express",
        "brand:wikidata": "Q7098810",
        "brand:wikipedia": "en:Optical Express",
        "name": "Optical Express",
        "shop": "optician"
      }
    },
    {
      "displayName": "Opticalia",
      "id": "opticalia-4fd8bc",
      "locationSet": {"include": ["001"]},
      "oldid": "shop/optician|Opticalia",
      "tags": {
        "brand": "Opticalia",
        "brand:wikidata": "Q62082114",
        "name": "Opticalia",
        "shop": "optician"
      }
    },
    {
      "displayName": "Pearle",
      "id": "pearle-7777da",
      "locationSet": {"include": ["be", "nl"]},
      "oldid": "shop/optician|Pearle",
      "tags": {
        "brand": "Pearle",
        "brand:wikidata": "Q2231148",
        "brand:wikipedia": "nl:Pearle",
        "name": "Pearle",
        "shop": "optician"
      }
    },
    {
      "displayName": "Pearle Vision",
      "id": "pearlevision-108284",
      "locationSet": {"include": ["ca", "us"]},
      "oldid": "shop/optician|Pearle Vision",
      "tags": {
        "brand": "Pearle Vision",
        "brand:wikidata": "Q2231148",
        "brand:wikipedia": "en:Pearle Vision",
        "name": "Pearle Vision",
        "shop": "optician",
        "short_name": "Pearle"
      }
    },
    {
      "displayName": "Scrivens",
      "id": "scrivens-610826",
      "locationSet": {"include": ["gb"]},
      "oldid": "shop/optician|Scrivens",
      "tags": {
        "brand": "Scrivens",
        "brand:wikidata": "Q79424133",
        "name": "Scrivens",
        "shop": "optician"
      }
    },
    {
      "displayName": "Silmäasema",
      "id": "silmaasema-3a4758",
      "locationSet": {"include": ["fi"]},
      "oldid": "shop/optician|Silmäasema",
      "tags": {
        "brand": "Silmäasema",
        "brand:wikidata": "Q15994200",
        "brand:wikipedia": "fi:Silmäasema",
        "name": "Silmäasema",
        "shop": "optician"
      }
    },
    {
      "displayName": "Solaris",
      "id": "solaris-8cd79e",
      "locationSet": {"include": ["fr"]},
      "oldid": "shop/optician|Solaris",
      "tags": {
        "brand": "Solaris",
        "brand:wikidata": "Q3489229",
        "brand:wikipedia": "fr:Solaris (magasin)",
        "name": "Solaris",
        "shop": "optician"
      }
    },
    {
      "displayName": "Solstice Sunglasses",
      "id": "solsticesunglasses-4fd8bc",
      "locationSet": {"include": ["001"]},
      "oldid": "shop/optician|Solstice Sunglasses",
      "tags": {
        "brand": "Solstice Sunglasses",
        "name": "Solstice Sunglasses",
        "shop": "optician",
        "short_name": "Solstice"
      }
    },
    {
      "displayName": "Specsavers",
      "id": "specsavers-4fd8bc",
      "locationSet": {"include": ["001"]},
      "oldid": "shop/optician|Specsavers",
      "tags": {
        "brand": "Specsavers",
        "brand:wikidata": "Q2000610",
        "brand:wikipedia": "en:Specsavers",
        "name": "Specsavers",
        "shop": "optician"
      }
    },
    {
      "displayName": "Sunglass Hut",
      "id": "sunglasshut-4fd8bc",
      "locationSet": {"include": ["001"]},
      "matchTags": ["shop/sunglasses"],
      "oldid": "shop/optician|Sunglass Hut",
      "tags": {
        "brand": "Sunglass Hut",
        "brand:wikidata": "Q136311",
        "brand:wikipedia": "en:Sunglass Hut",
        "name": "Sunglass Hut",
        "shop": "optician"
      }
    },
    {
      "displayName": "Synoptik",
      "id": "synoptik-876f61",
      "locationSet": {"include": ["se"]},
      "oldid": "shop/optician|Synoptik",
      "tags": {
        "brand": "Synoptik",
        "brand:wikidata": "Q10687541",
        "brand:wikipedia": "sv:Synoptik",
        "name": "Synoptik",
        "shop": "optician"
      }
    },
    {
      "displayName": "Synsam",
      "id": "synsam-aec081",
      "locationSet": {
        "include": ["fi", "no", "se"]
      },
      "oldid": "shop/optician|Synsam",
      "tags": {
        "brand": "Synsam",
        "brand:wikidata": "Q12004589",
        "brand:wikipedia": "sv:Synsam",
        "name": "Synsam",
        "shop": "optician"
      }
    },
    {
      "displayName": "Target Optical",
      "id": "targetoptical-5b6831",
      "locationSet": {"include": ["us"]},
      "oldid": "shop/optician|Target Optical",
      "tags": {
        "brand": "Target Optical",
        "brand:wikidata": "Q19903688",
        "brand:wikipedia": "en:Target Optical",
        "name": "Target Optical",
        "shop": "optician"
      }
    },
    {
      "displayName": "Vision Express",
      "id": "visionexpress-4fd8bc",
      "locationSet": {"include": ["001"]},
      "oldid": "shop/optician|Vision Express",
      "tags": {
        "brand": "Vision Express",
        "brand:wikidata": "Q7936150",
        "brand:wikipedia": "en:Vision Express",
        "name": "Vision Express",
        "shop": "optician"
      }
    },
    {
      "displayName": "Vision Plus",
      "id": "visionplus-8cd79e",
      "locationSet": {"include": ["fr"]},
      "oldid": "shop/optician|Vision Plus",
      "tags": {
        "brand": "Vision Plus",
        "brand:wikidata": "Q23752663",
        "name": "Vision Plus",
        "shop": "optician"
      }
    },
    {
      "displayName": "Visionworks",
      "id": "visionworks-5b6831",
      "locationSet": {"include": ["us"]},
      "oldid": "shop/optician|Visionworks",
      "tags": {
        "brand": "Visionworks",
        "brand:wikidata": "Q5422607",
        "brand:wikipedia": "en:Visionworks",
        "name": "Visionworks",
        "shop": "optician"
      }
    },
    {
      "displayName": "Warby Parker",
      "id": "warbyparker-108284",
      "locationSet": {"include": ["ca", "us"]},
      "oldid": "shop/optician|Warby Parker",
      "tags": {
        "brand": "Warby Parker",
        "brand:wikidata": "Q7968882",
        "brand:wikipedia": "en:Warby Parker",
        "name": "Warby Parker",
        "shop": "optician"
      }
    },
    {
      "displayName": "Люксоптика",
      "id": "nюксоптика-4fd8bc",
      "locationSet": {"include": ["001"]},
      "oldid": "shop/optician|Люксоптика",
      "tags": {
        "brand": "Люксоптика",
        "name": "Люксоптика",
        "shop": "optician"
      }
    },
    {
      "displayName": "Оптимист Оптика",
      "id": "оптимистоптика-103edc",
      "locationSet": {"include": ["ru"]},
      "oldid": "shop/optician|Оптимист Оптика",
      "tags": {
        "brand": "Оптимист Оптика",
        "name": "Оптимист Оптика",
        "shop": "optician"
      }
    },
    {
      "displayName": "Счастливый взгляд",
      "id": "счастnивыйвзгnяд-103edc",
      "locationSet": {"include": ["ru"]},
      "oldid": "shop/optician|Счастливый взгляд",
      "tags": {
        "brand": "Счастливый взгляд",
        "name": "Счастливый взгляд",
        "shop": "optician"
      }
    },
    {
      "displayName": "แว่นท็อปเจริญ",
      "id": "แว่นท็อปเจริญ-30a922",
      "locationSet": {"include": ["th"]},
      "oldid": "shop/optician|แว่นท็อปเจริญ",
      "tags": {
        "brand": "แว่นท็อปเจริญ",
        "brand:th": "แว่นท็อปเจริญ",
        "brand:wikidata": "Q62391732",
        "name": "แว่นท็อปเจริญ",
        "name:th": "แว่นท็อปเจริญ",
        "shop": "optician"
      }
    },
    {
      "displayName": "ジンズ",
      "id": "ジンズ-3bd301",
      "locationSet": {"include": ["jp"]},
      "oldid": "shop/optician|ジンズ",
      "tags": {
        "brand": "ジンズ",
        "brand:en": "JINS",
        "brand:ja": "ジンズ",
        "brand:wikidata": "Q11308974",
        "brand:wikipedia": "ja:ジンズ",
        "name": "ジンズ",
        "name:en": "JINS",
        "name:ja": "ジンズ",
        "shop": "optician"
      }
    },
    {
      "displayName": "ゾフ",
      "id": "ゾフ-3bd301",
      "locationSet": {"include": ["jp"]},
      "oldid": "shop/optician|ゾフ",
      "tags": {
        "brand": "ゾフ",
        "brand:en": "Zoff",
        "brand:ja": "ゾフ",
        "brand:wikidata": "Q11255932",
        "brand:wikipedia": "ja:Zoff",
        "name": "ゾフ",
        "name:en": "Zoff",
        "name:ja": "ゾフ",
        "shop": "optician"
      }
    },
    {
      "displayName": "メガネスーパー",
      "id": "メガネスーパー-3bd301",
      "locationSet": {"include": ["jp"]},
      "oldid": "shop/optician|メガネスーパー",
      "tags": {
        "brand": "メガネスーパー",
        "brand:en": "Meganesuper",
        "brand:ja": "メガネスーパー",
        "brand:wikidata": "Q11343504",
        "brand:wikipedia": "ja:メガネスーパー",
        "name": "メガネスーパー",
        "name:en": "Meganesuper",
        "name:ja": "メガネスーパー",
        "shop": "optician"
      }
    },
    {
      "displayName": "メガネストアー",
      "id": "メガネストアー-3bd301",
      "locationSet": {"include": ["jp"]},
      "oldid": "shop/optician|メガネストアー",
      "tags": {
        "brand": "メガネストアー",
        "brand:en": "Megane Store",
        "brand:ja": "メガネストアー",
        "brand:wikidata": "Q11343503",
        "brand:wikipedia": "jp:メガネストアー",
        "name": "メガネストアー",
        "name:en": "Megane Store",
        "name:ja": "メガネストアー",
        "shop": "optician"
      }
    },
    {
      "displayName": "メガネドラッグ",
      "id": "メガネドラッグ-3bd301",
      "locationSet": {"include": ["jp"]},
      "oldid": "shop/optician|メガネドラッグ",
      "tags": {
        "brand": "メガネドラッグ",
        "brand:en": "Megane Drug",
        "brand:ja": "メガネドラッグ",
        "brand:wikidata": "Q11343507",
        "brand:wikipedia": "ja:メガネドラッグ",
        "name": "メガネドラッグ",
        "name:en": "Megane Drug",
        "name:ja": "メガネドラッグ",
        "shop": "optician"
      }
    },
    {
      "displayName": "メガネの三城",
      "id": "メガネの三城-3bd301",
      "locationSet": {"include": ["jp"]},
      "oldid": "shop/optician|メガネの三城",
      "tags": {
        "alt_name:en": "Megane no Miki",
        "brand": "メガネの三城",
        "brand:en": "Paris Miki",
        "brand:ja": "メガネの三城",
        "brand:wikidata": "Q11354808",
        "brand:wikipedia": "jp:三城ホールディングス",
        "name": "メガネの三城",
        "name:en": "Paris Miki",
        "name:ja": "メガネの三城",
        "shop": "optician"
      }
    },
    {
      "displayName": "寶島眼鏡",
      "id": "寶島眼鏡-b2cb2d",
      "locationSet": {"include": ["tw"]},
      "oldid": "shop/optician|寶島眼鏡",
      "tags": {
        "brand": "寶島眼鏡",
        "brand:wikidata": "Q62391741",
        "name": "寶島眼鏡",
        "shop": "optician"
      }
    },
    {
      "displayName": "眼鏡市場",
      "id": "眼鏡市場-3bd301",
      "locationSet": {"include": ["jp"]},
      "oldid": "shop/optician|眼鏡市場",
      "tags": {
        "brand": "眼鏡市場",
        "brand:en": "Megane Ichiba",
        "brand:wikidata": "Q11343506",
        "brand:wikipedia": "ja:メガネトップ",
        "name": "眼鏡市場",
        "name:en": "Megane Ichiba",
        "shop": "optician"
      }
    }
  ]
}