{
  "shop": {
    "photo": [
      {
        "displayName": "Kamera Express",
        "id": "kameraexpress-a300b5",
        "locationSet": {
          "include": ["be", "de", "nl"]
        },
        "oldid": "shop/photo|Kamera Express",
        "tags": {
          "brand": "Kamera Express",
          "brand:wikidata": "Q77976400",
          "name": "Kamera Express",
          "shop": "photo"
        }
      },
      {
        "displayName": "Kodak Express",
        "id": "kodakexpress-e408f5",
        "locationSet": {"include": ["001"]},
        "matchNames": ["kodak"],
        "oldid": "shop/photo|Kodak Express",
        "tags": {
          "brand": "Kodak Express",
          "brand:wikidata": "Q6425126",
          "brand:wikipedia": "en:Kodak Express",
          "name": "Kodak Express",
          "shop": "photo"
        }
      },
      {
        "displayName": "Max Spielmann",
        "id": "maxspielmann-2cd26b",
        "locationSet": {"include": ["gb"]},
        "oldid": "shop/photo|Max Spielmann",
        "tags": {
          "brand": "Max Spielmann",
          "brand:wikidata": "Q76221051",
          "name": "Max Spielmann",
          "shop": "photo"
        }
      },
      {
        "displayName": "Snappy Snaps",
        "id": "snappysnaps-2cd26b",
        "locationSet": {"include": ["gb"]},
        "oldid": "shop/photo|Snappy Snaps",
        "tags": {
          "brand": "Snappy Snaps",
          "brand:wikidata": "Q7547351",
          "brand:wikipedia": "en:Snappy Snaps",
          "name": "Snappy Snaps",
          "shop": "photo"
        }
      },
      {
        "displayName": "カメラのキタムラ",
        "id": "カメラのキタムラ-79ee23",
        "locationSet": {"include": ["jp"]},
        "oldid": "shop/photo|カメラのキタムラ",
        "tags": {
          "brand": "カメラのキタムラ",
          "brand:en": "Kitamura Camera",
          "brand:ja": "カメラのキタムラ",
          "brand:wikidata": "Q11294821",
          "brand:wikipedia": "ja:カメラのキタムラ",
          "name": "カメラのキタムラ",
          "name:en": "Kitamura Camera",
          "name:ja": "カメラのキタムラ",
          "shop": "photo"
        }
      },
      {
        "displayName": "コイデカメラ",
        "id": "コイデカメラ-79ee23",
        "locationSet": {"include": ["jp"]},
        "oldid": "shop/photo|コイデカメラ",
        "tags": {
          "brand": "コイデカメラ",
          "brand:en": "Koide Camera",
          "brand:ja": "コイデカメラ",
          "brand:wikidata": "Q11301829",
          "brand:wikipedia": "ja:コイデカメラ",
          "name": "コイデカメラ",
          "name:en": "Koide Camera",
          "name:ja": "コイデカメラ",
          "shop": "photo"
        }
      },
      {
        "displayName": "パレットプラザ",
        "id": "パレットプラザ-79ee23",
        "locationSet": {"include": ["jp"]},
        "oldid": "shop/photo|パレットプラザ",
        "tags": {
          "brand": "パレットプラザ",
          "brand:en": "Palette Plaza",
          "brand:ja": "パレットプラザ",
          "brand:wikidata": "Q11335403",
          "brand:wikipedia": "ja:プラザクリエイト",
          "name": "パレットプラザ",
          "name:en": "Palette Plaza",
          "name:ja": "パレットプラザ",
          "shop": "photo"
        }
      }
    ]
  }
}