{
  "shop": {
    "second_hand": [
      {
        "displayName": "Savers",
        "id": "savers-599106",
        "locationSet": {
          "include": ["au", "ca", "us"]
        },
        "nomatch": ["shop/chemist|Savers"],
        "oldid": "shop/second_hand|Savers",
        "tags": {
          "brand": "Savers",
          "brand:wikidata": "Q7428188",
          "brand:wikipedia": "en:Savers",
          "name": "Savers",
          "shop": "second_hand"
        }
      },
      {
        "displayName": "Value Village",
        "id": "valuevillage-4d519c",
        "locationSet": {"include": ["ca", "us"]},
        "oldid": "shop/second_hand|Value Village",
        "tags": {
          "brand": "Value Village",
          "brand:wikidata": "Q7428188",
          "brand:wikipedia": "en:Savers",
          "name": "Value Village",
          "shop": "second_hand"
        }
      },
      {
        "displayName": "セカンドストリート",
        "id": "セカンドストリート-aca293",
        "locationSet": {"include": ["jp"]},
        "oldid": "shop/second_hand|セカンドストリート",
        "tags": {
          "brand": "セカンドストリート",
          "brand:en": "2nd STREET",
          "brand:ja": "セカンドストリート",
          "brand:wikidata": "Q11314186",
          "brand:wikipedia": "ja:セカンドストリート",
          "name": "セカンドストリート",
          "name:en": "2nd STREET",
          "name:ja": "セカンドストリート",
          "shop": "second_hand"
        }
      },
      {
        "displayName": "トレジャー・ファクトリー",
        "id": "トレジャーファクトリー-aca293",
        "locationSet": {"include": ["jp"]},
        "oldid": "shop/second_hand|トレジャー・ファクトリー",
        "tags": {
          "brand": "トレジャー・ファクトリー",
          "brand:en": "Treasure Factory",
          "brand:ja": "トレジャー・ファクトリー",
          "brand:wikidata": "Q11322108",
          "brand:wikipedia": "ja:トレジャー・ファクトリー",
          "name": "トレジャー・ファクトリー",
          "name:en": "Treasure Factory",
          "name:ja": "トレジャー・ファクトリー",
          "shop": "second_hand"
        }
      },
      {
        "displayName": "ハードオフ",
        "id": "ハードオフ-aca293",
        "locationSet": {"include": ["jp"]},
        "oldid": "shop/second_hand|ハードオフ",
        "tags": {
          "brand": "ハードオフ",
          "brand:en": "Hard Off",
          "brand:ja": "ハードオフ",
          "brand:wikidata": "Q11327274",
          "brand:wikipedia": "ja:ハードオフコーポレーション",
          "name": "ハードオフ",
          "name:en": "Hard Off",
          "name:ja": "ハードオフ",
          "shop": "second_hand"
        }
      },
      {
        "displayName": "買取王国",
        "id": "買取王国-aca293",
        "locationSet": {"include": ["jp"]},
        "oldid": "shop/second_hand|買取王国",
        "tags": {
          "brand": "買取王国",
          "brand:en": "Treasure Bomb",
          "brand:ja": "買取王国",
          "brand:ja-Latn": "Kaitori Okoku",
          "brand:wikidata": "Q18336741",
          "brand:wikipedia": "ja:買取王国",
          "name": "買取王国",
          "name:en": "Treasure Bomb",
          "name:ja": "買取王国",
          "name:ja-Latn": "Kaitori Okoku",
          "shop": "second_hand"
        }
      }
    ]
  }
}