{
  "brands/shop/sports": [
    {
      "displayName": "4F",
      "id": "4f-5624eb",
      "locationSet": {
        "include": [
          "cz",
          "de",
          "lt",
          "lv",
          "ro",
          "ru",
          "sk"
        ]
      },
      "oldid": "shop/sports|4F",
      "tags": {
        "brand": "4F",
        "brand:wikidata": "Q16525801",
        "brand:wikipedia": "en:4F (company)",
        "name": "4F",
        "shop": "sports"
      }
    },
    {
      "displayName": "A3 SPORT",
      "id": "a3sport-9dd59e",
      "locationSet": {
        "include": ["cz", "de", "sk"]
      },
      "oldid": "shop/sports|A3 SPORT",
      "tags": {
        "brand": "A3 SPORT",
        "brand:wikidata": "Q58170961",
        "name": "A3 SPORT",
        "shop": "sports"
      }
    },
    {
      "displayName": "Academy Sports + Outdoors",
      "id": "academysportsoutdoors-89ce6f",
      "locationSet": {"include": ["us"]},
      "matchNames": [
        "academy",
        "academy sports and outdoors"
      ],
      "oldid": "shop/sports|Academy Sports + Outdoors",
      "tags": {
        "brand": "Academy Sports + Outdoors",
        "brand:wikidata": "Q4671380",
        "brand:wikipedia": "en:Academy Sports + Outdoors",
        "name": "Academy Sports + Outdoors",
        "shop": "sports"
      }
    },
    {
      "displayName": "Adidas",
      "id": "adidas-a8f48a",
      "locationSet": {"include": ["001"]},
      "oldid": "shop/sports|Adidas",
      "tags": {
        "brand": "Adidas",
        "brand:wikidata": "Q3895",
        "brand:wikipedia": "en:Adidas",
        "name": "Adidas",
        "shop": "sports"
      }
    },
    {
      "displayName": "Aktiesport",
      "id": "aktiesport-d4032c",
      "locationSet": {"include": ["nl"]},
      "oldid": "shop/sports|Aktiesport",
      "tags": {
        "brand": "Aktiesport",
        "brand:wikidata": "Q57546889",
        "name": "Aktiesport",
        "shop": "sports"
      }
    },
    {
      "displayName": "American Golf",
      "id": "americangolf-03b7aa",
      "locationSet": {"include": ["gb", "ie"]},
      "matchTags": ["shop/golf"],
      "oldid": "shop/sports|American Golf",
      "tags": {
        "brand": "American Golf",
        "brand:wikidata": "Q62657494",
        "name": "American Golf",
        "shop": "sports",
        "sport": "golf"
      }
    },
    {
      "displayName": "Big 5 Sporting Goods",
      "id": "big5sportinggoods-89ce6f",
      "locationSet": {"include": ["us"]},
      "matchNames": ["big 5"],
      "oldid": "shop/sports|Big 5 Sporting Goods",
      "tags": {
        "brand": "Big 5 Sporting Goods",
        "brand:wikidata": "Q4904902",
        "brand:wikipedia": "en:Big 5 Sporting Goods",
        "name": "Big 5 Sporting Goods",
        "shop": "sports"
      }
    },
    {
      "displayName": "Centauro",
      "id": "centauro-f744b5",
      "locationSet": {"include": ["br"]},
      "oldid": "shop/sports|Centauro",
      "tags": {
        "brand": "Centauro",
        "brand:wikidata": "Q28679561",
        "brand:wikipedia": "pt:Lojas Centauro",
        "name": "Centauro",
        "shop": "sports"
      }
    },
    {
      "displayName": "Champs Sports",
      "id": "champssports-82fdfb",
      "locationSet": {
        "include": ["ca", "pr", "us"]
      },
      "oldid": "shop/sports|Champs Sports",
      "tags": {
        "brand": "Champs Sports",
        "brand:wikidata": "Q2955924",
        "brand:wikipedia": "en:Champs Sports",
        "name": "Champs Sports",
        "shop": "sports"
      }
    },
    {
      "displayName": "Decathlon",
      "id": "decathlon-a8f48a",
      "locationSet": {"include": ["001"]},
      "oldid": "shop/sports|Decathlon",
      "tags": {
        "brand": "Decathlon",
        "brand:wikidata": "Q509349",
        "brand:wikipedia": "en:Decathlon Group",
        "name": "Decathlon",
        "shop": "sports"
      }
    },
    {
      "displayName": "Dick's Sporting Goods",
      "id": "dickssportinggoods-89ce6f",
      "locationSet": {"include": ["us"]},
      "matchNames": ["dicks"],
      "oldid": "shop/sports|Dick's Sporting Goods",
      "tags": {
        "brand": "Dick's Sporting Goods",
        "brand:wikidata": "Q5272601",
        "brand:wikipedia": "en:Dick's Sporting Goods",
        "name": "Dick's Sporting Goods",
        "shop": "sports"
      }
    },
    {
      "displayName": "Dunham's Sports",
      "id": "dunhamssports-89ce6f",
      "locationSet": {"include": ["us"]},
      "oldid": "shop/sports|Dunham's Sports",
      "tags": {
        "brand": "Dunham's Sports",
        "brand:wikidata": "Q5315238",
        "brand:wikipedia": "en:Dunham's Sports",
        "name": "Dunham's Sports",
        "shop": "sports"
      }
    },
    {
      "displayName": "Finish Line",
      "id": "finishline-89ce6f",
      "locationSet": {"include": ["us"]},
      "oldid": "shop/sports|Finish Line",
      "tags": {
        "brand": "Finish Line",
        "brand:wikidata": "Q5450341",
        "brand:wikipedia": "en:Finish Line, Inc.",
        "name": "Finish Line",
        "shop": "sports"
      }
    },
    {
      "displayName": "GO Sport",
      "id": "gosport-63990e",
      "locationSet": {"include": ["fr"]},
      "oldid": "shop/sports|GO Sport",
      "tags": {
        "brand": "GO Sport",
        "brand:wikidata": "Q48746237",
        "brand:wikipedia": "fr:GO Sport",
        "name": "GO Sport",
        "shop": "sports"
      }
    },
    {
      "displayName": "Golf Galaxy",
      "id": "golfgalaxy-89ce6f",
      "locationSet": {"include": ["us"]},
      "matchTags": ["shop/golf"],
      "oldid": "shop/sports|Golf Galaxy",
      "tags": {
        "brand": "Golf Galaxy",
        "brand:wikidata": "Q69364358",
        "name": "Golf Galaxy",
        "shop": "sports",
        "sport": "golf"
      }
    },
    {
      "displayName": "Hervis",
      "id": "hervis-38a747",
      "locationSet": {
        "include": [
          "at",
          "cz",
          "de",
          "hr",
          "hu",
          "ro",
          "si"
        ]
      },
      "matchNames": [
        "hervis sport",
        "hervis sports"
      ],
      "oldid": "shop/sports|Hervis",
      "tags": {
        "brand": "Hervis",
        "brand:wikidata": "Q1614816",
        "brand:wikipedia": "de:Hervis",
        "name": "Hervis",
        "shop": "sports"
      }
    },
    {
      "displayName": "Hibbett Sports",
      "id": "hibbettsports-89ce6f",
      "locationSet": {"include": ["us"]},
      "oldid": "shop/sports|Hibbett Sports",
      "tags": {
        "brand": "Hibbett Sports",
        "brand:wikidata": "Q5750671",
        "brand:wikipedia": "en:Hibbett Sports",
        "name": "Hibbett Sports",
        "shop": "sports"
      }
    },
    {
      "displayName": "Intersport",
      "id": "intersport-a8f48a",
      "locationSet": {"include": ["001"]},
      "oldid": "shop/sports|Intersport",
      "tags": {
        "brand": "Intersport",
        "brand:wikidata": "Q666888",
        "brand:wikipedia": "en:Intersport",
        "name": "Intersport",
        "shop": "sports"
      }
    },
    {
      "displayName": "JD Sports",
      "id": "jdsports-290390",
      "locationSet": {
        "include": [
          "de",
          "es",
          "fr",
          "gb",
          "ie",
          "nl"
        ]
      },
      "matchNames": ["jd"],
      "oldid": "shop/sports|JD Sports",
      "tags": {
        "brand": "JD Sports",
        "brand:wikidata": "Q6108019",
        "brand:wikipedia": "en:JD Sports",
        "name": "JD Sports",
        "shop": "sports"
      }
    },
    {
      "displayName": "Marathon Sports",
      "id": "marathonsports-ce6e12",
      "locationSet": {
        "include": ["bo", "ec", "pe"]
      },
      "oldid": "shop/sports|Marathon Sports",
      "tags": {
        "brand": "Marathon Sports",
        "brand:wikidata": "Q3027516",
        "brand:wikipedia": "es:Marathon Sports",
        "name": "Marathon Sports",
        "shop": "sports"
      }
    },
    {
      "displayName": "Martes Sport",
      "id": "martessport-0527cb",
      "locationSet": {"include": ["pl"]},
      "oldid": "shop/sports|Martes Sport",
      "tags": {
        "brand": "Martes Sport",
        "brand:wikidata": "Q62073490",
        "name": "Martes Sport",
        "shop": "sports"
      }
    },
    {
      "displayName": "Modell's Sporting Goods",
      "id": "modellssportinggoods-89ce6f",
      "locationSet": {"include": ["us"]},
      "matchNames": ["modells"],
      "oldid": "shop/sports|Modell's Sporting Goods",
      "tags": {
        "brand": "Modell's Sporting Goods",
        "brand:wikidata": "Q3317844",
        "brand:wikipedia": "en:Modell's Sporting Goods",
        "name": "Modell's Sporting Goods",
        "shop": "sports"
      }
    },
    {
      "displayName": "Peloton",
      "id": "peloton-18eda3",
      "locationSet": {
        "include": ["ca", "gb", "us"]
      },
      "oldid": "shop/sports|Peloton",
      "tags": {
        "brand": "Peloton",
        "brand:wikidata": "Q56276186",
        "brand:wikipedia": "en:Peloton (company)",
        "name": "Peloton",
        "shop": "sports"
      }
    },
    {
      "displayName": "Planeta Sport",
      "id": "planetasport-d20c83",
      "locationSet": {"include": ["rs"]},
      "matchNames": ["planeta"],
      "oldid": "shop/sports|Planeta Sport",
      "tags": {
        "brand": "Planeta Sport",
        "brand:en": "Planeta Sport",
        "brand:rs": "Planeta Sport",
        "brand:wikidata": "Q72193528",
        "name": "Planeta Sport",
        "shop": "sports"
      }
    },
    {
      "displayName": "Play It Again Sports",
      "id": "playitagainsports-2a6203",
      "locationSet": {"include": ["ca", "us"]},
      "oldid": "shop/sports|Play It Again Sports",
      "tags": {
        "brand": "Play It Again Sports",
        "brand:wikidata": "Q7203029",
        "brand:wikipedia": "en:Play It Again Sports",
        "name": "Play It Again Sports",
        "shop": "sports"
      }
    },
    {
      "displayName": "Rebel",
      "id": "rebel-e42754",
      "locationSet": {"include": ["au", "nz"]},
      "oldid": "shop/sports|Rebel",
      "tags": {
        "brand": "Rebel",
        "brand:wikidata": "Q18636397",
        "brand:wikipedia": "en:Rebel (company)",
        "name": "Rebel",
        "shop": "sports"
      }
    },
    {
      "displayName": "Sport 2000",
      "id": "sport2000-443aee",
      "locationSet": {
        "include": ["at", "de", "fr", "nl"]
      },
      "oldid": "shop/sports|Sport 2000",
      "tags": {
        "brand": "Sport 2000",
        "brand:wikidata": "Q262394",
        "brand:wikipedia": "de:Sport 2000",
        "name": "Sport 2000",
        "shop": "sports"
      }
    },
    {
      "displayName": "Sport Chek",
      "id": "sportchek-80660e",
      "locationSet": {"include": ["ca"]},
      "oldid": "shop/sports|Sport Chek",
      "tags": {
        "brand": "Sport Chek",
        "brand:wikidata": "Q3494037",
        "brand:wikipedia": "en:Sport Chek",
        "name": "Sport Chek",
        "shop": "sports"
      }
    },
    {
      "displayName": "Sport Zone",
      "id": "sportzone-62e24b",
      "locationSet": {"include": ["pt"]},
      "oldid": "shop/sports|Sport Zone",
      "tags": {
        "brand": "Sport Zone",
        "brand:wikidata": "Q18485899",
        "brand:wikipedia": "pt:Sport Zone",
        "name": "Sport Zone",
        "shop": "sports"
      }
    },
    {
      "displayName": "Sporting Life",
      "id": "sportinglife-80660e",
      "locationSet": {"include": ["ca"]},
      "oldid": "shop/sports|Sporting Life",
      "tags": {
        "brand": "Sporting Life",
        "brand:wikidata": "Q7579583",
        "brand:wikipedia": "en:Sporting Life (retailer)",
        "name": "Sporting Life",
        "shop": "sports"
      }
    },
    {
      "displayName": "Sportisimo",
      "id": "sportisimo-aa748e",
      "locationSet": {"include": ["cz", "sk"]},
      "oldid": "shop/sports|Sportisimo",
      "tags": {
        "brand": "Sportisimo",
        "brand:wikidata": "Q54974273",
        "name": "Sportisimo",
        "shop": "sports"
      }
    },
    {
      "displayName": "Sports Authority",
      "id": "sportsauthority-a8f48a",
      "locationSet": {"include": ["001"]},
      "oldid": "shop/sports|Sports Authority",
      "tags": {
        "brand": "Sports Authority",
        "brand:wikidata": "Q7579688",
        "brand:wikipedia": "en:Sports Authority",
        "name": "Sports Authority",
        "shop": "sports"
      }
    },
    {
      "displayName": "Sports Direct",
      "id": "sportsdirect-a8f48a",
      "locationSet": {"include": ["001"]},
      "matchNames": ["sportsdirect.com"],
      "oldid": "shop/sports|Sports Direct",
      "tags": {
        "brand": "Sports Direct",
        "brand:wikidata": "Q7579661",
        "brand:wikipedia": "en:SportsDirect.com",
        "name": "Sports Direct",
        "shop": "sports"
      }
    },
    {
      "displayName": "Sprinter",
      "id": "sprinter-b318c6",
      "locationSet": {"include": ["es"]},
      "oldid": "shop/sports|Sprinter",
      "tags": {
        "brand": "Sprinter",
        "brand:wikidata": "Q6133465",
        "brand:wikipedia": "es:Sprinter (tienda)",
        "name": "Sprinter",
        "shop": "sports"
      }
    },
    {
      "displayName": "Stadium",
      "id": "stadium-88ad75",
      "locationSet": {
        "include": ["de", "dk", "fi", "se"]
      },
      "oldid": "shop/sports|Stadium",
      "tags": {
        "brand": "Stadium",
        "brand:wikidata": "Q4993863",
        "brand:wikipedia": "sv:Stadium (detaljhandelskedja)",
        "name": "Stadium",
        "shop": "sports"
      }
    },
    {
      "displayName": "XXL",
      "id": "xxl-ea59d5",
      "locationSet": {
        "include": ["fi", "no", "se"]
      },
      "oldid": "shop/sports|XXL",
      "tags": {
        "brand": "XXL",
        "brand:wikidata": "Q12010840",
        "brand:wikipedia": "no:XXL",
        "name": "XXL",
        "shop": "sports"
      }
    },
    {
      "displayName": "Декатлон",
      "id": "decathlon-82be21",
      "locationSet": {
        "include": ["bg", "ru", "ua"]
      },
      "oldid": "shop/sports|Декатлон",
      "tags": {
        "brand": "Декатлон",
        "brand:en": "Decathlon",
        "brand:ru": "Декатлон",
        "brand:wikidata": "Q509349",
        "brand:wikipedia": "ru:Decathlon",
        "name": "Декатлон",
        "name:en": "Decathlon",
        "name:ru": "Декатлон",
        "shop": "sports"
      }
    },
    {
      "displayName": "Спортмастер",
      "id": "sportmaster-6702cd",
      "locationSet": {
        "include": ["by", "kz", "ru", "ua"]
      },
      "matchNames": ["спортмастер гипер"],
      "oldid": "shop/sports|Спортмастер",
      "tags": {
        "brand": "Спортмастер",
        "brand:en": "Sportmaster",
        "brand:ru": "Спортмастер",
        "brand:wikidata": "Q4438176",
        "brand:wikipedia": "ru:Спортмастер",
        "name": "Спортмастер",
        "name:en": "Sportmaster",
        "name:ru": "Спортмастер",
        "shop": "sports"
      }
    },
    {
      "displayName": "ゴルフ・ドゥ",
      "id": "golfdo-04ead7",
      "locationSet": {"include": ["jp"]},
      "oldid": "shop/sports|ゴルフ・ドゥ",
      "tags": {
        "brand": "ゴルフ・ドゥ",
        "brand:en": "Golf・Do",
        "brand:ja": "ゴルフ・ドゥ",
        "brand:wikidata": "Q11303734",
        "brand:wikipedia": "ja:ゴルフ・ドゥ",
        "name": "ゴルフ・ドゥ",
        "name:en": "Golf・Do",
        "name:ja": "ゴルフ・ドゥ",
        "shop": "sports",
        "sport": "golf"
      }
    },
    {
      "displayName": "ゴルフパートナー",
      "id": "golfpartner-04ead7",
      "locationSet": {"include": ["jp"]},
      "oldid": "shop/sports|ゴルフパートナー",
      "tags": {
        "brand": "ゴルフパートナー",
        "brand:en": "Golf Partner",
        "brand:ja": "ゴルフパートナー",
        "brand:wikidata": "Q11303729",
        "brand:wikipedia": "ja:ゴルフパートナー",
        "name": "ゴルフパートナー",
        "name:en": "Golf Partner",
        "name:ja": "ゴルフパートナー",
        "shop": "sports",
        "sport": "golf"
      }
    },
    {
      "displayName": "スーパースポーツゼビオ",
      "id": "supersportsxebio-04ead7",
      "locationSet": {"include": ["jp"]},
      "matchNames": ["ゼビオ"],
      "oldid": "shop/sports|スーパースポーツゼビオ",
      "tags": {
        "brand": "スーパースポーツゼビオ",
        "brand:en": "Super Sports Xebio",
        "brand:ja": "スーパースポーツゼビオ",
        "brand:wikidata": "Q3108542",
        "brand:wikipedia": "ja:ゼビオホールディングス",
        "name": "スーパースポーツゼビオ",
        "name:en": "Super Sports Xebio",
        "name:ja": "スーパースポーツゼビオ",
        "shop": "sports"
      }
    },
    {
      "displayName": "スポーツオーソリティ",
      "id": "sportsauthority-04ead7",
      "locationSet": {"include": ["jp"]},
      "oldid": "shop/sports|スポーツオーソリティ",
      "tags": {
        "brand": "スポーツオーソリティ",
        "brand:en": "Sports Authority",
        "brand:ja": "スポーツオーソリティ",
        "brand:wikidata": "Q7579688",
        "brand:wikipedia": "ja:スポーツオーソリティ",
        "name": "スポーツオーソリティ",
        "name:en": "Sports Authority",
        "name:ja": "スポーツオーソリティ",
        "shop": "sports"
      }
    },
    {
      "displayName": "スポーツデポ",
      "id": "sportsdepo-04ead7",
      "locationSet": {"include": ["jp"]},
      "matchNames": ["スポーツdepo"],
      "oldid": "shop/sports|スポーツデポ",
      "tags": {
        "brand": "スポーツデポ",
        "brand:en": "Sports Depo",
        "brand:ja": "スポーツデポ",
        "brand:wikidata": "Q11313050",
        "brand:wikipedia": "ja:スポーツDEPO",
        "name": "スポーツデポ",
        "name:en": "Sports Depo",
        "name:ja": "スポーツデポ",
        "shop": "sports"
      }
    }
  ]
}