{
  "brands/shop/telecommunication": [
    {
      "displayName": "A1",
      "id": "a1-7cd52f",
      "locationSet": {
        "include": ["at", "bg", "by", "hr", "si"]
      },
      "matchNames": [
        "velcom",
        "velcom|a1",
        "велком"
      ],
      "nomatch": ["shop/mobile_phone|A1"],
      "oldid": "shop/telecommunication|A1",
      "tags": {
        "brand": "A1",
        "brand:wikidata": "Q688755",
        "brand:wikipedia": "en:A1 Telekom Austria Group",
        "name": "A1",
        "shop": "telecommunication"
      }
    },
    {
      "displayName": "Agencia ICE",
      "id": "agenciaice-33bf96",
      "locationSet": {"include": ["001"]},
      "oldid": "shop/telecommunication|Agencia ICE",
      "tags": {
        "brand": "Agencia ICE",
        "name": "Agencia ICE",
        "shop": "telecommunication"
      }
    },
    {
      "displayName": "Bell",
      "id": "bell-e8684d",
      "locationSet": {"include": ["ca"]},
      "matchNames": ["bell canada"],
      "nomatch": ["shop/mobile_phone|Bell"],
      "oldid": "shop/telecommunication|Bell",
      "tags": {
        "brand": "Bell",
        "brand:wikidata": "Q815694",
        "brand:wikipedia": "en:Bell Canada",
        "name": "Bell",
        "shop": "telecommunication"
      }
    },
    {
      "displayName": "Celcom",
      "id": "celcom-c82acb",
      "locationSet": {"include": ["my"]},
      "oldid": "shop/telecommunication|Celcom",
      "tags": {
        "brand": "Celcom",
        "brand:wikidata": "Q836827",
        "brand:wikipedia": "en:Celcom",
        "name": "Celcom",
        "shop": "telecommunication"
      }
    },
    {
      "displayName": "Digi Store",
      "id": "digistore-c82acb",
      "locationSet": {"include": ["my"]},
      "oldid": "shop/telecommunication|Digi Store",
      "tags": {
        "brand": "Digi",
        "brand:wikidata": "Q3268530",
        "brand:wikipedia": "en:Digi Telecommunications",
        "name": "Digi Store",
        "shop": "telecommunication"
      }
    },
    {
      "displayName": "Malitel",
      "id": "malitel-478897",
      "locationSet": {"include": ["ml"]},
      "oldid": "shop/telecommunication|Malitel",
      "tags": {
        "brand": "Malitel",
        "brand:wikidata": "Q6743829",
        "brand:wikipedia": "en:Malitel",
        "name": "Malitel",
        "shop": "telecommunication"
      }
    },
    {
      "displayName": "Maxis",
      "id": "maxis-c82acb",
      "locationSet": {"include": ["my"]},
      "oldid": "shop/telecommunication|Maxis",
      "tags": {
        "brand": "Maxis",
        "brand:wikidata": "Q2627330",
        "brand:wikipedia": "en:Maxis Telecommunications",
        "name": "Maxis",
        "shop": "telecommunication"
      }
    },
    {
      "displayName": "Ooredoo",
      "id": "ooredoo-33bf96",
      "locationSet": {"include": ["001"]},
      "oldid": "shop/telecommunication|Ooredoo",
      "tags": {
        "brand": "Ooredoo",
        "brand:wikidata": "Q919935",
        "brand:wikipedia": "en:Ooredoo",
        "name": "Ooredoo",
        "shop": "telecommunication"
      }
    },
    {
      "displayName": "Orange Mali",
      "id": "orangemali-478897",
      "locationSet": {"include": ["ml"]},
      "oldid": "shop/telecommunication|Orange Mali",
      "tags": {
        "brand": "Orange Mali",
        "brand:wikidata": "Q3355061",
        "brand:wikipedia": "fr:Orange Mali",
        "name": "Orange Mali",
        "shop": "telecommunication"
      }
    },
    {
      "displayName": "Spectrum",
      "id": "spectrum-3a9c60",
      "locationSet": {"include": ["us"]},
      "oldid": "shop/telecommunication|Spectrum",
      "tags": {
        "brand": "Spectrum",
        "brand:wikidata": "Q7805197",
        "brand:wikipedia": "en:Spectrum (cable service)",
        "name": "Spectrum",
        "shop": "telecommunication"
      }
    },
    {
      "displayName": "TMpoint",
      "id": "tmpoint-c82acb",
      "locationSet": {"include": ["my"]},
      "oldid": "shop/telecommunication|TMpoint",
      "tags": {
        "brand": "Telekom Malaysia",
        "brand:wikidata": "Q1640639",
        "brand:wikipedia": "en:Telekom Malaysia",
        "name": "TMpoint",
        "shop": "telecommunication"
      }
    },
    {
      "displayName": "U Mobile",
      "id": "umobile-c82acb",
      "locationSet": {"include": ["my"]},
      "oldid": "shop/telecommunication|U Mobile",
      "tags": {
        "brand": "U Mobile",
        "brand:wikidata": "Q7876226",
        "brand:wikipedia": "en:U Mobile",
        "name": "U Mobile",
        "shop": "telecommunication"
      }
    },
    {
      "displayName": "Xfinity",
      "id": "xfinity-3a9c60",
      "locationSet": {"include": ["us"]},
      "oldid": "shop/telecommunication|Xfinity",
      "tags": {
        "brand": "Xfinity",
        "brand:wikidata": "Q5151002",
        "brand:wikipedia": "en:Xfinity",
        "name": "Xfinity",
        "shop": "telecommunication"
      }
    },
    {
      "displayName": "Yes 4G",
      "id": "yes4g-c82acb",
      "locationSet": {"include": ["my"]},
      "oldid": "shop/telecommunication|Yes 4G",
      "tags": {
        "brand": "Yes 4G",
        "brand:wikidata": "Q8052735",
        "brand:wikipedia": "en:Yes 4G",
        "name": "Yes 4G",
        "shop": "telecommunication"
      }
    },
    {
      "displayName": "Дом.ru",
      "id": "домru-33bf96",
      "locationSet": {"include": ["001"]},
      "oldid": "shop/telecommunication|Дом.ru",
      "tags": {
        "brand": "Дом.ru",
        "name": "Дом.ru",
        "shop": "telecommunication"
      }
    },
    {
      "displayName": "МТС",
      "id": "мтс-3bee19",
      "locationSet": {
        "include": ["by", "ru", "ua"]
      },
      "nomatch": ["shop/mobile_phone|МТС"],
      "oldid": "shop/telecommunication|МТС",
      "tags": {
        "brand": "МТС",
        "brand:en": "MTS",
        "brand:wikidata": "Q1368919",
        "brand:wikipedia": "en:MTS (network provider)",
        "name": "МТС",
        "name:en": "MTS",
        "shop": "telecommunication"
      }
    },
    {
      "displayName": "Ростелеком",
      "id": "ростеnеком-58655c",
      "locationSet": {"include": ["ru"]},
      "oldid": "shop/telecommunication|Ростелеком",
      "tags": {
        "brand": "Ростелеком",
        "brand:wikidata": "Q1477012",
        "brand:wikipedia": "en:Rostelecom",
        "name": "Ростелеком",
        "shop": "telecommunication"
      }
    },
    {
      "displayName": "Укртелеком",
      "id": "укртеnеком-19c022",
      "locationSet": {"include": ["ua"]},
      "oldid": "shop/telecommunication|Укртелеком",
      "tags": {
        "brand": "Укртелеком",
        "brand:wikidata": "Q1505321",
        "brand:wikipedia": "en:Ukrtelecom",
        "name": "Укртелеком",
        "shop": "telecommunication"
      }
    },
    {
      "displayName": "中華電信",
      "id": "中華電信-4f600a",
      "locationSet": {"include": ["tw"]},
      "oldid": "shop/telecommunication|中華電信",
      "tags": {
        "brand": "中華電信",
        "brand:en": "Chunghwa Telecom",
        "brand:wikidata": "Q717531",
        "brand:wikipedia": "zh:中華電信",
        "brand:zh": "中華電信",
        "name": "中華電信",
        "name:en": "Chunghwa Telecom",
        "name:zh": "中華電信",
        "shop": "telecommunication"
      }
    },
    {
      "displayName": "遠傳電信",
      "id": "遠傳電信-4f600a",
      "locationSet": {"include": ["tw"]},
      "oldid": "shop/telecommunication|遠傳電信",
      "tags": {
        "brand": "遠傳電信",
        "brand:en": "FarEasTone",
        "brand:wikidata": "Q5434486",
        "brand:wikipedia": "zh:遠傳電信",
        "brand:zh": "遠傳電信",
        "name": "遠傳電信",
        "name:en": "FarEasTone",
        "name:zh": "遠傳電信",
        "shop": "telecommunication"
      }
    }
  ]
}