{
  "shop/variety_store|99 Cents Only Stores": {
    "countryCodes": ["us"],
    "logos": {
      "wikidata": "https://commons.wikimedia.org/w/index.php?title=Special%3ARedirect%2Ffile%2F99%20CENTS%20ONLY%20STORES%20LOGO.jpg&width=100",
      "twitter": "https://pbs.twimg.com/profile_images/1032698085896404992/x224SLqh_bigger.jpg"
    },
    "match": [
      "shop/convenience|99 Cents Only",
      "shop/convenience|99 Cents Only Stores",
      "shop/department_store|99 Cents Only",
      "shop/department_store|99 Cents Only Stores",
      "shop/supermarket|99 Cents Only",
      "shop/supermarket|99 Cents Only Stores"
    ],
    "nocount": true,
    "tags": {
      "brand": "99 Cents Only Stores",
      "brand:wikidata": "Q4646294",
      "brand:wikipedia": "en:99 Cents Only Stores",
      "name": "99 Cents Only Stores",
      "shop": "variety_store"
    }
  },
  "shop/variety_store|Action": {
    "count": 582,
    "logos": {
      "wikidata": "https://commons.wikimedia.org/w/index.php?title=Special%3ARedirect%2Ffile%2FAction%20Logo.png&width=100",
      "facebook": "https://graph.facebook.com/action.nederland/picture?type=square"
    },
    "match": ["shop/supermarket|Action"],
    "tags": {
      "brand": "Action",
      "brand:wikidata": "Q2634111",
      "brand:wikipedia": "nl:Action (winkel)",
      "name": "Action",
      "shop": "variety_store"
    }
  },
  "shop/variety_store|Big Bazaar": {
    "nocount": true,
    "tags": {
      "brand": "Big Bazaar",
      "brand:wikidata": "Q3631008",
      "brand:wikipedia": "en:Big Bazaar",
      "name": "Big Bazaar",
      "shop": "variety_store"
    }
  },
  "shop/variety_store|Big Bazar": {
    "count": 74,
    "tags": {
      "brand": "Big Bazar",
      "brand:wikidata": "Q15873104",
      "brand:wikipedia": "nl:Big Bazar",
      "name": "Big Bazar",
      "shop": "variety_store"
    }
  },
  "shop/variety_store|Centrakor": {
    "count": 59,
    "countryCodes": ["fr"],
    "tags": {
      "brand": "Centrakor",
      "name": "Centrakor",
      "shop": "variety_store"
    }
  },
  "shop/variety_store|Dollar General": {
    "count": 685,
    "logos": {
      "wikidata": "https://commons.wikimedia.org/w/index.php?title=Special%3ARedirect%2Ffile%2FDollar%20General%20logo.svg&width=100",
      "twitter": "https://pbs.twimg.com/profile_images/459772606040641536/__566KGj_bigger.jpeg"
    },
    "match": [
      "shop/convenience|Dollar General",
      "shop/department_store|Dollar General",
      "shop/supermarket|Dollar General"
    ],
    "tags": {
      "brand": "Dollar General",
      "brand:wikidata": "Q145168",
      "brand:wikipedia": "en:Dollar General",
      "name": "Dollar General",
      "shop": "variety_store"
    }
  },
  "shop/variety_store|Dollar Tree": {
    "count": 1323,
    "logos": {
      "twitter": "https://pbs.twimg.com/profile_images/509405558898561024/27hmihjq_bigger.png"
    },
    "match": [
      "shop/convenience|Dollar Tree",
      "shop/department_store|Dollar Tree",
      "shop/supermarket|Dollar Tree"
    ],
    "tags": {
      "brand": "Dollar Tree",
      "brand:wikidata": "Q5289230",
      "brand:wikipedia": "en:Dollar Tree",
      "name": "Dollar Tree",
      "shop": "variety_store"
    }
  },
  "shop/variety_store|Dollarama": {
    "count": 519,
    "tags": {
      "brand": "Dollarama",
      "brand:wikidata": "Q3033947",
      "brand:wikipedia": "en:Dollarama",
      "name": "Dollarama",
      "shop": "variety_store"
    }
  },
  "shop/variety_store|Family Dollar": {
    "count": 1028,
    "logos": {
      "twitter": "https://pbs.twimg.com/profile_images/458699553458241536/evZeMwhE_bigger.jpeg"
    },
    "match": [
      "shop/convenience|Family Dollar",
      "shop/department_store|Family Dollar",
      "shop/supermarket|Family Dollar"
    ],
    "tags": {
      "brand": "Family Dollar",
      "brand:wikidata": "Q5433101",
      "brand:wikipedia": "en:Family Dollar",
      "name": "Family Dollar",
      "shop": "variety_store"
    }
  },
  "shop/variety_store|Five Below": {
    "count": 113,
    "logos": {
      "wikidata": "https://commons.wikimedia.org/w/index.php?title=Special%3ARedirect%2Ffile%2FFive%20below%20logo.png&width=100"
    },
    "tags": {
      "brand": "Five Below",
      "brand:wikidata": "Q5455836",
      "brand:wikipedia": "en:Five Below",
      "name": "Five Below",
      "shop": "variety_store"
    }
  },
  "shop/variety_store|Fix Price": {
    "count": 198,
    "match": [
      "shop/variety_store|Fix price",
      "shop/variety_store|FixPrice"
    ],
    "tags": {
      "brand": "Fix Price",
      "brand:wikidata": "Q4038791",
      "brand:wikipedia": "ru:Fix Price (сеть магазинов)",
      "name": "Fix Price",
      "shop": "variety_store"
    }
  },
  "shop/variety_store|GiFi": {
    "count": 285,
    "logos": {
      "wikidata": "https://commons.wikimedia.org/w/index.php?title=Special%3ARedirect%2Ffile%2FGifi%20logo%202012.png&width=100"
    },
    "tags": {
      "brand": "GiFi",
      "brand:wikidata": "Q3105439",
      "brand:wikipedia": "fr:Gifi",
      "name": "GiFi",
      "shop": "variety_store"
    }
  },
  "shop/variety_store|Home Bargains": {
    "count": 111,
    "logos": {
      "twitter": "https://pbs.twimg.com/profile_images/1017147039434633217/vjWMjrOZ_bigger.jpg"
    },
    "match": ["shop/supermarket|Home Bargains"],
    "tags": {
      "brand": "Home Bargains",
      "brand:wikidata": "Q5888229",
      "brand:wikipedia": "en:Home Bargains",
      "name": "Home Bargains",
      "shop": "variety_store"
    }
  },
  "shop/variety_store|Mäc-Geiz": {
    "count": 87,
    "logos": {
      "wikidata": "https://commons.wikimedia.org/w/index.php?title=Special%3ARedirect%2Ffile%2FMac-Geiz.svg&width=100"
    },
    "tags": {
      "brand": "Mäc-Geiz",
      "brand:wikidata": "Q1957126",
      "brand:wikipedia": "de:Mäc-Geiz",
      "name": "Mäc-Geiz",
      "shop": "variety_store"
    }
  },
  "shop/variety_store|NOZ": {
    "count": 131,
    "logos": {
      "wikidata": "https://commons.wikimedia.org/w/index.php?title=Special%3ARedirect%2Ffile%2FLogo%20Noz.svg&width=100"
    },
    "tags": {
      "brand": "NOZ",
      "brand:wikidata": "Q3345688",
      "brand:wikipedia": "fr:Noz",
      "name": "NOZ",
      "shop": "variety_store"
    }
  },
  "shop/variety_store|Poundland": {
    "count": 281,
    "logos": {
      "twitter": "https://pbs.twimg.com/profile_images/933016190104096769/24M4_8NQ_bigger.jpg"
    },
    "tags": {
      "brand": "Poundland",
      "brand:wikidata": "Q1434528",
      "brand:wikipedia": "en:Poundland",
      "name": "Poundland",
      "shop": "variety_store"
    }
  },
  "shop/variety_store|Poundstretcher": {
    "count": 73,
    "logos": {
      "twitter": "https://pbs.twimg.com/profile_images/948143325160329216/rGVPFlFZ_bigger.jpg"
    },
    "tags": {
      "brand": "Poundstretcher",
      "brand:wikidata": "Q7235675",
      "brand:wikipedia": "en:Poundstretcher",
      "name": "Poundstretcher",
      "shop": "variety_store"
    }
  },
  "shop/variety_store|Poundworld": {
    "count": 58,
    "tags": {
      "brand": "Poundworld",
      "brand:wikidata": "Q16967516",
      "brand:wikipedia": "en:Poundworld",
      "name": "Poundworld",
      "shop": "variety_store"
    }
  },
  "shop/variety_store|TEDi": {
    "count": 382,
    "countryCodes": [
      "at",
      "de",
      "es",
      "hr",
      "si",
      "sk"
    ],
    "logos": {
      "wikidata": "https://commons.wikimedia.org/w/index.php?title=Special%3ARedirect%2Ffile%2FTEDi-Logo.svg&width=100"
    },
    "match": ["shop/variety_store|Tedi"],
    "tags": {
      "brand": "TEDi",
      "brand:wikidata": "Q1364603",
      "brand:wikipedia": "de:TEDi",
      "name": "TEDi",
      "shop": "variety_store"
    }
  },
  "shop/variety_store|Tokmanni": {
    "count": 92,
    "tags": {
      "brand": "Tokmanni",
      "brand:wikidata": "Q13423470",
      "brand:wikipedia": "fi:Tokmanni",
      "name": "Tokmanni",
      "shop": "variety_store"
    }
  },
  "shop/variety_store|Wilko": {
    "count": 80,
    "logos": {
      "twitter": "https://pbs.twimg.com/profile_images/1018756618635431936/9rRo7jvO_bigger.jpg"
    },
    "tags": {
      "brand": "Wilko",
      "brand:wikidata": "Q8002536",
      "brand:wikipedia": "en:Wilko (retailer)",
      "name": "Wilko",
      "shop": "variety_store"
    }
  },
  "shop/variety_store|キャンドゥ": {
    "count": 71,
    "countryCodes": ["jp"],
    "tags": {
      "brand": "キャンドゥ",
      "brand:en": "CAN DO",
      "brand:ja": "キャンドゥ",
      "brand:wikidata": "Q11297367",
      "brand:wikipedia": "ja:キャンドゥ",
      "name": "キャンドゥ",
      "name:en": "CAN DO",
      "name:ja": "キャンドゥ",
      "shop": "variety_store"
    }
  },
  "shop/variety_store|セリア": {
    "count": 143,
    "countryCodes": ["jp"],
    "logos": {
      "wikidata": "https://commons.wikimedia.org/w/index.php?title=Special%3ARedirect%2Ffile%2FSeria%20logo.svg&width=100"
    },
    "tags": {
      "brand": "セリア",
      "brand:en": "Seria",
      "brand:ja": "セリア",
      "brand:wikidata": "Q11314509",
      "brand:wikipedia": "ja:セリア (100円ショップ)",
      "name": "セリア",
      "name:en": "Seria",
      "name:ja": "セリア",
      "shop": "variety_store"
    }
  },
  "shop/variety_store|ダイソー": {
    "count": 463,
    "countryCodes": ["jp"],
    "logos": {
      "twitter": "https://pbs.twimg.com/profile_images/1102749621086875648/YGTdOo9__bigger.png"
    },
    "match": ["shop/variety_store|ザ・ダイソー"],
    "tags": {
      "brand": "ダイソー",
      "brand:en": "Daiso",
      "brand:ja": "ダイソー",
      "brand:wikidata": "Q866991",
      "brand:wikipedia": "ja:大創産業",
      "name": "ダイソー",
      "name:en": "Daiso",
      "name:ja": "ダイソー",
      "shop": "variety_store"
    }
  },
  "shop/variety_store|ドン・キホーテ": {
    "countryCodes": ["jp"],
    "logos": {
      "twitter": "https://pbs.twimg.com/profile_images/1098907826305421312/KCKaI33I_bigger.png"
    },
    "match": [
      "shop/supermarket|ドン キホーテ",
      "shop/supermarket|ドン・キホーテ",
      "shop/variety_store|ドン キホーテ"
    ],
    "nocount": true,
    "tags": {
      "brand": "ドン・キホーテ",
      "brand:en": "Don Quijote",
      "brand:wikidata": "Q1185381",
      "brand:wikipedia": "ja:ドン・キホーテ (企業)",
      "name": "ドン・キホーテ",
      "name:en": "Don Quijote",
      "operator": "パン・パシフィック・インターナショナルホールディングス",
      "operator:en": "Pan Pacific International Holdings Corporation",
      "operator:wikidata": "Q16485533",
      "operator:wikipedia": "ja:パン・パシフィック・インターナショナルホールディングス",
      "shop": "variety_store",
      "short_name": "ドンキ",
      "short_name:en": "Donki"
    }
  }
}