{
  "brands/amenity/fast_food": [
    {
      "displayName": "Honey Baked Ham",
      "id": "honeybakedham-4d2ff4",
      "locationSet": {"include": ["us"]},
      "matchNames": ["honey baked ham company"],
      "matchTags": ["shop/butcher", "shop/deli"],
      "tags": {
        "alt_name": "HoneyBaked Ham",
        "amenity": "fast_food",
        "brand": "Honey Baked Ham",
        "brand:wikidata": "Q5893363",
        "brand:wikipedia": "en:The Honey Baked Ham Company",
        "cuisine": "american",
        "name": "Honey Baked Ham",
        "official_name": "The Honey Baked Ham Company",
        "takeaway": "yes"
      }
    },
    {
      "displayName": "KFC",
      "id": "kfc-658eea",
      "locationSet": {"include": ["001"]},
      "tags": {
        "alt_name": "Kentucky Fried Chicken",
        "amenity": "fast_food",
        "brand": "KFC",
        "brand:wikidata": "Q524757",
        "brand:wikipedia": "en:KFC",
        "cuisine": "chicken",
        "name": "KFC",
        "takeaway": "yes"
      }
    },
    {
      "displayName": "PFK",
      "id": "pfk-a54c14",
      "locationSet": {
        "include": ["quebec.geojson"]
      },
      "matchNames": ["kentucky fried chicken"],
      "tags": {
        "alt_name": "Poulet Frit Kentucky",
        "amenity": "fast_food",
        "brand": "KFC",
        "brand:wikidata": "Q524757",
        "brand:wikipedia": "fr:Kentucky Fried Chicken",
        "cuisine": "chicken",
        "name": "PFK",
        "takeaway": "yes"
      }
    },
    {
      "displayName": "肯德基",
      "id": "kfc-1ff19c",
      "locationSet": {
        "include": ["cn", "hk", "mo", "sg", "tw"]
      },
      "tags": {
        "amenity": "fast_food",
        "brand": "肯德基",
        "brand:en": "KFC",
        "brand:wikidata": "Q524757",
        "brand:wikipedia": "zh:肯德基",
        "cuisine": "chicken",
        "name": "肯德基",
        "name:en": "KFC",
        "takeaway": "yes"
      }
    }
  ]
}
