{
  "properties": {
    "path": "brands/amenity/atm",
    "skipCollection": true,
    "exclude": {"generic": ["^atm$"]}
  },
  "items": [
    {
      "templateSource": "brands/amenity/bank",
      "templateTags": {
        "amenity": "atm",
        "operator": "{source.tags.brand}",
        "operator:wikidata": "{source.tags.brand:wikidata}",
        "operator:wikipedia": "{source.tags.brand:wikipedia}"
      }
    },
    {
      "displayName": "American Crypto ATM",
      "id": "americancryptoatm-93d3a2",
      "locationSet": {"include": ["us"]},
      "matchTags": ["amenity/bank"],
      "tags": {
        "amenity": "atm",
        "brand": "American Crypto ATM",
        "name": "American Crypto ATM"
      }
    },
    {
      "displayName": "Banco24Horas",
      "id": "banco24horas-a02d2b",
      "locationSet": {"include": ["br"]},
      "matchNames": ["branco24horas"],
      "tags": {
        "amenity": "atm",
        "brand": "Banco24Horas",
        "brand:wikidata": "Q4854069",
        "brand:wikipedia": "pt:Banco24Horas",
        "name": "Banco24Horas"
      }
    },
    {
      "displayName": "CO-OP Financial Services",
      "id": "coopfinancialservices-93d3a2",
      "locationSet": {"include": ["us"]},
      "matchNames": ["cu cooperative systems"],
      "tags": {
        "amenity": "atm",
        "brand": "CO-OP Financial Services",
        "brand:wikidata": "Q5013238",
        "brand:wikipedia": "en:CO-OP Financial Services",
        "name": "CO-OP Financial Services"
      }
    },
    {
      "displayName": "Euronet",
      "id": "euronet-d5d850",
      "locationSet": {
        "include": ["001"],
        "exclude": ["cn"]
      },
      "tags": {
        "amenity": "atm",
        "brand": "Euronet",
        "brand:wikidata": "Q5412010",
        "brand:wikipedia": "en:Euronet Worldwide",
        "name": "Euronet",
        "operator": "Euronet",
        "operator:wikidata": "Q5412010",
        "operator:wikipedia": "en:Euronet Worldwide"
      }
    },
    {
      "displayName": "Geldmaat",
      "id": "geldmaat-5333ab",
      "locationSet": {"include": ["nl"]},
      "tags": {
        "amenity": "atm",
        "brand": "Geldmaat",
        "brand:wikidata": "Q74051230",
        "brand:wikipedia": "nl:Geldmaat",
        "name": "Geldmaat",
        "operator": "Geldmaat",
        "operator:wikidata": "Q74051230",
        "operator:wikipedia": "nl:Geldmaat"
      }
    },
    {
      "displayName": "MEPS",
      "id": "meps-bc168a",
      "locationSet": {"include": ["my"]},
      "tags": {
        "amenity": "atm",
        "brand": "MEPS",
        "brand:wikidata": "Q6741957",
        "brand:wikipedia": "en:Malaysian Electronic Payment System",
        "name": "MEPS",
        "operator": "MEPS",
        "operator:wikidata": "Q6741957",
        "operator:wikipedia": "en:Malaysian Electronic Payment System"
      }
    },
    {
      "displayName": "NoteMachine",
      "id": "notemachine-396707",
      "locationSet": {"include": ["gb"]},
      "tags": {
        "amenity": "atm",
        "brand": "NoteMachine",
        "brand:wikidata": "Q104368525",
        "name": "NoteMachine",
        "operator": "NoteMachine",
        "operator:wikidata": "Q104368525",
        "short_name": "NMATM"
      }
    },
    {
      "displayName": "Postamat",
      "id": "postamat-64483a",
      "locationSet": {"include": ["it"]},
      "tags": {
        "amenity": "atm",
        "brand": "Postamat",
        "brand:wikidata": "Q3909447",
        "brand:wikipedia": "it:Postamat",
        "name": "Postamat",
        "operator": "Poste Italiane",
        "operator:wikidata": "Q495026",
        "operator:wikipedia": "it:Poste Italiane"
      }
    },
    {
      "displayName": "Sainsbury's Bank",
      "id": "sainsburysbank-396707",
      "locationSet": {"include": ["gb"]},
      "tags": {
        "amenity": "atm",
        "brand": "Sainsbury's Bank",
        "brand:wikidata": "Q7400525",
        "brand:wikipedia": "en:Sainsbury's Bank",
        "operator": "Sainsbury's Bank",
        "operator:wikidata": "Q7400525",
        "operator:wikipedia": "en:Sainsbury's Bank"
      }
    }
  ]
}
