{
  "brands/amenity/bicycle_rental": [
    {
      "displayName": "[TO]BIKE",
      "id": "tobike-3d5df6",
      "locationSet": {"include": ["it"]},
      "tags": {
        "amenity": "bicycle_rental",
        "brand": "[TO]BIKE",
        "name": "[TO]BIKE",
        "operator": "[TO]BIKE"
      }
    },
    {
      "displayName": "Ajuntament Castelló, Mobilitat",
      "id": "ajuntamentcastellomobilitat-f59a8b",
      "locationSet": {"include": ["es"]},
      "tags": {
        "amenity": "bicycle_rental",
        "brand": "Ajuntament Castelló, Mobilitat",
        "name": "Ajuntament Castelló, Mobilitat",
        "operator": "Ajuntament Castelló, Mobilitat"
      }
    },
    {
      "displayName": "Alta Bike Share",
      "id": "altabikeshare-97ea79",
      "locationSet": {"include": ["us"]},
      "tags": {
        "amenity": "bicycle_rental",
        "brand": "Alta Bike Share",
        "name": "Alta Bike Share",
        "operator": "Alta Bike Share"
      }
    },
    {
      "displayName": "An Rothar Nua",
      "id": "anrotharnua-afbce7",
      "locationSet": {"include": ["ie"]},
      "tags": {
        "amenity": "bicycle_rental",
        "brand": "An Rothar Nua",
        "name": "An Rothar Nua",
        "operator": "An Rothar Nua"
      }
    },
    {
      "displayName": "Antik Telecom",
      "id": "antiktelecom-3e2129",
      "locationSet": {"include": ["sk"]},
      "tags": {
        "amenity": "bicycle_rental",
        "brand": "Antik Telecom",
        "name": "Antik Telecom",
        "operator": "Antik Telecom"
      }
    },
    {
      "displayName": "Area Blu",
      "id": "areablu-3d5df6",
      "locationSet": {"include": ["it"]},
      "tags": {
        "amenity": "bicycle_rental",
        "brand": "Area Blu",
        "name": "Area Blu",
        "operator": "Area Blu"
      }
    },
    {
      "displayName": "Århus Kommune",
      "id": "arhuskommune-e198ac",
      "locationSet": {"include": ["dk"]},
      "tags": {
        "amenity": "bicycle_rental",
        "brand": "Århus Kommune",
        "name": "Århus Kommune",
        "operator": "Århus Kommune"
      }
    },
    {
      "displayName": "ATB Bergamo",
      "id": "atbbergamo-3d5df6",
      "locationSet": {"include": ["it"]},
      "tags": {
        "amenity": "bicycle_rental",
        "brand": "ATB Bergamo",
        "name": "ATB Bergamo",
        "operator": "ATB Bergamo"
      }
    },
    {
      "displayName": "Ayuntamiento de Getafe",
      "id": "ayuntamientodegetafe-f59a8b",
      "locationSet": {"include": ["es"]},
      "tags": {
        "amenity": "bicycle_rental",
        "brand": "Ayuntamiento de Getafe",
        "name": "Ayuntamiento de Getafe",
        "operator": "Ayuntamiento de Getafe"
      }
    },
    {
      "displayName": "BalticBike",
      "id": "balticbike-2d72c6",
      "locationSet": {"include": ["lv"]},
      "tags": {
        "amenity": "bicycle_rental",
        "brand": "BalticBike",
        "name": "BalticBike",
        "operator": "BalticBike"
      }
    },
    {
      "displayName": "baybike",
      "id": "baybike-813eb7",
      "locationSet": {"include": ["jp"]},
      "tags": {
        "amenity": "bicycle_rental",
        "brand": "baybike",
        "brand:en": "baybike",
        "brand:ja": "ベイバイク",
        "brand:wikidata": "Q91499435",
        "fee": "yes",
        "name": "baybike",
        "name:en": "baybike",
        "name:ja": "ベイバイク",
        "official_name": "横浜コミュニティサイクル",
        "official_name:en": "Yokohama Bike Share",
        "official_name:ja": "横浜コミュニティサイクル",
        "operator": "baybike",
        "operator:en": "baybike",
        "operator:ja": "ベイバイク",
        "operator:wikidata": "Q91499435"
      }
    },
    {
      "displayName": "BCycle",
      "id": "bcycle-97ea79",
      "locationSet": {"include": ["us"]},
      "tags": {
        "amenity": "bicycle_rental",
        "brand": "BCycle",
        "name": "BCycle",
        "operator": "BCycle"
      }
    },
    {
      "displayName": "Belfast Bikes (Belfast City Council)",
      "id": "belfastbikesbelfastcitycouncil-a358c0",
      "locationSet": {"include": ["gb-nir"]},
      "tags": {
        "amenity": "bicycle_rental",
        "brand": "Belfast Bikes (Belfast City Council)",
        "name": "Belfast Bikes (Belfast City Council)",
        "operator": "Belfast Bikes (Belfast City Council)"
      }
    },
    {
      "displayName": "Bici Cuenca",
      "id": "bicicuenca-3e9425",
      "locationSet": {"include": ["ec"]},
      "tags": {
        "amenity": "bicycle_rental",
        "brand": "Bici Cuenca",
        "name": "Bici Cuenca",
        "operator": "Bici Cuenca"
      }
    },
    {
      "displayName": "Bici Las Condes",
      "id": "bicilascondes-70bf31",
      "locationSet": {"include": ["cl"]},
      "tags": {
        "amenity": "bicycle_rental",
        "brand": "Bici Las Condes",
        "name": "Bici Las Condes",
        "operator": "Bici Las Condes"
      }
    },
    {
      "displayName": "biciAltea",
      "id": "bicialtea-f59a8b",
      "locationSet": {"include": ["es"]},
      "tags": {
        "amenity": "bicycle_rental",
        "brand": "biciAltea",
        "name": "biciAltea",
        "operator": "biciAltea"
      }
    },
    {
      "displayName": "Bicincittà",
      "id": "bicincitta-3d5df6",
      "locationSet": {"include": ["it"]},
      "tags": {
        "amenity": "bicycle_rental",
        "brand": "Bicincittà",
        "name": "Bicincittà",
        "operator": "Bicincittà"
      }
    },
    {
      "displayName": "Bike Share Toronto",
      "id": "bikesharetoronto-3eadaa",
      "locationSet": {"include": ["ca"]},
      "tags": {
        "amenity": "bicycle_rental",
        "brand": "Bike Share Toronto",
        "name": "Bike Share Toronto",
        "operator": "Bike Share Toronto"
      }
    },
    {
      "displayName": "BikeRio",
      "id": "bikerio-c7dd41",
      "locationSet": {"include": ["br"]},
      "tags": {
        "amenity": "bicycle_rental",
        "brand": "BikeRio",
        "name": "BikeRio",
        "operator": "BikeRio"
      }
    },
    {
      "displayName": "Bikesantiago",
      "id": "bikesantiago-70bf31",
      "locationSet": {"include": ["cl"]},
      "tags": {
        "amenity": "bicycle_rental",
        "brand": "Bikesantiago",
        "brand:wikidata": "Q18170816",
        "brand:wikipedia": "es:Bikesantiago",
        "name": "Bikesantiago",
        "operator": "Bikesantiago",
        "operator:wikidata": "Q18170816",
        "operator:wikipedia": "es:Bikesantiago"
      }
    },
    {
      "displayName": "BikeU",
      "id": "bikeu-4d145c",
      "locationSet": {"include": ["pl"]},
      "tags": {
        "amenity": "bicycle_rental",
        "brand": "BikeU",
        "name": "BikeU",
        "operator": "BikeU"
      }
    },
    {
      "displayName": "Biki",
      "id": "biki-97ea79",
      "locationSet": {"include": ["us"]},
      "tags": {
        "amenity": "bicycle_rental",
        "brand": "Biki",
        "brand:wikidata": "Q98337927",
        "name": "Biki",
        "operator": "Biki",
        "operator:wikidata": "Q98337927"
      }
    },
    {
      "displayName": "BIT Mobility",
      "id": "bitmobility-3d5df6",
      "locationSet": {"include": ["it"]},
      "tags": {
        "amenity": "bicycle_rental",
        "brand": "BIT Mobility",
        "name": "BIT Mobility",
        "operator": "BIT Mobility"
      }
    },
    {
      "displayName": "Bixi",
      "id": "bixi-3eadaa",
      "locationSet": {"include": ["ca"]},
      "tags": {
        "amenity": "bicycle_rental",
        "brand": "Bixi",
        "brand:wikidata": "Q4919302",
        "brand:wikipedia": "en:BIXI Montréal",
        "name": "Bixi",
        "operator": "Bixi",
        "operator:wikidata": "Q4919302",
        "operator:wikipedia": "en:BIXI Montréal"
      }
    },
    {
      "displayName": "Biziprest",
      "id": "biziprest-f59a8b",
      "locationSet": {"include": ["es"]},
      "tags": {
        "amenity": "bicycle_rental",
        "brand": "Biziprest",
        "name": "Biziprest",
        "operator": "Biziprest"
      }
    },
    {
      "displayName": "BKK",
      "id": "bkk-7b42f4",
      "locationSet": {"include": ["hu"]},
      "tags": {
        "amenity": "bicycle_rental",
        "brand": "BKK",
        "name": "BKK",
        "operator": "BKK"
      }
    },
    {
      "displayName": "Blue-Mobility",
      "id": "bluemobility-18cad7",
      "locationSet": {"include": ["be"]},
      "tags": {
        "amenity": "bicycle_rental",
        "brand": "Blue-Mobility",
        "name": "Blue-Mobility",
        "operator": "Blue-Mobility"
      }
    },
    {
      "displayName": "Bluebikes",
      "id": "bluebikes-97ea79",
      "locationSet": {"include": ["us"]},
      "matchNames": [
        "blue cross blue shield of massachusetts (bcbsma)"
      ],
      "tags": {
        "amenity": "bicycle_rental",
        "brand": "Bluebikes",
        "brand:wikidata": "Q3142157",
        "brand:wikipedia": "en:Bluebikes",
        "name": "Bluebikes",
        "operator": "Bluebikes",
        "operator:wikidata": "Q3142157",
        "operator:wikipedia": "en:Bluebikes"
      }
    },
    {
      "displayName": "Boseh",
      "id": "boseh-2db6d2",
      "locationSet": {"include": ["id-jw"]},
      "tags": {
        "amenity": "bicycle_rental",
        "brand": "Boseh",
        "name": "Boseh",
        "operator": "Boseh"
      }
    },
    {
      "displayName": "Boulder B-cycle",
      "id": "boulderbcycle-97ea79",
      "locationSet": {"include": ["us"]},
      "tags": {
        "amenity": "bicycle_rental",
        "brand": "Boulder B-cycle",
        "name": "Boulder B-cycle",
        "operator": "Boulder B-cycle"
      }
    },
    {
      "displayName": "Bruin Bike Share",
      "id": "bruinbikeshare-97ea79",
      "locationSet": {"include": ["us"]},
      "tags": {
        "amenity": "bicycle_rental",
        "brand": "Bruin Bike Share",
        "name": "Bruin Bike Share",
        "operator": "Bruin Bike Share"
      }
    },
    {
      "displayName": "Bycyklen",
      "id": "bycyklen-e198ac",
      "locationSet": {"include": ["dk"]},
      "tags": {
        "amenity": "bicycle_rental",
        "brand": "Bycyklen",
        "name": "Bycyklen",
        "operator": "Bycyklen"
      }
    },
    {
      "displayName": "Caju Bike",
      "id": "cajubike-c7dd41",
      "locationSet": {"include": ["br"]},
      "tags": {
        "amenity": "bicycle_rental",
        "brand": "Caju Bike",
        "name": "Caju Bike",
        "operator": "Caju Bike"
      }
    },
    {
      "displayName": "Call a Bike",
      "id": "callabike-937152",
      "locationSet": {"include": ["de"]},
      "tags": {
        "amenity": "bicycle_rental",
        "brand": "Call a Bike",
        "brand:wikidata": "Q1060525",
        "brand:wikipedia": "de:Call a Bike",
        "name": "Call a Bike",
        "operator": "Deutsche Bahn Connect",
        "operator:wikidata": "Q1152100",
        "operator:wikipedia": "de:Deutsche Bahn Connect"
      }
    },
    {
      "displayName": "Capital Bikeshare",
      "id": "capitalbikeshare-97ea79",
      "locationSet": {"include": ["us"]},
      "tags": {
        "amenity": "bicycle_rental",
        "brand": "Capital Bikeshare",
        "brand:wikidata": "Q1034635",
        "brand:wikipedia": "en:Capital Bikeshare",
        "name": "Capital Bikeshare",
        "operator": "Capital Bikeshare",
        "operator:wikidata": "Q1034635",
        "operator:wikipedia": "en:Capital Bikeshare"
      }
    },
    {
      "displayName": "carvelo2go",
      "id": "carvelo2go-61df48",
      "locationSet": {"include": ["ch"]},
      "tags": {
        "amenity": "bicycle_rental",
        "brand": "carvelo2go",
        "name": "carvelo2go",
        "operator": "carvelo2go"
      }
    },
    {
      "displayName": "Citi Bike",
      "id": "citibike-97ea79",
      "locationSet": {"include": ["us"]},
      "tags": {
        "amenity": "bicycle_rental",
        "brand": "Citi Bike",
        "brand:wikidata": "Q2974438",
        "brand:wikipedia": "en:Citi Bike",
        "name": "Citi Bike",
        "operator": "Citi Bike",
        "operator:wikidata": "Q2974438",
        "operator:wikipedia": "en:Citi Bike"
      }
    },
    {
      "displayName": "City Bike Finland",
      "id": "citybikefinland-5c40d5",
      "locationSet": {"include": ["fi"]},
      "tags": {
        "amenity": "bicycle_rental",
        "brand": "City Bike Finland",
        "name": "City Bike Finland",
        "operator": "City Bike Finland"
      }
    },
    {
      "displayName": "city bike Liverpool",
      "id": "citybikeliverpool-b88dc4",
      "locationSet": {"include": ["gb-eng"]},
      "tags": {
        "amenity": "bicycle_rental",
        "brand": "city bike Liverpool",
        "name": "city bike Liverpool",
        "operator": "city bike Liverpool"
      }
    },
    {
      "displayName": "City Bikes",
      "id": "citybikes-bc0237",
      "locationSet": {"include": ["se"]},
      "tags": {
        "amenity": "bicycle_rental",
        "brand": "City Bikes",
        "name": "City Bikes",
        "operator": "City Bikes"
      }
    },
    {
      "displayName": "City of Santa Monica / CycleHop",
      "id": "cityofsantamonicacyclehop-97ea79",
      "locationSet": {"include": ["us"]},
      "tags": {
        "amenity": "bicycle_rental",
        "brand": "City of Santa Monica / CycleHop",
        "name": "City of Santa Monica / CycleHop",
        "operator": "City of Santa Monica / CycleHop"
      }
    },
    {
      "displayName": "CityBike Vantaa Oy",
      "id": "citybikevantaaoy-5c40d5",
      "locationSet": {"include": ["fi"]},
      "tags": {
        "amenity": "bicycle_rental",
        "brand": "CityBike Vantaa Oy",
        "name": "CityBike Vantaa Oy",
        "operator": "CityBike Vantaa Oy"
      }
    },
    {
      "displayName": "ClearChannel",
      "id": "clearchannel-e79826",
      "locationSet": {"include": ["no"]},
      "matchNames": ["clear channel norge as"],
      "tags": {
        "amenity": "bicycle_rental",
        "brand": "ClearChannel",
        "name": "ClearChannel",
        "operator": "ClearChannel"
      }
    },
    {
      "displayName": "CMVC - biConde",
      "id": "cmvcbiconde-b62040",
      "locationSet": {"include": ["pt"]},
      "tags": {
        "amenity": "bicycle_rental",
        "brand": "CMVC - biConde",
        "name": "CMVC - biConde",
        "operator": "CMVC - biConde"
      }
    },
    {
      "displayName": "CoGo Bike Share",
      "id": "cogobikeshare-97ea79",
      "locationSet": {"include": ["us"]},
      "tags": {
        "amenity": "bicycle_rental",
        "brand": "CoGo Bike Share",
        "name": "CoGo Bike Share",
        "operator": "CoGo Bike Share"
      }
    },
    {
      "displayName": "CycleHop",
      "id": "cyclehop-97ea79",
      "locationSet": {"include": ["us"]},
      "tags": {
        "amenity": "bicycle_rental",
        "brand": "CycleHop",
        "name": "CycleHop",
        "operator": "CycleHop"
      }
    },
    {
      "displayName": "Cycleme kft.",
      "id": "cyclemekft-7b42f4",
      "locationSet": {"include": ["hu"]},
      "tags": {
        "amenity": "bicycle_rental",
        "brand": "Cycleme kft.",
        "name": "Cycleme kft.",
        "operator": "Cycleme kft."
      }
    },
    {
      "displayName": "Cyclocity",
      "id": "cyclocity-e46daa",
      "locationSet": {"include": ["fr"]},
      "matchNames": ["cyclocity inc"],
      "tags": {
        "amenity": "bicycle_rental",
        "brand": "Cyclocity",
        "name": "Cyclocity",
        "operator": "Cyclocity"
      }
    },
    {
      "displayName": "Cykleo",
      "id": "cykleo-e46daa",
      "locationSet": {"include": ["fr"]},
      "tags": {
        "amenity": "bicycle_rental",
        "brand": "Cykleo",
        "name": "Cykleo",
        "operator": "Cykleo"
      }
    },
    {
      "displayName": "Divvy",
      "id": "divvy-97ea79",
      "locationSet": {"include": ["us"]},
      "tags": {
        "amenity": "bicycle_rental",
        "brand": "Divvy",
        "name": "Divvy",
        "operator": "Divvy"
      }
    },
    {
      "displayName": "Donkey Republic",
      "id": "donkeyrepublic-06d22c",
      "locationSet": {"include": ["001"]},
      "tags": {
        "amenity": "bicycle_rental",
        "brand": "Donkey Republic",
        "name": "Donkey Republic",
        "operator": "Donkey Republic"
      }
    },
    {
      "displayName": "Dukaten",
      "id": "dukaten-bc0237",
      "locationSet": {"include": ["se"]},
      "tags": {
        "amenity": "bicycle_rental",
        "brand": "Dukaten",
        "name": "Dukaten",
        "operator": "Dukaten"
      }
    },
    {
      "displayName": "Easybike",
      "id": "easybike-5c40d5",
      "locationSet": {"include": ["fi"]},
      "tags": {
        "amenity": "bicycle_rental",
        "brand": "Easybike",
        "name": "Easybike",
        "operator": "Easybike"
      }
    },
    {
      "displayName": "ecobike",
      "id": "ecobike-813eb7",
      "locationSet": {"include": ["jp"]},
      "tags": {
        "amenity": "bicycle_rental",
        "brand": "ecobike",
        "name": "ecobike",
        "operator": "ecobike"
      }
    },
    {
      "displayName": "EMEL",
      "id": "emel-06d22c",
      "locationSet": {"include": ["001"]},
      "tags": {
        "amenity": "bicycle_rental",
        "brand": "EMEL",
        "name": "EMEL",
        "operator": "EMEL"
      }
    },
    {
      "displayName": "EMT Madrid",
      "id": "emtmadrid-f59a8b",
      "locationSet": {"include": ["es"]},
      "tags": {
        "amenity": "bicycle_rental",
        "brand": "EMT Madrid",
        "name": "EMT Madrid",
        "operator": "EMT Madrid"
      }
    },
    {
      "displayName": "EMT-Cemusa",
      "id": "emtcemusa-f59a8b",
      "locationSet": {"include": ["es"]},
      "tags": {
        "amenity": "bicycle_rental",
        "brand": "EMT-Cemusa",
        "name": "EMT-Cemusa",
        "operator": "EMT-Cemusa"
      }
    },
    {
      "displayName": "EMVSA",
      "id": "emvsa-f59a8b",
      "locationSet": {"include": ["es"]},
      "tags": {
        "amenity": "bicycle_rental",
        "brand": "EMVSA",
        "name": "EMVSA",
        "operator": "EMVSA"
      }
    },
    {
      "displayName": "EnCicla",
      "id": "encicla-2d08e5",
      "locationSet": {"include": ["co"]},
      "tags": {
        "amenity": "bicycle_rental",
        "brand": "EnCicla",
        "name": "EnCicla",
        "operator": "EnCicla"
      }
    },
    {
      "displayName": "Explore Bike Share",
      "id": "explorebikeshare-97ea79",
      "locationSet": {"include": ["us"]},
      "tags": {
        "amenity": "bicycle_rental",
        "brand": "Explore Bike Share",
        "brand:wikidata": "Q86706492",
        "name": "Explore Bike Share",
        "operator": "Explore Bike Share",
        "operator:wikidata": "Q86706492"
      }
    },
    {
      "displayName": "fLotte",
      "id": "flotte-937152",
      "locationSet": {"include": ["de"]},
      "tags": {
        "amenity": "bicycle_rental",
        "brand": "fLotte",
        "brand:wikidata": "Q102333872",
        "operator": "ADFC",
        "operator:wikidata": "Q24349",
        "operator:wikipedia": "de:ADFC"
      }
    },
    {
      "displayName": "Ford GoBike",
      "id": "fordgobike-97ea79",
      "locationSet": {"include": ["us"]},
      "tags": {
        "amenity": "bicycle_rental",
        "brand": "Ford GoBike",
        "name": "Ford GoBike",
        "operator": "Ford GoBike"
      }
    },
    {
      "displayName": "frelo",
      "id": "frelo-937152",
      "locationSet": {"include": ["de"]},
      "tags": {
        "amenity": "bicycle_rental",
        "brand": "frelo",
        "operator": "nextbike GmbH"
      }
    },
    {
      "displayName": "GeoVelo",
      "id": "geovelo-4d145c",
      "locationSet": {"include": ["pl"]},
      "tags": {
        "amenity": "bicycle_rental",
        "brand": "GeoVelo",
        "name": "GeoVelo",
        "operator": "GeoVelo"
      }
    },
    {
      "displayName": "GIANT",
      "id": "giant-1bb859",
      "locationSet": {"include": ["tw"]},
      "matchNames": ["gaint"],
      "tags": {
        "amenity": "bicycle_rental",
        "brand": "GIANT",
        "name": "GIANT",
        "operator": "GIANT"
      }
    },
    {
      "displayName": "Gobierno de la Ciudad de México",
      "id": "gobiernodelaciudaddemexico-e0aaa7",
      "locationSet": {"include": ["mx"]},
      "tags": {
        "amenity": "bicycle_rental",
        "brand": "Gobierno de la Ciudad de México",
        "name": "Gobierno de la Ciudad de México",
        "operator": "Gobierno de la Ciudad de México"
      }
    },
    {
      "displayName": "Gotcha Bikes",
      "id": "gotchabikes-97ea79",
      "locationSet": {"include": ["us"]},
      "tags": {
        "amenity": "bicycle_rental",
        "brand": "Gotcha Bikes",
        "name": "Gotcha Bikes",
        "operator": "Gotcha Bikes"
      }
    },
    {
      "displayName": "Grid",
      "id": "grid-97ea79",
      "locationSet": {"include": ["us"]},
      "tags": {
        "amenity": "bicycle_rental",
        "brand": "Grid",
        "brand:wikidata": "Q62104168",
        "name": "Grid",
        "operator": "Grid",
        "operator:wikidata": "Q62104168"
      }
    },
    {
      "displayName": "GSBikeshare",
      "id": "gsbikeshare-b88dc4",
      "locationSet": {"include": ["gb-eng"]},
      "tags": {
        "amenity": "bicycle_rental",
        "brand": "GSBikeshare",
        "name": "GSBikeshare",
        "operator": "GSBikeshare"
      }
    },
    {
      "displayName": "Heartland B-cycle",
      "id": "heartlandbcycle-97ea79",
      "locationSet": {"include": ["us"]},
      "tags": {
        "amenity": "bicycle_rental",
        "brand": "Heartland B-cycle",
        "name": "Heartland B-cycle",
        "operator": "Heartland B-cycle"
      }
    },
    {
      "displayName": "HELLO CYCLING",
      "id": "hellocycling-813eb7",
      "locationSet": {"include": ["jp"]},
      "tags": {
        "amenity": "bicycle_rental",
        "brand": "HELLO CYCLING",
        "brand:en": "HELLO CYCLING",
        "brand:ja": "ハローサイクリング",
        "brand:wikidata": "Q91231927",
        "fee": "yes",
        "name": "HELLO CYCLING",
        "name:en": "HELLO CYCLING",
        "name:ja": "ハローサイクリング",
        "operator": "HELLO CYCLING",
        "operator:en": "HELLO CYCLING",
        "operator:ja": "ハローサイクリング",
        "operator:wikidata": "Q91231927"
      }
    },
    {
      "displayName": "hirebikeLincoln",
      "id": "hirebikelincoln-b88dc4",
      "locationSet": {"include": ["gb-eng"]},
      "tags": {
        "amenity": "bicycle_rental",
        "brand": "hirebikeLincoln",
        "name": "hirebikeLincoln",
        "operator": "hirebikeLincoln"
      }
    },
    {
      "displayName": "http://www.ta-shu.com",
      "id": "httpwwwtashucom-3cba94",
      "locationSet": {"include": ["kr"]},
      "tags": {
        "amenity": "bicycle_rental",
        "brand": "http://www.ta-shu.com",
        "name": "http://www.ta-shu.com",
        "operator": "http://www.ta-shu.com"
      }
    },
    {
      "displayName": "Impursa S.A.",
      "id": "impursasa-f59a8b",
      "locationSet": {"include": ["es"]},
      "tags": {
        "amenity": "bicycle_rental",
        "brand": "Impursa S.A.",
        "name": "Impursa S.A.",
        "operator": "Impursa S.A."
      }
    },
    {
      "displayName": "Innsbrucker Verkehrsbetriebe und Stubaitalbahn GmbH",
      "id": "innsbruckerverkehrsbetriebeundstubaitalbahngmbh-cda769",
      "locationSet": {"include": ["at"]},
      "tags": {
        "amenity": "bicycle_rental",
        "brand": "Innsbrucker Verkehrsbetriebe und Stubaitalbahn GmbH",
        "name": "Innsbrucker Verkehrsbetriebe und Stubaitalbahn GmbH",
        "operator": "Innsbrucker Verkehrsbetriebe und Stubaitalbahn GmbH"
      }
    },
    {
      "displayName": "JCDecaux",
      "id": "jcdecaux-06d22c",
      "locationSet": {"include": ["001"]},
      "tags": {
        "amenity": "bicycle_rental",
        "brand": "JCDecaux",
        "name": "JCDecaux",
        "operator": "JCDecaux"
      }
    },
    {
      "displayName": "Jtaca srl",
      "id": "jtacasrl-3d5df6",
      "locationSet": {"include": ["it"]},
      "tags": {
        "amenity": "bicycle_rental",
        "brand": "Jtaca srl",
        "name": "Jtaca srl",
        "operator": "Jtaca srl"
      }
    },
    {
      "displayName": "Just Eat Cycles",
      "id": "justeatcycles-f9bbc5",
      "locationSet": {"include": ["gb-sct"]},
      "matchNames": [
        "justeat",
        "justeats bicycles"
      ],
      "note": "These are limited to Edinburgh only (as of 2020-12-04)",
      "tags": {
        "amenity": "bicycle_rental",
        "brand": "Just Eat Cycles",
        "brand:wikidata": "Q6315697",
        "network": "Transport for Edinburgh",
        "operator": "Serco",
        "operator:wikidata": "Q499104"
      }
    },
    {
      "displayName": "Kajteroz",
      "id": "kajteroz-4d145c",
      "locationSet": {"include": ["pl"]},
      "tags": {
        "amenity": "bicycle_rental",
        "brand": "Kajteroz",
        "name": "Kajteroz",
        "operator": "Kajteroz"
      }
    },
    {
      "displayName": "Keolis",
      "id": "keolis-06d22c",
      "locationSet": {"include": ["001"]},
      "tags": {
        "amenity": "bicycle_rental",
        "brand": "Keolis",
        "name": "Keolis",
        "operator": "Keolis"
      }
    },
    {
      "displayName": "Komunikacja Miejska w Szczecinku",
      "id": "komunikacjamiejskawszczecinku-4d145c",
      "locationSet": {"include": ["pl"]},
      "tags": {
        "amenity": "bicycle_rental",
        "brand": "Komunikacja Miejska w Szczecinku",
        "name": "Komunikacja Miejska w Szczecinku",
        "operator": "Komunikacja Miejska w Szczecinku"
      }
    },
    {
      "displayName": "Konrad",
      "id": "konrad-937152",
      "locationSet": {"include": ["de"]},
      "tags": {
        "amenity": "bicycle_rental",
        "brand": "Konrad",
        "operator": "Stadtwerke Konstanz",
        "operator:wikidata": "Q1266985",
        "operator:wikipedia": "de:Stadtwerke Konstanz"
      }
    },
    {
      "displayName": "Labici",
      "id": "labici-f59a8b",
      "locationSet": {"include": ["es"]},
      "tags": {
        "amenity": "bicycle_rental",
        "brand": "Labici",
        "name": "Labici",
        "operator": "Labici"
      }
    },
    {
      "displayName": "Lefkoşa Türk Belediyesi",
      "id": "lefkosaturkbelediyesi-06d22c",
      "locationSet": {"include": ["001"]},
      "tags": {
        "amenity": "bicycle_rental",
        "brand": "Lefkoşa Türk Belediyesi",
        "name": "Lefkoşa Türk Belediyesi",
        "operator": "Lefkoşa Türk Belediyesi"
      }
    },
    {
      "displayName": "Los Angeles County Metropolitan Transportation Authority",
      "id": "losangelescountymetropolitantransportationauthority-97ea79",
      "locationSet": {"include": ["us"]},
      "tags": {
        "amenity": "bicycle_rental",
        "brand": "Los Angeles County Metropolitan Transportation Authority",
        "name": "Los Angeles County Metropolitan Transportation Authority",
        "operator": "Los Angeles County Metropolitan Transportation Authority"
      }
    },
    {
      "displayName": "LTC",
      "id": "ltc-e46daa",
      "locationSet": {"include": ["fr"]},
      "tags": {
        "amenity": "bicycle_rental",
        "brand": "LTC",
        "name": "LTC",
        "operator": "LTC"
      }
    },
    {
      "displayName": "Lyft",
      "id": "lyft-97ea79",
      "locationSet": {"include": ["us"]},
      "matchNames": [
        "lyft motivate international inc"
      ],
      "tags": {
        "amenity": "bicycle_rental",
        "brand": "Lyft",
        "name": "Lyft",
        "operator": "Lyft"
      }
    },
    {
      "displayName": "Madison B-cycle",
      "id": "madisonbcycle-97ea79",
      "locationSet": {"include": ["us"]},
      "tags": {
        "amenity": "bicycle_rental",
        "brand": "Madison B-cycle",
        "name": "Madison B-cycle",
        "operator": "Madison B-cycle"
      }
    },
    {
      "displayName": "meinRad",
      "id": "meinrad-937152",
      "locationSet": {"include": ["de"]},
      "tags": {
        "amenity": "bicycle_rental",
        "brand": "meinRad",
        "operator": "ESWE Verkehr GmbH",
        "operator:wikidata": "Q372587",
        "operator:wikipedia": "de:ESWE Verkehrsgesellschaft"
      }
    },
    {
      "displayName": "Mesto Trnava",
      "id": "mestotrnava-3e2129",
      "locationSet": {"include": ["sk"]},
      "tags": {
        "amenity": "bicycle_rental",
        "brand": "Mesto Trnava",
        "name": "Mesto Trnava",
        "operator": "Mesto Trnava"
      }
    },
    {
      "displayName": "metropolradruhr",
      "id": "metropolradruhr-937152",
      "locationSet": {"include": ["de"]},
      "tags": {
        "amenity": "bicycle_rental",
        "brand": "metropolradruhr",
        "brand:wikidata": "Q62104274",
        "operator": "Nextbike",
        "operator:wikidata": "Q2351279",
        "operator:wikipedia": "de:Nextbike"
      }
    },
    {
      "displayName": "Mi Bici Tu Bici",
      "id": "mibicitubici-2be980",
      "locationSet": {"include": ["ar"]},
      "tags": {
        "amenity": "bicycle_rental",
        "brand": "Mi Bici Tu Bici",
        "brand:wikidata": "Q100272303",
        "name": "Mi Bici Tu Bici",
        "operator": "Mi Bici Tu Bici",
        "operator:wikidata": "Q100272303"
      }
    },
    {
      "displayName": "MiBici",
      "id": "mibici-e0aaa7",
      "locationSet": {"include": ["mx"]},
      "tags": {
        "amenity": "bicycle_rental",
        "brand": "MiBici",
        "brand:wikidata": "Q60966987",
        "brand:wikipedia": "es:MiBici",
        "name": "MiBici",
        "operator": "MiBici",
        "operator:wikidata": "Q60966987",
        "operator:wikipedia": "es:MiBici"
      }
    },
    {
      "displayName": "Miejski Zakład Komunikacji",
      "id": "miejskizakladkomunikacji-4d145c",
      "locationSet": {"include": ["pl"]},
      "tags": {
        "amenity": "bicycle_rental",
        "brand": "Miejski Zakład Komunikacji",
        "name": "Miejski Zakład Komunikacji",
        "operator": "Miejski Zakład Komunikacji"
      }
    },
    {
      "displayName": "MO Kranj",
      "id": "mokranj-3dc1ae",
      "locationSet": {"include": ["si"]},
      "tags": {
        "amenity": "bicycle_rental",
        "brand": "MO Kranj",
        "name": "MO Kranj",
        "operator": "MO Kranj"
      }
    },
    {
      "displayName": "MO Velenje",
      "id": "movelenje-3dc1ae",
      "locationSet": {"include": ["si"]},
      "tags": {
        "amenity": "bicycle_rental",
        "brand": "MO Velenje",
        "name": "MO Velenje",
        "operator": "MO Velenje"
      }
    },
    {
      "displayName": "MOBIbike",
      "id": "mobibike-937152",
      "locationSet": {"include": ["de"]},
      "matchNames": ["sz-bike"],
      "tags": {
        "amenity": "bicycle_rental",
        "brand": "MOBIbike",
        "operator": "Nextbike",
        "operator:wikidata": "Q2351279",
        "operator:wikipedia": "de:Nextbike"
      }
    },
    {
      "displayName": "MobiCascais",
      "id": "mobicascais-b62040",
      "locationSet": {"include": ["pt"]},
      "tags": {
        "amenity": "bicycle_rental",
        "brand": "MobiCascais",
        "name": "MobiCascais",
        "operator": "MobiCascais"
      }
    },
    {
      "displayName": "MoBike",
      "id": "mobike-3d5df6",
      "locationSet": {"include": ["it"]},
      "tags": {
        "amenity": "bicycle_rental",
        "brand": "MoBike",
        "name": "MoBike",
        "operator": "MoBike"
      }
    },
    {
      "displayName": "MOL",
      "id": "mol-3dc1ae",
      "locationSet": {"include": ["si"]},
      "tags": {
        "amenity": "bicycle_rental",
        "brand": "MOL",
        "name": "MOL",
        "operator": "MOL"
      }
    },
    {
      "displayName": "Motivate",
      "id": "motivate-97ea79",
      "locationSet": {"include": ["us"]},
      "matchNames": [
        "motivate international inc"
      ],
      "tags": {
        "amenity": "bicycle_rental",
        "brand": "Motivate",
        "name": "Motivate",
        "operator": "Motivate"
      }
    },
    {
      "displayName": "Municipalidad de Rosario",
      "id": "municipalidadderosario-2be980",
      "locationSet": {"include": ["ar"]},
      "tags": {
        "amenity": "bicycle_rental",
        "brand": "Municipalidad de Rosario",
        "name": "Municipalidad de Rosario",
        "operator": "Municipalidad de Rosario"
      }
    },
    {
      "displayName": "MVG Rad",
      "id": "mvgrad-937152",
      "locationSet": {"include": ["de"]},
      "matchNames": ["mvg"],
      "tags": {
        "amenity": "bicycle_rental",
        "brand": "MVG Rad",
        "operator": "Münchner Verkehrsgesellschaft",
        "operator:wikidata": "Q456402",
        "operator:wikipedia": "de:Münchner Verkehrsgesellschaft"
      }
    },
    {
      "displayName": "MVGmeinRad",
      "id": "mvgmeinrad-937152",
      "locationSet": {"include": ["de"]},
      "tags": {
        "amenity": "bicycle_rental",
        "brand": "MVGmeinRad",
        "brand:wikidata": "Q14541300",
        "brand:wikipedia": "de:MVGmeinRad",
        "operator": "Mainzer Verkehrsgesellschaft",
        "operator:wikidata": "Q1885780",
        "operator:wikipedia": "de:Mainzer Verkehrsgesellschaft"
      }
    },
    {
      "displayName": "NB Serwis",
      "id": "nbserwis-4d145c",
      "locationSet": {"include": ["pl"]},
      "tags": {
        "amenity": "bicycle_rental",
        "brand": "NB Serwis",
        "name": "NB Serwis",
        "operator": "NB Serwis"
      }
    },
    {
      "displayName": "Nextbike Polska",
      "id": "nextbikepolska-4d145c",
      "locationSet": {"include": ["pl"]},
      "tags": {
        "amenity": "bicycle_rental",
        "brand": "Nextbike Polska",
        "name": "Nextbike Polska",
        "operator": "Nextbike Polska"
      }
    },
    {
      "displayName": "Nextbike Ukraine llc",
      "id": "nextbikeukrainellc-a162ac",
      "locationSet": {"include": ["ua"]},
      "tags": {
        "amenity": "bicycle_rental",
        "brand": "Nextbike Ukraine llc",
        "name": "Nextbike Ukraine llc",
        "operator": "Nextbike Ukraine llc"
      }
    },
    {
      "displayName": "Nieruchomości i Opłaty Lokalne",
      "id": "nieruchomosciioplatylokalne-4d145c",
      "locationSet": {"include": ["pl"]},
      "tags": {
        "amenity": "bicycle_rental",
        "brand": "Nieruchomości i Opłaty Lokalne",
        "name": "Nieruchomości i Opłaty Lokalne",
        "operator": "Nieruchomości i Opłaty Lokalne"
      }
    },
    {
      "displayName": "NOMAGO",
      "id": "nomago-3dc1ae",
      "locationSet": {"include": ["si"]},
      "tags": {
        "amenity": "bicycle_rental",
        "brand": "NOMAGO",
        "name": "NOMAGO",
        "operator": "NOMAGO"
      }
    },
    {
      "displayName": "NS",
      "id": "ns-06d22c",
      "locationSet": {"include": ["001"]},
      "tags": {
        "amenity": "bicycle_rental",
        "brand": "NS",
        "name": "NS",
        "operator": "NS"
      }
    },
    {
      "displayName": "ntt docomo",
      "id": "nttdocomo-813eb7",
      "locationSet": {"include": ["jp"]},
      "tags": {
        "amenity": "bicycle_rental",
        "brand": "ntt docomo",
        "name": "ntt docomo",
        "operator": "ntt docomo"
      }
    },
    {
      "displayName": "NYC Bike Share",
      "id": "nycbikeshare-97ea79",
      "locationSet": {"include": ["us"]},
      "tags": {
        "amenity": "bicycle_rental",
        "brand": "NYC Bike Share",
        "name": "NYC Bike Share",
        "operator": "NYC Bike Share"
      }
    },
    {
      "displayName": "OV-fiets",
      "id": "ovfiets-8def75",
      "locationSet": {"include": ["nl"]},
      "tags": {
        "amenity": "bicycle_rental",
        "brand": "OV-fiets",
        "brand:wikidata": "Q2629982",
        "brand:wikipedia": "en:OV-fiets",
        "name": "OV-fiets",
        "operator": "OV-fiets",
        "operator:wikidata": "Q2629982",
        "operator:wikipedia": "en:OV-fiets"
      }
    },
    {
      "displayName": "PikeRide",
      "id": "pikeride-97ea79",
      "locationSet": {"include": ["us"]},
      "tags": {
        "amenity": "bicycle_rental",
        "brand": "PikeRide",
        "name": "PikeRide",
        "operator": "PikeRide"
      }
    },
    {
      "displayName": "PMV",
      "id": "pmv-c7dd41",
      "locationSet": {"include": ["br"]},
      "tags": {
        "amenity": "bicycle_rental",
        "brand": "PMV",
        "name": "PMV",
        "operator": "PMV"
      }
    },
    {
      "displayName": "Prefeitura Municipal de Fortaleza",
      "id": "prefeituramunicipaldefortaleza-c7dd41",
      "locationSet": {"include": ["br"]},
      "tags": {
        "amenity": "bicycle_rental",
        "brand": "Prefeitura Municipal de Fortaleza",
        "name": "Prefeitura Municipal de Fortaleza",
        "operator": "Prefeitura Municipal de Fortaleza"
      }
    },
    {
      "displayName": "Primaria Municipiul Cluj-Napoca",
      "id": "primariamunicipiulclujnapoca-8ba172",
      "locationSet": {"include": ["ro"]},
      "tags": {
        "amenity": "bicycle_rental",
        "brand": "Primaria Municipiul Cluj-Napoca",
        "name": "Primaria Municipiul Cluj-Napoca",
        "operator": "Primaria Municipiul Cluj-Napoca"
      }
    },
    {
      "displayName": "Provincia Autonoma di Trento",
      "id": "provinciaautonomaditrento-3d5df6",
      "locationSet": {"include": ["it"]},
      "matchNames": ["provincia di trento"],
      "tags": {
        "amenity": "bicycle_rental",
        "brand": "Provincia Autonoma di Trento",
        "name": "Provincia Autonoma di Trento",
        "operator": "Provincia Autonoma di Trento"
      }
    },
    {
      "displayName": "PubliBike",
      "id": "publibike-61df48",
      "locationSet": {"include": ["ch"]},
      "tags": {
        "amenity": "bicycle_rental",
        "brand": "PubliBike",
        "name": "PubliBike",
        "operator": "PubliBike"
      }
    },
    {
      "displayName": "R.A.T.T.",
      "id": "ratt-8ba172",
      "locationSet": {"include": ["ro"]},
      "tags": {
        "amenity": "bicycle_rental",
        "brand": "R.A.T.T.",
        "name": "R.A.T.T.",
        "operator": "R.A.T.T."
      }
    },
    {
      "displayName": "RACV",
      "id": "racv-da628b",
      "locationSet": {"include": ["au"]},
      "tags": {
        "amenity": "bicycle_rental",
        "brand": "RACV",
        "name": "RACV",
        "operator": "RACV"
      }
    },
    {
      "displayName": "Red Bike",
      "id": "redbike-97ea79",
      "locationSet": {"include": ["us"]},
      "tags": {
        "amenity": "bicycle_rental",
        "brand": "Red Bike",
        "brand:wikidata": "Q18393750",
        "brand:wikipedia": "en:Red Bike",
        "name": "Red Bike",
        "operator": "Red Bike",
        "operator:wikidata": "Q18393750",
        "operator:wikipedia": "en:Red Bike"
      }
    },
    {
      "displayName": "RegioRad Stuttgart",
      "id": "regioradstuttgart-937152",
      "locationSet": {"include": ["de"]},
      "tags": {
        "amenity": "bicycle_rental",
        "brand": "RegioRad Stuttgart",
        "brand:wikidata": "Q57274085",
        "brand:wikipedia": "de:Regiorad Stuttgart",
        "operator": "Deutsche Bahn Connect",
        "operator:wikidata": "Q1152100",
        "operator:wikipedia": "de:Deutsche Bahn Connect"
      }
    },
    {
      "displayName": "RIDE Solutions",
      "id": "ridesolutions-97ea79",
      "locationSet": {"include": ["us"]},
      "tags": {
        "amenity": "bicycle_rental",
        "brand": "RIDE Solutions",
        "name": "RIDE Solutions",
        "operator": "RIDE Solutions"
      }
    },
    {
      "displayName": "Roove",
      "id": "roove-4d145c",
      "locationSet": {"include": ["pl"]},
      "tags": {
        "amenity": "bicycle_rental",
        "brand": "Roove",
        "name": "Roove",
        "operator": "Roove"
      }
    },
    {
      "displayName": "Roovee",
      "id": "roovee-4d145c",
      "locationSet": {"include": ["pl"]},
      "tags": {
        "amenity": "bicycle_rental",
        "brand": "Roovee",
        "name": "Roovee",
        "operator": "Roovee"
      }
    },
    {
      "displayName": "RTC of Southern Nevada",
      "id": "rtcofsouthernnevada-97ea79",
      "locationSet": {"include": ["us"]},
      "tags": {
        "amenity": "bicycle_rental",
        "brand": "RTC of Southern Nevada",
        "name": "RTC of Southern Nevada",
        "operator": "RTC of Southern Nevada"
      }
    },
    {
      "displayName": "RTCR",
      "id": "rtcr-d06f5d",
      "locationSet": {"include": ["fx"]},
      "tags": {
        "amenity": "bicycle_rental",
        "brand": "RTCR",
        "name": "RTCR",
        "operator": "RTCR"
      }
    },
    {
      "displayName": "RTTB",
      "id": "rttb-d06f5d",
      "locationSet": {"include": ["fx"]},
      "tags": {
        "amenity": "bicycle_rental",
        "brand": "RTTB",
        "name": "RTTB",
        "operator": "RTTB"
      }
    },
    {
      "displayName": "Saint-Étienne Métropole",
      "id": "saintetiennemetropole-d06f5d",
      "locationSet": {"include": ["fx"]},
      "tags": {
        "amenity": "bicycle_rental",
        "brand": "Saint-Étienne Métropole",
        "name": "Saint-Étienne Métropole",
        "operator": "Saint-Étienne Métropole"
      }
    },
    {
      "displayName": "Samba Transportes Sustentáveis",
      "id": "sambatransportessustentaveis-c7dd41",
      "locationSet": {"include": ["br"]},
      "tags": {
        "amenity": "bicycle_rental",
        "brand": "Samba Transportes Sustentáveis",
        "name": "Samba Transportes Sustentáveis",
        "operator": "Samba Transportes Sustentáveis"
      }
    },
    {
      "displayName": "Santander Cycles (Brunel)",
      "locationSet": {"include": ["brunel-cycles.geojson"]},
      "tags": {
        "amenity": "bicycle_rental",
        "brand": "Santander Cycles",
        "brand:wikidata": "Q807961",
        "brand:wikipedia": "en:Santander Cycles",
        "network": "nextbike",
        "operator": "nextbike",
        "operator:wikidata": "Q2351279",
        "operator:wikipedia": "en:nextbike"
      }
    },
    {
      "displayName": "Santander Cycles (London)",
      "id": "serco-b88dc4",
      "locationSet": {"include": ["london-cycles.geojson"]},
      "matchNames": [
        "barclays bikes",
        "barclays cycle hire",
        "boris bike",
        "boris bikes"
      ],
      "note": "Formerly sponsered by 'Barclays Bank', hence the matchNames.",
      "tags": {
        "amenity": "bicycle_rental",
        "brand": "Santander Cycles",
        "brand:wikidata": "Q807961",
        "brand:wikipedia": "en:Santander Cycles",
        "network": "tfl_cycle_hire",
        "operator": "Serco",
        "operator:wikidata": "Q499104",
        "operator:wikipedia": "en:Serco"
      }
    },
    {
      "displayName": "Santander Cycles (Milton Keynes)",
      "locationSet": {"include": ["miltonkeynes-cycles.geojson"]},
      "matchNames": [
        "santander cycles mk"
      ],
      "tags": {
        "amenity": "bicycle_rental",
        "brand": "Santander Cycles MK",
        "brand:wikidata": "Q807961",
        "brand:wikipedia": "en:Santander Cycles",
        "network": "Santander Cycles MK",
        "operator": "nextbike",
        "operator:wikidata": "Q2351279",
        "operator:wikipedia": "en:nextbike"
      }
    },
    {
      "displayName": "Santander Cycles (Swansea)",
      "locationSet": {"include": ["gb-wls"]},
      "tags": {
        "amenity": "bicycle_rental",
        "brand": "Santander Cycles",
        "brand:wikidata": "Q807961",
        "brand:wikipedia": "en:Santander Cycles",
        "network": "nextbike",
        "operator": "nextbike",
        "operator:wikidata": "Q2351279",
        "operator:wikipedia": "en:nextbike"
      }
    },
    {
      "displayName": "Semitag",
      "id": "semitag-d06f5d",
      "locationSet": {"include": ["fx"]},
      "tags": {
        "amenity": "bicycle_rental",
        "brand": "Semitag",
        "name": "Semitag",
        "operator": "Semitag"
      }
    },
    {
      "displayName": "Serttel",
      "id": "serttel-c7dd41",
      "locationSet": {"include": ["br"]},
      "tags": {
        "amenity": "bicycle_rental",
        "brand": "Serttel",
        "name": "Serttel",
        "operator": "Serttel"
      }
    },
    {
      "displayName": "servici",
      "id": "servici-f59a8b",
      "locationSet": {"include": ["es"]},
      "tags": {
        "amenity": "bicycle_rental",
        "brand": "servici",
        "name": "servici",
        "operator": "servici"
      }
    },
    {
      "displayName": "SITAC",
      "id": "sitac-d06f5d",
      "locationSet": {"include": ["fx"]},
      "tags": {
        "amenity": "bicycle_rental",
        "brand": "SITAC",
        "name": "SITAC",
        "operator": "SITAC"
      }
    },
    {
      "displayName": "Slovnaft Mobility Services, s.r.o.",
      "id": "slovnaftmobilityservicessro-3e2129",
      "locationSet": {"include": ["sk"]},
      "tags": {
        "amenity": "bicycle_rental",
        "brand": "Slovnaft Mobility Services, s.r.o.",
        "name": "Slovnaft Mobility Services, s.r.o.",
        "operator": "Slovnaft Mobility Services, s.r.o."
      }
    },
    {
      "displayName": "Smovengo",
      "id": "smovengo-d06f5d",
      "locationSet": {"include": ["fx"]},
      "tags": {
        "amenity": "bicycle_rental",
        "brand": "Smovengo",
        "name": "Smovengo",
        "operator": "Smovengo"
      }
    },
    {
      "displayName": "Social Bicycles Inc.",
      "id": "socialbicyclesinc-97ea79",
      "locationSet": {"include": ["us"]},
      "tags": {
        "amenity": "bicycle_rental",
        "brand": "Social Bicycles Inc.",
        "name": "Social Bicycles Inc.",
        "operator": "Social Bicycles Inc."
      }
    },
    {
      "displayName": "SOMOS movilidad",
      "id": "somosmovilidad-2d08e5",
      "locationSet": {"include": ["co"]},
      "tags": {
        "amenity": "bicycle_rental",
        "brand": "SOMOS movilidad",
        "name": "SOMOS movilidad",
        "operator": "SOMOS movilidad"
      }
    },
    {
      "displayName": "SSM & Comune di Udine",
      "id": "ssmandcomunediudine-3d5df6",
      "locationSet": {"include": ["it"]},
      "tags": {
        "amenity": "bicycle_rental",
        "brand": "SSM & Comune di Udine",
        "name": "SSM & Comune di Udine",
        "operator": "SSM & Comune di Udine"
      }
    },
    {
      "displayName": "StadtRAD Hamburg",
      "id": "stadtradhamburg-937152",
      "locationSet": {"include": ["de"]},
      "tags": {
        "amenity": "bicycle_rental",
        "brand": "StadtRAD Hamburg",
        "brand:wikidata": "Q2326366",
        "brand:wikipedia": "de:StadtRAD Hamburg",
        "operator": "Deutsche Bahn Connect",
        "operator:wikidata": "Q1152100",
        "operator:wikipedia": "de:Deutsche Bahn Connect"
      }
    },
    {
      "displayName": "STDE",
      "id": "stde-d06f5d",
      "locationSet": {"include": ["fx"]},
      "tags": {
        "amenity": "bicycle_rental",
        "brand": "STDE",
        "name": "STDE",
        "operator": "STDE"
      }
    },
    {
      "displayName": "Südtirol Rad",
      "id": "sudtirolrad-3d5df6",
      "locationSet": {"include": ["it"]},
      "tags": {
        "amenity": "bicycle_rental",
        "brand": "Südtirol Rad",
        "name": "Südtirol Rad",
        "operator": "Südtirol Rad"
      }
    },
    {
      "displayName": "Swapfiets",
      "id": "swapfiets-fb0cf5",
      "locationSet": {
        "include": ["be", "de", "dk", "nl"]
      },
      "tags": {
        "amenity": "bicycle_rental",
        "brand": "Swapfiets",
        "brand:wikidata": "Q62104374",
        "name": "Swapfiets",
        "operator": "Swapfiets",
        "operator:wikidata": "Q62104374"
      }
    },
    {
      "displayName": "Taipei City Government",
      "id": "taipeicitygovernment-1bb859",
      "locationSet": {"include": ["tw"]},
      "tags": {
        "amenity": "bicycle_rental",
        "brand": "Taipei City Government",
        "name": "Taipei City Government",
        "operator": "Taipei City Government"
      }
    },
    {
      "displayName": "Tembici",
      "id": "tembici-c7dd41",
      "locationSet": {"include": ["br"]},
      "tags": {
        "amenity": "bicycle_rental",
        "brand": "Tembici",
        "name": "Tembici",
        "operator": "Tembici"
      }
    },
    {
      "displayName": "TINK (Konstanz)",
      "id": "tink-937152",
      "locationSet": {"include": ["de"]},
      "tags": {
        "amenity": "bicycle_rental",
        "brand": "TINK",
        "operator": "fahrradspezialitaeten.com"
      }
    },
    {
      "displayName": "Toronto Bike Share",
      "id": "torontobikeshare-3eadaa",
      "locationSet": {"include": ["ca"]},
      "tags": {
        "amenity": "bicycle_rental",
        "brand": "Toronto Bike Share",
        "name": "Toronto Bike Share",
        "operator": "Toronto Bike Share"
      }
    },
    {
      "displayName": "Transports de l'agglomération de Montpellier",
      "id": "transportsdelagglomerationdemontpellier-d06f5d",
      "locationSet": {"include": ["fx"]},
      "tags": {
        "amenity": "bicycle_rental",
        "brand": "Transports de l'agglomération de Montpellier",
        "name": "Transports de l'agglomération de Montpellier",
        "operator": "Transports de l'agglomération de Montpellier"
      }
    },
    {
      "displayName": "Twisto",
      "id": "twisto-d06f5d",
      "locationSet": {"include": ["fx"]},
      "tags": {
        "amenity": "bicycle_rental",
        "brand": "Twisto",
        "name": "Twisto",
        "operator": "Twisto"
      }
    },
    {
      "displayName": "TWS.Rad",
      "id": "twsrad-937152",
      "locationSet": {"include": ["de"]},
      "matchNames": ["tws"],
      "tags": {
        "amenity": "bicycle_rental",
        "brand": "TWS.Rad",
        "operator": "Technische Werke Schussental",
        "operator:wikidata": "Q2399365",
        "operator:wikipedia": "de:Technische Werke Schussental"
      }
    },
    {
      "displayName": "Txik Txak",
      "id": "txiktxak-d06f5d",
      "locationSet": {"include": ["fx"]},
      "tags": {
        "amenity": "bicycle_rental",
        "brand": "Txik Txak",
        "name": "Txik Txak",
        "operator": "Txik Txak"
      }
    },
    {
      "displayName": "UFSM",
      "id": "ufsm-c7dd41",
      "locationSet": {"include": ["br"]},
      "tags": {
        "amenity": "bicycle_rental",
        "brand": "UFSM",
        "name": "UFSM",
        "operator": "UFSM"
      }
    },
    {
      "displayName": "UIP Trondheim Bysykkel AS",
      "id": "uiptrondheimbysykkelas-e79826",
      "locationSet": {"include": ["no"]},
      "tags": {
        "amenity": "bicycle_rental",
        "brand": "UIP Trondheim Bysykkel AS",
        "name": "UIP Trondheim Bysykkel AS",
        "operator": "UIP Trondheim Bysykkel AS"
      }
    },
    {
      "displayName": "Urban Infrastructure Partner AS",
      "id": "urbaninfrastructurepartneras-e79826",
      "locationSet": {"include": ["no"]},
      "tags": {
        "amenity": "bicycle_rental",
        "brand": "Urban Infrastructure Partner AS",
        "name": "Urban Infrastructure Partner AS",
        "operator": "Urban Infrastructure Partner AS"
      }
    },
    {
      "displayName": "Usedom-Rad",
      "id": "usedomrad-937152",
      "locationSet": {"include": ["de"]},
      "tags": {
        "amenity": "bicycle_rental",
        "brand": "Usedom-Rad",
        "operator": "Usedom-Rad"
      }
    },
    {
      "displayName": "UTE MuyBici servicio público de transporte con bicicleta de Murcia",
      "id": "utemuybiciserviciopublicodetransporteconbicicletademurcia-f59a8b",
      "locationSet": {"include": ["es"]},
      "tags": {
        "amenity": "bicycle_rental",
        "brand": "UTE MuyBici servicio público de transporte con bicicleta de Murcia",
        "name": "UTE MuyBici servicio público de transporte con bicicleta de Murcia",
        "operator": "UTE MuyBici servicio público de transporte con bicicleta de Murcia"
      }
    },
    {
      "displayName": "VAG Rad",
      "id": "vagrad-937152",
      "locationSet": {"include": ["de"]},
      "tags": {
        "amenity": "bicycle_rental",
        "brand": "VAG Rad",
        "brand:wikidata": "Q100455836",
        "operator": "Verkehrs-Aktiengesellschaft Nürnberg",
        "operator:wikidata": "Q1557682",
        "operator:wikipedia": "de:VAG Verkehrs-Aktiengesellschaft Nürnberg"
      }
    },
    {
      "displayName": "Velo",
      "id": "velo-18cad7",
      "locationSet": {"include": ["be"]},
      "tags": {
        "amenity": "bicycle_rental",
        "brand": "Velo",
        "name": "Velo",
        "operator": "Velo"
      }
    },
    {
      "displayName": "Velocity Aachen",
      "id": "velocityaachen-937152",
      "locationSet": {"include": ["de"]},
      "tags": {
        "amenity": "bicycle_rental",
        "brand": "Velocity Aachen",
        "brand:wikidata": "Q102348696",
        "operator": "Velocity Aachen GmbH",
        "operator:wikidata": "Q102348696"
      }
    },
    {
      "displayName": "Velogik",
      "id": "velogik-d06f5d",
      "locationSet": {"include": ["fx"]},
      "tags": {
        "amenity": "bicycle_rental",
        "brand": "Velogik",
        "name": "Velogik",
        "operator": "Velogik"
      }
    },
    {
      "displayName": "veloh",
      "id": "veloh-5de2c3",
      "locationSet": {"include": ["lu"]},
      "tags": {
        "amenity": "bicycle_rental",
        "brand": "veloh",
        "name": "veloh",
        "operator": "veloh"
      }
    },
    {
      "displayName": "Véolia",
      "id": "veolia-d06f5d",
      "locationSet": {"include": ["fx"]},
      "tags": {
        "amenity": "bicycle_rental",
        "brand": "Véolia",
        "name": "Véolia",
        "operator": "Véolia"
      }
    },
    {
      "displayName": "Villo!",
      "id": "villo-18cad7",
      "locationSet": {"include": ["be"]},
      "tags": {
        "amenity": "bicycle_rental",
        "brand": "Villo!",
        "brand:wikidata": "Q2510744",
        "brand:wikipedia": "en:Villo!",
        "name": "Villo!",
        "operator": "Villo!",
        "operator:wikidata": "Q2510744",
        "operator:wikipedia": "en:Villo!"
      }
    },
    {
      "displayName": "VRNnextbike",
      "id": "vrnnextbike-937152",
      "locationSet": {"include": ["de"]},
      "tags": {
        "amenity": "bicycle_rental",
        "brand": "VRNnextbike",
        "brand:wikidata": "Q72064021",
        "operator": "Nextbike",
        "operator:wikidata": "Q2351279",
        "operator:wikipedia": "de:Nextbike"
      }
    },
    {
      "displayName": "WhiteBikes",
      "id": "whitebikes-3e2129",
      "locationSet": {"include": ["sk"]},
      "tags": {
        "amenity": "bicycle_rental",
        "brand": "WhiteBikes",
        "name": "WhiteBikes",
        "operator": "WhiteBikes"
      }
    },
    {
      "displayName": "YouBike",
      "id": "youbike-1bb859",
      "locationSet": {"include": ["tw"]},
      "tags": {
        "amenity": "bicycle_rental",
        "brand": "YouBike",
        "name": "YouBike",
        "operator": "YouBike"
      }
    },
    {
      "displayName": "Yulu",
      "id": "yulu-6d1b20",
      "locationSet": {"include": ["in"]},
      "tags": {
        "amenity": "bicycle_rental",
        "brand": "Yulu",
        "name": "Yulu",
        "operator": "Yulu"
      }
    },
    {
      "displayName": "Zagster",
      "id": "zagster-97ea79",
      "locationSet": {"include": ["us"]},
      "tags": {
        "amenity": "bicycle_rental",
        "brand": "Zagster",
        "name": "Zagster",
        "operator": "Zagster"
      }
    },
    {
      "displayName": "АО «СитиБайк»",
      "id": "07aaae-e8a367",
      "locationSet": {"include": ["ru"]},
      "tags": {
        "amenity": "bicycle_rental",
        "brand": "АО «СитиБайк»",
        "name": "АО «СитиБайк»",
        "operator": "АО «СитиБайк»"
      }
    },
    {
      "displayName": "ТОВ \"Некстбайк Україна\"",
      "id": "8a7658-06d22c",
      "locationSet": {"include": ["001"]},
      "tags": {
        "amenity": "bicycle_rental",
        "brand": "ТОВ \"Некстбайк Україна\"",
        "name": "ТОВ \"Некстбайк Україна\"",
        "operator": "ТОВ \"Некстбайк Україна\""
      }
    },
    {
      "displayName": "بیدود",
      "id": "498ea4-41691c",
      "locationSet": {"include": ["ir"]},
      "tags": {
        "amenity": "bicycle_rental",
        "brand": "بیدود",
        "name": "بیدود",
        "operator": "بیدود"
      }
    },
    {
      "displayName": "거창군",
      "id": "95bc3b-3cba94",
      "locationSet": {"include": ["kr"]},
      "tags": {
        "amenity": "bicycle_rental",
        "brand": "거창군",
        "brand:ko": "거창군",
        "name": "거창군",
        "name:ko": "거창군",
        "operator": "거창군",
        "operator:ko": "거창군"
      }
    },
    {
      "displayName": "서울자전거 따릉이 (Seoul Bike)",
      "id": "5243ae-3cba94",
      "locationSet": {"include": ["kr"]},
      "tags": {
        "amenity": "bicycle_rental",
        "brand": "서울자전거 따릉이 (Seoul Bike)",
        "brand:ko": "서울자전거 따릉이 (Seoul Bike)",
        "name": "서울자전거 따릉이 (Seoul Bike)",
        "name:ko": "서울자전거 따릉이 (Seoul Bike)",
        "operator": "서울자전거 따릉이 (Seoul Bike)",
        "operator:ko": "서울자전거 따릉이 (Seoul Bike)"
      }
    },
    {
      "displayName": "세종도시교통공사",
      "id": "8e68a0-3cba94",
      "locationSet": {"include": ["kr"]},
      "tags": {
        "amenity": "bicycle_rental",
        "brand": "세종도시교통공사",
        "brand:ko": "세종도시교통공사",
        "name": "세종도시교통공사",
        "name:ko": "세종도시교통공사",
        "operator": "세종도시교통공사",
        "operator:ko": "세종도시교통공사"
      }
    },
    {
      "displayName": "ちよくる",
      "id": "chiyocle-813eb7",
      "locationSet": {"include": ["jp"]},
      "tags": {
        "amenity": "bicycle_rental",
        "brand": "ちよくる",
        "brand:en": "Chiyocle",
        "brand:ja": "ちよくる",
        "brand:wikidata": "Q91498542",
        "fee": "yes",
        "name": "ちよくる",
        "name:en": "Chiyocle",
        "name:ja": "ちよくる",
        "official_name": "千代田区コミュニティサイクル",
        "official_name:en": "Chiyoda City Bike Share",
        "official_name:ja": "千代田区コミュニティサイクル",
        "operator": "ちよくる",
        "operator:en": "Chiyocle",
        "operator:ja": "ちよくる",
        "operator:wikidata": "Q91498542"
      }
    },
    {
      "displayName": "ドコモ・バイクシェア",
      "id": "docomobikeshare-813eb7",
      "locationSet": {"include": ["jp"]},
      "tags": {
        "amenity": "bicycle_rental",
        "brand": "ドコモ・バイクシェア",
        "brand:en": "Docomo Bike Share",
        "brand:ja": "ドコモ・バイクシェア",
        "brand:wikidata": "Q55533296",
        "brand:wikipedia": "ja:ドコモ・バイクシェア",
        "fee": "yes",
        "name": "ドコモ・バイクシェア",
        "name:en": "Docomo Bike Share",
        "name:ja": "ドコモ・バイクシェア",
        "operator": "ドコモ・バイクシェア",
        "operator:en": "Docomo Bike Share",
        "operator:ja": "ドコモ・バイクシェア",
        "operator:wikidata": "Q55533296",
        "operator:wikipedia": "ja:ドコモ・バイクシェア"
      }
    },
    {
      "displayName": "兰州市公共自行车服务发展有限公司",
      "id": "9e905a-050a29",
      "locationSet": {"include": ["cn"]},
      "tags": {
        "amenity": "bicycle_rental",
        "brand": "兰州市公共自行车服务发展有限公司",
        "name": "兰州市公共自行车服务发展有限公司",
        "operator": "兰州市公共自行车服务发展有限公司"
      }
    },
    {
      "displayName": "北京中城永安环保科技有限公司",
      "id": "952e42-050a29",
      "locationSet": {"include": ["cn"]},
      "tags": {
        "amenity": "bicycle_rental",
        "brand": "北京中城永安环保科技有限公司",
        "name": "北京中城永安环保科技有限公司",
        "operator": "北京中城永安环保科技有限公司"
      }
    },
    {
      "displayName": "千代田区",
      "id": "2baf2c-813eb7",
      "locationSet": {"include": ["jp"]},
      "tags": {
        "amenity": "bicycle_rental",
        "brand": "千代田区",
        "name": "千代田区",
        "operator": "千代田区"
      }
    },
    {
      "displayName": "南昌公交顺道公共自行车科技有限公司",
      "id": "27d899-050a29",
      "locationSet": {"include": ["cn"]},
      "tags": {
        "amenity": "bicycle_rental",
        "brand": "南昌公交顺道公共自行车科技有限公司",
        "name": "南昌公交顺道公共自行车科技有限公司",
        "operator": "南昌公交顺道公共自行车科技有限公司"
      }
    },
    {
      "displayName": "南通永久公共自行车公司",
      "id": "947b11-050a29",
      "locationSet": {"include": ["cn"]},
      "tags": {
        "amenity": "bicycle_rental",
        "brand": "南通永久公共自行车公司",
        "name": "南通永久公共自行车公司",
        "operator": "南通永久公共自行车公司"
      }
    },
    {
      "displayName": "南通永安公共自行车公司",
      "id": "290189-050a29",
      "locationSet": {"include": ["cn"]},
      "tags": {
        "amenity": "bicycle_rental",
        "brand": "南通永安公共自行车公司",
        "name": "南通永安公共自行车公司",
        "operator": "南通永安公共自行车公司"
      }
    },
    {
      "displayName": "巨大機械工業(股)",
      "id": "1d2e94-1bb859",
      "locationSet": {"include": ["tw"]},
      "tags": {
        "amenity": "bicycle_rental",
        "brand": "巨大機械工業(股)",
        "name": "巨大機械工業(股)",
        "operator": "巨大機械工業(股)"
      }
    },
    {
      "displayName": "微笑單車股份有限公司",
      "id": "cca95e-1bb859",
      "locationSet": {"include": ["tw"]},
      "tags": {
        "amenity": "bicycle_rental",
        "brand": "微笑單車股份有限公司",
        "name": "微笑單車股份有限公司",
        "operator": "微笑單車股份有限公司"
      }
    },
    {
      "displayName": "新竹市政府",
      "id": "c3cef6-1bb859",
      "locationSet": {"include": ["tw"]},
      "tags": {
        "amenity": "bicycle_rental",
        "brand": "新竹市政府",
        "name": "新竹市政府",
        "operator": "新竹市政府"
      }
    },
    {
      "displayName": "株式会社 日本海コンサルタント",
      "id": "544898-813eb7",
      "locationSet": {"include": ["jp"]},
      "tags": {
        "amenity": "bicycle_rental",
        "brand": "株式会社 日本海コンサルタント",
        "brand:ja": "株式会社 日本海コンサルタント",
        "name": "株式会社 日本海コンサルタント",
        "name:ja": "株式会社 日本海コンサルタント",
        "operator": "株式会社 日本海コンサルタント",
        "operator:ja": "株式会社 日本海コンサルタント"
      }
    },
    {
      "displayName": "株式会社ドコモバイクシェア",
      "id": "83422f-813eb7",
      "locationSet": {"include": ["jp"]},
      "tags": {
        "amenity": "bicycle_rental",
        "brand": "株式会社ドコモバイクシェア",
        "brand:ja": "株式会社ドコモバイクシェア",
        "name": "株式会社ドコモバイクシェア",
        "name:ja": "株式会社ドコモバイクシェア",
        "operator": "株式会社ドコモバイクシェア",
        "operator:ja": "株式会社ドコモバイクシェア"
      }
    },
    {
      "displayName": "永安行",
      "id": "196a11-050a29",
      "locationSet": {"include": ["cn"]},
      "tags": {
        "amenity": "bicycle_rental",
        "brand": "永安行",
        "name": "永安行",
        "operator": "永安行"
      }
    },
    {
      "displayName": "永安行科技股份有限公司昌邑分公司",
      "id": "3c28c4-050a29",
      "locationSet": {"include": ["cn"]},
      "tags": {
        "amenity": "bicycle_rental",
        "brand": "永安行科技股份有限公司昌邑分公司",
        "name": "永安行科技股份有限公司昌邑分公司",
        "operator": "永安行科技股份有限公司昌邑分公司"
      }
    },
    {
      "displayName": "臺北市政府 Taipei City Government",
      "id": "38a820-1bb859",
      "locationSet": {"include": ["tw"]},
      "tags": {
        "amenity": "bicycle_rental",
        "brand": "臺北市政府 Taipei City Government",
        "name": "臺北市政府 Taipei City Government",
        "operator": "臺北市政府 Taipei City Government"
      }
    },
    {
      "displayName": "臺南市政府交通局",
      "id": "f525fd-1bb859",
      "locationSet": {"include": ["tw"]},
      "tags": {
        "amenity": "bicycle_rental",
        "brand": "臺南市政府交通局",
        "name": "臺南市政府交通局",
        "operator": "臺南市政府交通局"
      }
    },
    {
      "displayName": "苏州东大金点物联科技有限公司",
      "id": "e28ae7-050a29",
      "locationSet": {"include": ["cn"]},
      "tags": {
        "amenity": "bicycle_rental",
        "brand": "苏州东大金点物联科技有限公司",
        "name": "苏州东大金点物联科技有限公司",
        "operator": "苏州东大金点物联科技有限公司"
      }
    },
    {
      "displayName": "金門縣政府",
      "id": "af5935-1bb859",
      "locationSet": {"include": ["tw"]},
      "tags": {
        "amenity": "bicycle_rental",
        "brand": "金門縣政府",
        "name": "金門縣政府",
        "operator": "金門縣政府"
      }
    },
    {
      "displayName": "高雄捷運股份有限公司",
      "id": "6f1ece-1bb859",
      "locationSet": {"include": ["tw"]},
      "tags": {
        "amenity": "bicycle_rental",
        "brand": "高雄捷運股份有限公司",
        "name": "高雄捷運股份有限公司",
        "operator": "高雄捷運股份有限公司"
      }
    }
  ]
}
