{
  "properties": {
    "path": "brands/amenity/car_sharing",
    "skipCollection": true,
    "exclude": {"generic": ["^car sharing$"]}
  },
  "items": [
    {
      "displayName": "Stadtmobil Berlin",
      "id": "stadtmobilHannover-088af7",
      "locationSet": {
          "include": ["stadtmobil-berlin.geojson"]
      },
      "matchNames": [
        "stadtmobil"
      ],
      "tags": {
        "amenity": "car_sharing",
        "brand": "Stadtmobil",
        "brand:wikidata": "Q2327629",
        "brand:wikipedia": "de:Stadtmobil",
        "network": "Stadtmobil Berlin",
        "operator": "Stadtmobil Berlin GmbH"
      }
    },
    {
      "displayName": "Stadtmobil Hannover",
      "id": "stadtmobilHannover-088af7",
      "locationSet": {
          "include": ["stadtmobil-hannover.geojson"]
      },
      "matchNames": [
        "stadtmobil"
      ],
      "tags": {
        "amenity": "car_sharing",
        "brand": "Stadtmobil",
        "brand:wikidata": "Q2327629",
        "brand:wikipedia": "de:Stadtmobil",
        "network": "Stadtmobil Hannover",
        "operator": "Stadtmobil Hannover GmbH"
      }
    },
    {
      "displayName": "Stadtmobil Karlsruhe",
      "id": "stadtmobilKarlsruhe-088af7",
      "locationSet": {
          "include": ["stadtmobil-karlsruhe.geojson"]
      },
      "matchNames": [
        "stadtmobil"
      ],
      "tags": {
        "amenity": "car_sharing",
        "brand": "Stadtmobil",
        "brand:wikidata": "Q2327629",
        "brand:wikipedia": "de:Stadtmobil",
        "network": "Stadtmobil Karlsruhe",
        "operator": "Stadtmobil Carsharing GmbH & Co. KG",
      }
    },
    {
      "displayName": "Stadtmobil Rhein-Main",
      "id": "stadtmobilRheinMain-088af7",
      "locationSet": {
          "include": ["stadtmobil-rhein-main.geojson"]
      },
      "matchNames": [
        "stadtmobil"
      ],
      "tags": {
        "amenity": "car_sharing",
        "brand": "Stadtmobil",
        "brand:wikidata": "Q2327629",
        "brand:wikipedia": "de:Stadtmobil",
        "network": "stadtmobil Rhein-Main",
        "operator": "stadtmobil Rhein-Main GmbH"
      }
    },
    {
      "displayName": "Stadtmobil Rhein-Neckar",
      "id": "stadtmobilRheinNeckar-088af7",
      "locationSet": {
          "include": ["stadtmobil-rhein-neckar.geojson"]
      },
      "matchNames": [
        "stadtmobil"
      ],
      "tags": {
        "amenity": "car_sharing",
        "brand": "Stadtmobil",
        "brand:wikidata": "Q2327629",
        "brand:wikipedia": "de:Stadtmobil",
        "network": "Stadtmobil Rhein-Neckar",
        "operator": "Stadtmobil Rhein-Neckar AG"
      }
    },
    {
      "displayName": "Stadtmobil Rhein-Ruhr",
      "id": "stadtmobilKarlsruhe-088af7",
      "locationSet": {
          "include": ["stadtmobil-rhein-ruhr.geojson"]
      },
      "matchNames": [
        "stadtmobil"
      ],
      "tags": {
        "amenity": "car_sharing",
        "brand": "Stadtmobil",
        "brand:wikidata": "Q2327629",
        "brand:wikipedia": "de:Stadtmobil",
        "network": "Stadtmobil Rhein-Ruhr",
        "operator": "Stadtmobil Rhein-Ruhr GmbH"
      }
    },
    {
      "displayName": "Stadtmobil Stuttgart",
      "id": "stadtmobilStuttgart-088af7",
      "locationSet": {
          "include": ["stadtmobil-stuttgart.geojson"]
      },
      "matchNames": [
        "stadtmobil"
      ],
      "tags": {
        "amenity": "car_sharing",
        "brand": "Stadtmobil",
        "brand:wikidata": "Q2327629",
        "brand:wikipedia": "de:Stadtmobil",
        "network": "Stadtmobil Stuttgart",
        "operator": "stadtmobil carsharing AG"
      }
    },
    {
      "displayName": "Stadtmobil Trier",
      "id": "stadtmobilStuttgart-088af7",
      "locationSet": {
          "include": ["stadtmobil-trier.geojson"]
      },
      "matchNames": [
        "stadtmobil"
      ],
      "tags": {
        "amenity": "car_sharing",
        "brand": "Stadtmobil",
        "brand:wikidata": "Q2327629",
        "brand:wikipedia": "de:Stadtmobil",
        "network": "Stadtmobil Trier",
        "operator": "stadtmobil Trier"
      }
    },
    {
      "displayName": "Stadtmobil Südbaden",
      "id": "stadtmobilSüdbaden-088af7",
      "locationSet": {
          "include": ["stadtmobil-suedbaden.geojson"]
      },
      "matchNames": [
        "stadtmobil"
      ],
      "tags": {
        "amenity": "car_sharing",
        "brand": "Stadtmobil Südbaden",
        "brand:wikidata": "Q109423604",
        "network": "Stadtmobil Südbaden",
        "operator": "Stadtmobil Südbaden AG"
      }
    }
  ]
}
