{
  "properties": {
    "path": "brands/amenity/charging_station",
    "skipCollection": true,
    "preserveTags": ["^name"],
    "exclude": {"generic": ["^charging station$"]}
  },
  "items": [
    {
      "displayName": "Tesla Destination Charger",
      "id": "tesladestinationcharger-4bd82e",
      "locationSet": {"include": ["001"]},
      "tags": {
        "amenity": "charging_station",
        "brand": "Tesla, Inc.",
        "brand:wikidata": "Q478214",
        "brand:wikipedia": "en:Tesla, Inc.",
        "name": "Tesla Destination Charger",
        "short_name": "Tesla"
      }
    },
    {
      "displayName": "Tesla Supercharger",
      "id": "teslasupercharger-4bd82e",
      "locationSet": {"include": ["001"]},
      "matchNames": [
        "tesla motors",
        "tesla motors inc",
        "特斯拉超级充电桩",
        "特斯拉超级充电站"
      ],
      "tags": {
        "amenity": "charging_station",
        "brand": "Tesla Supercharger",
        "brand:wikidata": "Q17089620",
        "brand:wikipedia": "en:Tesla Supercharger",
        "name": "Tesla Supercharger",
        "operator": "Tesla, Inc.",
        "operator:wikidata": "Q478214",
        "operator:wikipedia": "en:Tesla, Inc.",
        "short_name": "Tesla"
      }
    },
    {
      "displayName": "Eviny",
      "id": "eviny-476d58",
      "locationSet": {"include": ["no"]},
      "matchNames": ["bkk"],
      "tags": {
        "amenity": "charging_station",
        "brand": "Eviny",
        "brand:wikidata": "Q4891601",
        "brand:wikipedia": "no:Eviny",
        "name": "Eviny",
        "operator": "Eviny",
        "operator:wikidata": "Q4891601",
        "operator:wikipedia": "no:Eviny"
      }
    },
    {
      "displayName": "Ionity",
      "id": "ionity-7f623e",
      "locationSet": {"include": ["150"]},
      "matchNames": ["ionity gmbh"],
      "tags": {
        "amenity": "charging_station",
        "operator": "Ionity",
        "operator:wikidata": "Q42717773",
        "operator:wikipedia": "en:IONITY",
        "brand": "Ionity",
        "brand:wikidata": "Q42717773",
        "brand:wikipedia": "en:IONITY"
      }
    },
    {
      "displayName": "Mer",
      "id": "mer-476d58",
      "locationSet": {"include": ["no", "se", "gb", "de"]},
      "matchNames": ["Grønn kontakt", "gronn kontakt", "eeMobility", "eemobility gmbh", "bee", "bee charging solutions"],
      "tags": {
        "amenity": "charging_station",
        "brand": "Mer",
        "brand:wikidata": "Q100821564",
        "name": "Mer",
        "operator": "Mer",
        "operator:wikidata": "Q100821564"
      }
    },
    {
      "displayName": "Recharge",
      "id": "recharge-476d58",
      "matchNames": ["recharge charge & drive", "fortum", "fortum charge & drive"],
      "locationSet": {"include": ["no", "fi", "se"]},
      "tags": {
        "amenity": "charging_station",
        "operator": "Recharge",
        "brand": "Recharge",
        "name": "Recharge"
      }
    }
  ]
}
