{
  "properties": {
    "path": "brands/amenity/parcel_locker",
    "exclude": {"generic": ["^parcel locker$"]}
  },
  "items": [
    {
      "displayName": "AlzaBox",
      "id": "alzabox-bee63b",
      "locationSet": {
        "include": ["at", "cz", "hu", "sk"]
      },
      "tags": {
        "amenity": "parcel_locker",
        "brand": "AlzaBox",
        "brand:wikidata": "Q10786832",
        "brand:wikipedia": "de:Alza",
        "name": "AlzaBox"
      }
    },
    {
      "displayName": "Amazon Hub Locker",
      "id": "amazonhublocker-f85b1f",
      "locationSet": {
        "include": ["001"],
        "exclude": ["cn", "jp"]
      },
      "matchNames": ["amazon", "amazon locker"],
      "preserveTags": ["^name"],
      "tags": {
        "amenity": "parcel_locker",
        "brand": "Amazon Hub",
        "brand:wikidata": "Q16974764",
        "brand:wikipedia": "en:Amazon Locker",
        "name": "Amazon Hub Locker",
        "parcel_mail_in": "yes"
      }
    },
    {
      "displayName": "Amazon Hub ロッカー",
      "id": "amazonhublocker-5c1de3",
      "locationSet": {"include": ["jp"]},
      "matchNames": [
        "amazon ロッカー",
        "アマゾン・ハブ・ロッカー"
      ],
      "preserveTags": ["^name"],
      "tags": {
        "amenity": "parcel_locker",
        "brand": "Amazon Hub ロッカー",
        "brand:en": "Amazon Hub Locker",
        "brand:ja": "Amazon Hub ロッカー",
        "brand:wikidata": "Q16974764",
        "brand:wikipedia": "ja:Amazonロッカー",
        "name": "Amazon Hub ロッカー",
        "name:en": "Amazon Hub Locker",
        "name:ja": "Amazon Hub ロッカー"
      }
    },
    {
      "displayName": "Australia Post Parcel Locker",
      "id": "australiapostparcellocker-a2f344",
      "locationSet": {"include": ["au"]},
      "tags": {
        "amenity": "parcel_locker",
        "brand": "Australia Post",
        "brand:wikidata": "Q1142936",
        "brand:wikipedia": "en:Australia Post",
        "name": "Australia Post Parcel Locker"
      }
    },
    {
      "displayName": "BalíkoBOX",
      "id": "balikobox-cda9c4",
      "locationSet": {"include": ["sk"]},
      "tags": {
        "amenity": "parcel_locker",
        "brand": "BalíkoBOX",
        "brand:wikidata": "Q1191849",
        "brand:wikipedia": "en:Slovenská pošta",
        "name": "BalíkoBOX",
        "parcel_mail_in": "yes"
      }
    },
    {
      "displayName": "DHL Packstation",
      "id": "dhlpackstation-83cc4d",
      "locationSet": {"include": ["de"]},
      "matchNames": ["packstation"],
      "tags": {
        "amenity": "parcel_locker",
        "brand": "DHL Packstation",
        "brand:wikidata": "Q1766703",
        "brand:wikipedia": "de:Packstation",
        "operator": "DHL",
        "operator:wikidata": "Q489815",
        "operator:wikipedia": "de:DHL",
        "parcel_mail_in": "yes"
      }
    },
    {
      "displayName": "Foxpost",
      "id": "foxpost-68603c",
      "locationSet": {"include": ["hu"]},
      "tags": {
        "amenity": "parcel_locker",
        "brand": "Foxpost",
        "name": "Foxpost"
      }
    },
    {
      "displayName": "GLS Parcel Locker",
      "id": "glsparcellocker-6a219a",
      "locationSet": {"include": ["001"]},
      "tags": {
        "amenity": "parcel_locker",
        "brand": "GLS",
        "brand:wikidata": "Q366182",
        "brand:wikipedia": "en:GLS Group",
        "name": "GLS Parcel Locker"
      }
    },
    {
      "displayName": "Ozon Box",
      "id": "ozonbox-c00268",
      "locationSet": {"include": ["ru"]},
      "matchNames": ["постамат ozon box"],
      "matchTags": ["amenity/post_box"],
      "tags": {
        "amenity": "parcel_locker",
        "brand": "Ozon Box",
        "brand:wikidata": "Q2365235",
        "brand:wikipedia": "ru:Ozon",
        "name": "Ozon Box"
      }
    },
    {
      "displayName": "Paczkomat InPost",
      "id": "paczkomatinpost-ce4e28",
      "locationSet": {"include": ["pl"]},
      "tags": {
        "amenity": "parcel_locker",
        "brand": "InPost",
        "brand:wikidata": "Q3182097",
        "brand:wikipedia": "pl:InPost",
        "name": "Paczkomat InPost",
        "parcel_mail_in": "yes"
      }
    },
    {
      "displayName": "PickPoint",
      "id": "pickpoint-c00268",
      "locationSet": {"include": ["ru"]},
      "tags": {
        "amenity": "parcel_locker",
        "brand": "PickPoint",
        "brand:wikidata": "Q110276197",
        "name": "PickPoint"
      }
    },
    {
      "displayName": "POST PackUp",
      "id": "packup-f54db3",
      "locationSet": {"include": ["lu"]},
      "tags": {
        "amenity": "parcel_locker",
        "brand": "POST Luxembourg",
        "brand:wikidata": "Q1570910",
        "brand:wikipedia": "lb:Post Luxembourg",
        "name": "PackUp",
        "operator": "POST Luxembourg",
        "parcel_mail_in": "yes"
      }
    },
    {
      "displayName": "PUDOステーション",
      "id": "pudostation-5c1de3",
      "locationSet": {"include": ["jp"]},
      "matchTags": ["amenity/post_box"],
      "tags": {
        "alt_name": "プドー・ステーション",
        "amenity": "parcel_locker",
        "brand": "プドー",
        "brand:en": "PUDO",
        "brand:ja": "プドー",
        "brand:wikidata": "Q86738066",
        "brand:wikipedia": "ja:Packcity Japan",
        "name": "PUDOステーション",
        "name:en": "PUDO Station",
        "name:ja": "PUDOステーション"
      }
    },
    {
      "displayName": "Smartpost",
      "id": "smartpost-0b87cc",
      "locationSet": {"include": ["fi"]},
      "matchTags": ["amenity/post_box"],
      "tags": {
        "amenity": "parcel_locker",
        "brand": "Smartpost",
        "brand:wikidata": "Q7543889",
        "brand:wikipedia": "fi:Smartpost",
        "name": "Smartpost",
        "parcel_mail_in": "yes"
      }
    },
    {
      "displayName": "ОмниСДЭК",
      "id": "omnicdek-c00268",
      "locationSet": {"include": ["ru"]},
      "tags": {
        "amenity": "parcel_locker",
        "brand": "ОмниСДЭК",
        "brand:en": "OmniCEDK",
        "brand:ru": "ОмниСДЭК",
        "brand:wikidata": "Q110240113",
        "name": "ОмниСДЭК",
        "name:en": "OmniCDEK",
        "name:ru": "ОмниСДЭК"
      }
    },
    {
      "displayName": "Продуктомат Утконос",
      "id": "fe7623-c00268",
      "locationSet": {"include": ["ru"]},
      "tags": {
        "amenity": "parcel_locker",
        "brand": "Продуктомат Утконос",
        "name": "Продуктомат Утконос"
      }
    },
    {
      "displayName": "はこぽす",
      "id": "hakopost-5c1de3",
      "locationSet": {"include": ["jp"]},
      "matchTags": ["amenity/post_box"],
      "tags": {
        "amenity": "parcel_locker",
        "brand": "はこぽす",
        "brand:en": "Hakopost",
        "brand:ja": "はこぽす",
        "brand:wikidata": "Q11509261",
        "brand:wikipedia": "ja:日本郵便輸送",
        "name": "はこぽす",
        "name:en": "Hakopost",
        "name:ja": "はこぽす"
      }
    },
    {
      "displayName": "Еконтомат",
      "locationSet": {"include": ["bg"]},
      "tags": {
        "amenity": "parcel_locker",
        "brand": "Еконт",
        "brand:wikidata": "Q12279603",
        "name": "Еконт",
        "name:en": "Econt",
        "alt_name": "Еконтомат",
        "alt_name:en": "Econtomat",
        "parcel_mail_in": "yes"
      }
    },
    {
      "displayName": "Speedy",
      "locationSet": {"include": ["bg"]},
      "tags": {
        "amenity": "parcel_locker",
        "brand": "Speedy",
        "brand:wikidata": "Q541030",
        "brand:wikipedia": "en:DPDgroup",
        "name": "Speedy",
        "parcel_mail_in": "yes"
      }
    }
  ]
}
