{
  "properties": {
    "path": "brands/amenity/payment_terminal",
    "exclude": {"generic": ["^payment terminal$"]}
  },
  "items": [
    {
      "displayName": "BottleDrop Plus",
      "id": "bottledropplus-8dd7cb",
      "locationSet": {"include": ["us"]},
      "tags": {
        "amenity": "payment_terminal",
        "brand": "BottleDrop",
        "brand:wikidata": "Q107673127",
        "name": "BottleDrop Plus",
        "note": "BottleDrop Plus is a fund withdrawal kiosk. For recycling centres, use BottleDrop or BottleDrop Express"
      }
    },
    {
      "displayName": "Coinstar",
      "id": "coinstar-8dd7cb",
      "locationSet": {
        "include": [
          "ca",
          "de",
          "es",
          "fr",
          "gb",
          "ie",
          "it",
          "jp",
          "us"
        ]
      },
      "matchTags": ["amenity/vending_machine"],
      "tags": {
        "amenity": "payment_terminal",
        "brand": "Coinstar",
        "brand:wikidata": "Q5141641",
        "brand:wikipedia": "en:Coinstar",
        "name": "Coinstar"
      }
    },
    {
      "displayName": "krasplat",
      "id": "krasplat-e97c8f",
      "locationSet": {"include": ["001"]},
      "tags": {
        "amenity": "payment_terminal",
        "brand": "krasplat",
        "name": "krasplat"
      }
    },
    {
      "displayName": "Qiwi",
      "id": "qiwi-e1a7cd",
      "locationSet": {"include": ["ru"]},
      "tags": {
        "amenity": "payment_terminal",
        "brand": "Qiwi",
        "brand:wikidata": "Q4047736",
        "brand:wikipedia": "en:Qiwi",
        "name": "Qiwi"
      }
    },
    {
      "displayName": "ПриватБанк",
      "id": "658548-73846e",
      "locationSet": {"include": ["ua"]},
      "tags": {
        "amenity": "payment_terminal",
        "brand": "ПриватБанк",
        "brand:wikidata": "Q1515015",
        "brand:wikipedia": "en:PrivatBank",
        "name": "ПриватБанк"
      }
    },
    {
      "displayName": "Сбербанк",
      "id": "fdcab6-e97c8f",
      "locationSet": {"include": ["001"]},
      "tags": {
        "amenity": "payment_terminal",
        "brand": "Сбербанк",
        "name": "Сбербанк"
      }
    },
    {
      "displayName": "Элекснет",
      "id": "de4add-e1a7cd",
      "locationSet": {"include": ["ru"]},
      "tags": {
        "amenity": "payment_terminal",
        "brand": "Элекснет",
        "brand:wikidata": "Q4530795",
        "brand:wikipedia": "ru:Элекснет",
        "name": "Элекснет"
      }
    }
  ]
}
