{
  "properties": {
    "path": "brands/amenity/payment_centre",
    "exclude": {"generic": ["^payment centre$"]}
  },
  "items": [
    {
      "displayName": "Abitab",
      "id": "abitab-80cf76",
      "locationSet": {"include": ["uy"]},
      "matchTags": ["amenity/bureau_de_change"],
      "tags": {
        "amenity": "payment_centre",
        "brand": "Abitab",
        "brand:wikidata": "Q16488129",
        "brand:wikipedia": "es:Abitab",
        "name": "Abitab"
      }
    },
    {
      "displayName": "N Kolay",
      "id": "nkolay-18647a",
      "locationSet": {"include": ["tr"]},
      "tags": {
        "amenity": "payment_centre",
        "brand": "N Kolay",
        "brand:wikidata": "Q106802151",
        "name": "N Kolay"
      }
    },
    {
      "displayName": "Pago Fácil",
      "id": "pagofacil-8bbf0d",
      "locationSet": {"include": ["ar"]},
      "tags": {
        "amenity": "payment_centre",
        "brand": "Pago Fácil",
        "name": "Pago Fácil"
      }
    },
    {
      "displayName": "Rapipago",
      "id": "rapipago-8bbf0d",
      "locationSet": {"include": ["ar"]},
      "tags": {
        "amenity": "payment_centre",
        "brand": "Rapipago",
        "brand:wikidata": "Q6100413",
        "brand:wikipedia": "es:Rapipago",
        "name": "Rapipago"
      }
    },
    {
      "displayName": "EasyPay",
      "locationSet": {"include": ["bg"]},
      "matchNames": ["Easy Pay", "Изипей", "Изи пей"],
      "tags": {
        "amenity": "payment_centre",
        "brand": "EasyPay",
        "brand:wikidata": "Q110583289",
        "name": "EasyPay",
        "alt_name": "Easy Pay"
      }
    },
    {
      "displayName": "FastPay",
      "locationSet": {"include": ["bg"]},
      "tags": {
        "amenity": "payment_centre",
        "brand": "FastPay",
        "brand:wikidata": "Q110583280",
        "name": "FastPay",
        "alt_name": "Fast Pay",
        "name:bg": "Фастпей",
        "alt_name:bg": "Фаст пей",
        "amenity": "payment_centre"
      }
    }
  ]
}
