{
  "properties": {
    "path": "brands/amenity/post_depot",
    "preserveTags": ["^name"],
    "exclude": {"generic": ["^post depot$"]}
  },
  "items": [
    {
      "displayName": "Amazon",
      "id": "amazon-2083a7",
      "locationSet": {"include": ["001"]},
      "tags": {
        "amenity": "post_depot",
        "brand": "Amazon",
        "brand:wikidata": "Q3884",
        "brand:wikipedia": "en:Amazon (company)",
        "operator:type": "private"
      }
    },
    {
      "displayName": "An Post",
      "id": "anpost-a3e698",
      "locationSet": {"include": ["ie"]},
      "tags": {
        "amenity": "post_depot",
        "brand": "An Post",
        "brand:wikidata": "Q482490",
        "brand:wikipedia": "en:An Post",
        "name": "An Post",
        "operator:type": "public"
      }
    },
    {
      "displayName": "Canada Post",
      "id": "canadapost-3d79d0",
      "locationSet": {
        "include": ["ca"],
        "exclude": ["quebec.geojson"]
      },
      "tags": {
        "amenity": "post_depot",
        "brand": "Canada Post",
        "brand:wikidata": "Q1032001",
        "brand:wikipedia": "en:Canada Post",
        "operator:type": "public"
      }
    },
    {
      "displayName": "Deutsche Post",
      "id": "deutschepost-5ac2d1",
      "locationSet": {"include": ["de"]},
      "matchNames": ["deutsche post ag"],
      "tags": {
        "amenity": "post_depot",
        "brand": "Deutsche Post",
        "brand:wikidata": "Q157645",
        "brand:wikipedia": "de:Deutsche Post AG",
        "name": "Deutsche Post",
        "operator:type": "private"
      }
    },
    {
      "displayName": "DHL",
      "id": "dhl-2083a7",
      "locationSet": {"include": ["001"]},
      "tags": {
        "amenity": "post_depot",
        "brand": "DHL",
        "brand:wikidata": "Q489815",
        "brand:wikipedia": "de:DHL",
        "name": "DHL",
        "operator:type": "private"
      }
    },
    {
      "displayName": "DPD",
      "id": "dpd-2083a7",
      "locationSet": {"include": ["001"]},
      "matchNames": [
        "dpd dynamic parcel distribution"
      ],
      "tags": {
        "amenity": "post_depot",
        "brand": "DPD",
        "brand:wikidata": "Q541030",
        "brand:wikipedia": "de:DPDgroup",
        "name": "DPD",
        "operator:type": "private"
      }
    },
    {
      "displayName": "FedEx",
      "id": "fedex-2083a7",
      "locationSet": {"include": ["001"]},
      "matchNames": ["federal express"],
      "tags": {
        "amenity": "post_depot",
        "brand": "FedEx",
        "brand:wikidata": "Q459477",
        "brand:wikipedia": "en:FedEx",
        "operator:type": "private"
      }
    },
    {
      "displayName": "La Poste",
      "id": "laposte-fee54d",
      "locationSet": {"include": ["fr"]},
      "tags": {
        "amenity": "post_depot",
        "brand": "La Poste",
        "brand:wikidata": "Q373724",
        "brand:wikipedia": "fr:La Poste (entreprise fran√ßaise)",
        "name": "La Poste",
        "operator:type": "public"
      }
    },
    {
      "displayName": "Royal Mail",
      "id": "royalmail-d5dfdd",
      "locationSet": {"include": ["gb"]},
      "tags": {
        "amenity": "post_depot",
        "brand": "Royal Mail",
        "brand:wikidata": "Q638098",
        "brand:wikipedia": "en:Royal Mail",
        "name": "Royal Mail",
        "operator:type": "private"
      }
    },
    {
      "displayName": "United States Postal Service",
      "id": "unitedstatespostalservice-4af266",
      "locationSet": {"include": ["us"]},
      "tags": {
        "amenity": "post_depot",
        "brand": "United States Postal Service",
        "brand:wikidata": "Q668687",
        "brand:wikipedia": "en:United States Postal Service",
        "operator:type": "public",
        "short_name": "USPS"
      }
    },
    {
      "displayName": "UPS",
      "id": "ups-2083a7",
      "locationSet": {"include": ["001"]},
      "matchNames": ["united parcel service"],
      "tags": {
        "amenity": "post_depot",
        "brand": "UPS",
        "brand:wikidata": "Q155026",
        "brand:wikipedia": "en:United Parcel Service",
        "operator:type": "private"
      }
    },
    {
      "displayName": "Yodel",
      "id": "yodel-d5dfdd",
      "locationSet": {"include": ["gb"]},
      "matchNames": [
        "hdn",
        "home delivery network"
      ],
      "tags": {
        "amenity": "post_depot",
        "brand": "Yodel",
        "brand:wikidata": "Q17020712",
        "brand:wikipedia": "en:Yodel (company)",
        "name": "Yodel",
        "operator:type": "private"
      }
    }
  ]
}
