{
  "properties": {
    "path": "brands/amenity/post_office",
    "preserveTags": ["^name"],
    "exclude": {
      "generic": [
        "^(agencja pocztowa|ufficio postale|urząd pocztowy)$",
        "^(briefkasten|bureau de poste|correo)$",
        "^kantor( pos)?$",
        "^po[sš]t[aeo]$",
        "^post\\s?(agentur|filiale|office|partner|stelle)?$",
        "^главпочтамт|еконт$",
        "^по(чт|шт|щ)а$",
        "^почтовое отделение$",
        "^اداره پست$",
        "^مكتب البريد$",
        "^郵局$"
      ],
      "named": [
        "^(co-?op( food)?|(the )?co-?operative( food)?)$",
        "^(costcutter|londis|mccoll'?s|one stop|premier( stores)?|spar|whsmith)$"
      ]
    }
  },
  "items": [
    {
      "displayName": "4-72",
      "id": "472-722495",
      "locationSet": {"include": ["co"]},
      "matchNames": [
        "servicios postales nacionales s.a."
      ],
      "tags": {
        "amenity": "post_office",
        "brand": "4-72",
        "brand:wikidata": "Q85800448",
        "brand:wikipedia": "es:4-72",
        "official_name": "Servicios Postales Nacionales"
      }
    },
    {
      "displayName": "Aerocav C.A",
      "id": "aerocavca-9c0fbc",
      "locationSet": {"include": ["ve"]},
      "tags": {
        "amenity": "post_office",
        "brand": "Aerocav C.A"
      }
    },
    {
      "displayName": "Agence Communale",
      "id": "agencecommunale-27cb18",
      "locationSet": {"include": ["001"]},
      "tags": {
        "amenity": "post_office",
        "brand": "Agence Communale",
        "name": "Agence Communale"
      }
    },
    {
      "displayName": "Agence Postale",
      "id": "agencepostale-27cb18",
      "locationSet": {"include": ["001"]},
      "tags": {
        "amenity": "post_office",
        "brand": "Agence Postale",
        "name": "Agence Postale"
      }
    },
    {
      "displayName": "Algérie Poste",
      "id": "algerieposte-90ab15",
      "locationSet": {"include": ["dz"]},
      "tags": {
        "amenity": "post_office",
        "brand": "Algérie Poste",
        "brand:ar": "بريد الجزائر",
        "brand:fr": "Algérie Poste",
        "brand:wikidata": "Q2836029",
        "brand:wikipedia": "fr:Algérie Poste"
      }
    },
    {
      "displayName": "An Post",
      "id": "anpost-6616e3",
      "locationSet": {"include": ["ie"]},
      "tags": {
        "amenity": "post_office",
        "brand": "An Post",
        "brand:wikidata": "Q482490",
        "brand:wikipedia": "en:An Post"
      }
    },
    {
      "displayName": "Aras Kargo",
      "id": "araskargo-d7f31b",
      "locationSet": {"include": ["tr"]},
      "tags": {
        "amenity": "post_office",
        "brand": "Aras Kargo",
        "brand:wikidata": "Q6094691",
        "brand:wikipedia": "tr:Aras Kargo"
      }
    },
    {
      "displayName": "Australia Post",
      "id": "australiapost-f90efe",
      "locationSet": {"include": ["au"]},
      "matchNames": ["aust post"],
      "tags": {
        "amenity": "post_office",
        "brand": "Australia Post",
        "brand:wikidata": "Q1142936",
        "brand:wikipedia": "en:Australia Post"
      }
    },
    {
      "displayName": "Azerpost",
      "id": "azerpost-256460",
      "locationSet": {"include": ["az"]},
      "tags": {
        "amenity": "post_office",
        "brand": "Azerpost",
        "brand:wikidata": "Q2660860",
        "brand:wikipedia": "en:Azərpoçt"
      }
    },
    {
      "displayName": "Barid Al-Maghrib",
      "id": "postemaroc-88c873",
      "locationSet": {"include": ["ma"]},
      "matchNames": [
        "barid al maghrib بريد المغرب"
      ],
      "tags": {
        "alt_name": "Barid Al-Maghrib",
        "alt_name:ar": "بريد المغرب",
        "alt_name:fr": "Barid Al-Maghrib",
        "amenity": "post_office",
        "brand": "Poste Maroc",
        "brand:wikidata": "Q3399778",
        "brand:wikipedia": "fr:Poste Maroc"
      }
    },
    {
      "displayName": "Best Express",
      "id": "bestexpress-047f43",
      "locationSet": {
        "include": ["in", "my", "sg", "th"],
        "exclude": ["cn"]
      },
      "tags": {
        "amenity": "post_office",
        "brand": "Best Express",
        "brand:en": "Best Express",
        "brand:wikidata": "Q22099540",
        "brand:wikipedia": "zh:百世快递",
        "brand:zh": "百世快递"
      }
    },
    {
      "displayName": "bpost",
      "id": "bpost-c2be3f",
      "locationSet": {"include": ["be"]},
      "tags": {
        "amenity": "post_office",
        "brand": "bpost",
        "brand:wikidata": "Q740553",
        "brand:wikipedia": "de:Bpost"
      }
    },
    {
      "displayName": "Canada Post",
      "id": "canadapost-3fd8fc",
      "locationSet": {
        "include": ["ca"],
        "exclude": ["quebec.geojson"]
      },
      "matchNames": ["canada post/ poste canada"],
      "tags": {
        "amenity": "post_office",
        "brand": "Canada Post",
        "brand:wikidata": "Q1032001",
        "brand:wikipedia": "en:Canada Post"
      }
    },
    {
      "displayName": "Cargus",
      "id": "cargus-8b52d3",
      "locationSet": {"include": ["ro"]},
      "tags": {
        "amenity": "post_office",
        "brand": "Cargus",
        "brand:wikidata": "Q12723442",
        "brand:wikipedia": "ro:Urgent Cargus"
      }
    },
    {
      "displayName": "CDEK",
      "id": "cdek-27cb18",
      "locationSet": {"include": ["001"]},
      "tags": {
        "amenity": "post_office",
        "brand": "CDEK",
        "name": "CDEK"
      }
    },
    {
      "displayName": "Česká pošta",
      "id": "ceskaposta-024a94",
      "locationSet": {"include": ["cz"]},
      "matchNames": ["česká pošta sp"],
      "tags": {
        "amenity": "post_office",
        "brand": "Česká pošta",
        "brand:wikidata": "Q341090",
        "brand:wikipedia": "cz:Česká pošta"
      }
    },
    {
      "displayName": "Chilexpress",
      "id": "chilexpress-6d6687",
      "locationSet": {"include": ["cl"]},
      "tags": {
        "amenity": "post_office",
        "brand": "Chilexpress"
      }
    },
    {
      "displayName": "Chronopost",
      "id": "chronopost-b956a2",
      "locationSet": {"include": ["fr"]},
      "note": "Still Chronopost in France, possibly moved to DPD elsewhere - #4675",
      "tags": {
        "amenity": "post_office",
        "brand": "Chronopost",
        "brand:wikidata": "Q2967313",
        "brand:wikipedia": "fr:Chronopost"
      }
    },
    {
      "displayName": "Coordinadora",
      "id": "coordinadora-722495",
      "locationSet": {"include": ["co"]},
      "tags": {
        "amenity": "post_office",
        "brand": "Coordinadora",
        "brand:wikidata": "Q109252162",
        "official_name": "Coordinadora Mercantil S.A."
      }
    },
    {
      "displayName": "Correios",
      "id": "correios-6c9171",
      "locationSet": {"include": ["br"]},
      "matchNames": [
        "ebct",
        "ect",
        "empresa brasileira de correios e telégrafos"
      ],
      "tags": {
        "amenity": "post_office",
        "brand": "Correios",
        "brand:wikidata": "Q3375004",
        "brand:wikipedia": "en:Correios"
      }
    },
    {
      "displayName": "Correo Argentino",
      "id": "correoargentino-8d568f",
      "locationSet": {"include": ["ar"]},
      "matchNames": [
        "correo oficial de la república argentina s.a.",
        "correo oficial de la república argentina sociedad anónima"
      ],
      "tags": {
        "amenity": "post_office",
        "brand": "Correo Argentino",
        "brand:wikidata": "Q4036566",
        "brand:wikipedia": "en:Correo Argentino"
      }
    },
    {
      "displayName": "Correos",
      "id": "correos-a58402",
      "locationSet": {"include": ["es"]},
      "matchNames": [
        "correos y telégrafos",
        "oficina de correos",
        "sociedad estatal correos y telégrafos",
        "sociedad estatal correos y telégrafos sa"
      ],
      "tags": {
        "amenity": "post_office",
        "brand": "Correos",
        "brand:wikidata": "Q776605",
        "brand:wikipedia": "es:Correos (España)"
      }
    },
    {
      "displayName": "Correos de Chile",
      "id": "correosdechile-6d6687",
      "locationSet": {"include": ["cl"]},
      "tags": {
        "amenity": "post_office",
        "brand": "Correos de Chile",
        "brand:wikidata": "Q5172893",
        "brand:wikipedia": "en:Correos de Chile"
      }
    },
    {
      "displayName": "Correos de Costa Rica",
      "id": "correosdecostarica-178184",
      "locationSet": {"include": ["cr"]},
      "tags": {
        "amenity": "post_office",
        "brand": "Correos de Costa Rica",
        "brand:wikidata": "Q5172894",
        "brand:wikipedia": "en:Correos de Costa Rica"
      }
    },
    {
      "displayName": "Correos de Cuba",
      "id": "correosdecuba-c103f0",
      "locationSet": {"include": ["cu"]},
      "tags": {
        "amenity": "post_office",
        "brand": "Correos de Cuba",
        "brand:wikidata": "Q5789322",
        "brand:wikipedia": "es:Correos de Cuba"
      }
    },
    {
      "displayName": "Correos de México",
      "id": "correosdemexico-d15952",
      "locationSet": {"include": ["mx"]},
      "tags": {
        "amenity": "post_office",
        "brand": "Correos de México",
        "brand:wikidata": "Q5172898",
        "brand:wikipedia": "en:Correos de México"
      }
    },
    {
      "displayName": "CTT (Macau)",
      "id": "ctt-98d561",
      "locationSet": {"include": ["mo"]},
      "tags": {
        "amenity": "post_office",
        "brand": "CTT",
        "brand:wikidata": "Q909429",
        "brand:wikipedia": "en:CTT (Macau)"
      }
    },
    {
      "displayName": "CTT (Portugal)",
      "id": "ctt-e7d405",
      "locationSet": {"include": ["pt"]},
      "tags": {
        "amenity": "post_office",
        "brand": "CTT",
        "brand:wikidata": "Q1024518",
        "brand:wikipedia": "en:CTT Correios de Portugal, S.A."
      }
    },
    {
      "displayName": "Deutsche Post",
      "id": "deutschepost-12460e",
      "locationSet": {"include": ["de"]},
      "matchNames": [
        "deutsche post ag",
        "deutsche post dhl",
        "deutsche post filiale",
        "deutsche postbank ag",
        "postbank"
      ],
      "tags": {
        "amenity": "post_office",
        "brand": "Deutsche Post",
        "brand:wikidata": "Q157645",
        "brand:wikipedia": "de:Deutsche Post AG"
      }
    },
    {
      "displayName": "DHL",
      "id": "dhl-27cb18",
      "locationSet": {"include": ["001"]},
      "matchNames": [
        "dhl paketshop",
        "dhl vertrieb"
      ],
      "tags": {
        "amenity": "post_office",
        "brand": "DHL",
        "brand:wikidata": "Q489815",
        "brand:wikipedia": "en:DHL",
        "operator:type": "private"
      }
    },
    {
      "displayName": "DHL Express Easy",
      "id": "dhlexpresseasy-27cb18",
      "locationSet": {"include": ["001"]},
      "tags": {
        "amenity": "post_office",
        "brand": "DHL Express Easy",
        "name": "DHL Express Easy"
      }
    },
    {
      "displayName": "Die Post",
      "id": "diepost-bb698f",
      "locationSet": {"include": ["ch"]},
      "matchNames": [
        "die schweizerische post",
        "die schweizerische post ag",
        "la poste suisse sa",
        "post ch ag",
        "schweizerische post",
        "schweizerische post ag"
      ],
      "tags": {
        "amenity": "post_office",
        "brand": "Die Post",
        "brand:de": "Die Post",
        "brand:en": "Swiss Post",
        "brand:fr": "La Poste",
        "brand:it": "La Posta",
        "brand:rm": "La Posta",
        "brand:wikidata": "Q614803",
        "brand:wikipedia": "de:Die Schweizerische Post"
      }
    },
    {
      "displayName": "Domesa",
      "id": "domesa-9c0fbc",
      "locationSet": {"include": ["ve"]},
      "tags": {
        "amenity": "post_office",
        "brand": "Domesa"
      }
    },
    {
      "displayName": "DPD",
      "id": "dpd-f31092",
      "locationSet": {
        "include": ["001"],
        "exclude": ["bg"]
      },
      "matchNames": [
        "direct parcel distribution cz sro.",
        "dpd dynamic parcel distribution",
        "dpd paketshop"
      ],
      "note": "Named 'Speedy' in Bulgaria, but uses the DPD logo - #4674",
      "tags": {
        "amenity": "post_office",
        "brand": "DPD",
        "brand:wikidata": "Q541030",
        "brand:wikipedia": "de:DPDgroup"
      }
    },
    {
      "displayName": "Eesti Post",
      "id": "eestipost-d21122",
      "locationSet": {"include": ["ee"]},
      "tags": {
        "amenity": "post_office",
        "brand": "Eesti Post",
        "brand:wikidata": "Q282457",
        "brand:wikipedia": "et:Eesti Post"
      }
    },
    {
      "displayName": "Emirates Post",
      "id": "emiratespost-486d53",
      "locationSet": {"include": ["ae"]},
      "tags": {
        "amenity": "post_office",
        "brand": "Emirates Post",
        "brand:wikidata": "Q5372577",
        "brand:wikipedia": "en:Emirates Post"
      }
    },
    {
      "displayName": "Fancourier",
      "id": "fancourier-8b52d3",
      "locationSet": {"include": ["ro"]},
      "tags": {
        "amenity": "post_office",
        "brand": "Fancourier",
        "brand:wikidata": "Q12727984",
        "brand:wikipedia": "ro:FAN Courier Express"
      }
    },
    {
      "displayName": "FedEx",
      "id": "fedex-27cb18",
      "locationSet": {"include": ["001"]},
      "matchNames": ["federal express"],
      "tags": {
        "amenity": "post_office",
        "brand": "FedEx",
        "brand:wikidata": "Q459477",
        "brand:wikipedia": "en:FedEx",
        "operator:type": "private"
      }
    },
    {
      "displayName": "General Logistics Systems Germany",
      "id": "generallogisticssystemsgermany-12460e",
      "locationSet": {"include": ["de"]},
      "tags": {
        "amenity": "post_office",
        "brand": "General Logistics Systems Germany",
        "brand:wikidata": "Q46495823",
        "brand:wikipedia": "de:General Logistics Systems Germany"
      }
    },
    {
      "displayName": "Georgian Post",
      "id": "georgianpost-5c8502",
      "locationSet": {"include": ["ge"]},
      "tags": {
        "amenity": "post_office",
        "brand": "Georgian Post",
        "brand:wikidata": "Q12869041",
        "brand:wikipedia": "en:Georgian Post"
      }
    },
    {
      "displayName": "Ghana Post",
      "id": "ghanapost-5e7350",
      "locationSet": {"include": ["gh"]},
      "tags": {
        "amenity": "post_office",
        "brand": "Ghana Post",
        "brand:wikidata": "Q4351971",
        "brand:wikipedia": "en:Ghana Post"
      }
    },
    {
      "displayName": "GLS",
      "id": "gls-27cb18",
      "locationSet": {"include": ["001"]},
      "matchNames": ["gls paketshop"],
      "tags": {
        "amenity": "post_office",
        "brand": "GLS",
        "brand:wikidata": "Q366182",
        "brand:wikipedia": "en:GLS Group"
      }
    },
    {
      "displayName": "Government of India",
      "id": "governmentofindia-2d68c1",
      "locationSet": {"include": ["in"]},
      "tags": {
        "amenity": "post_office",
        "brand": "Government of India"
      }
    },
    {
      "displayName": "Grupo ZOOM",
      "id": "grupozoom-27cb18",
      "locationSet": {"include": ["001"]},
      "tags": {
        "amenity": "post_office",
        "brand": "Grupo ZOOM",
        "name": "Grupo ZOOM"
      }
    },
    {
      "displayName": "HayPost",
      "id": "haypost-e9a05e",
      "locationSet": {"include": ["am"]},
      "tags": {
        "amenity": "post_office",
        "brand": "HayPost",
        "brand:en": "HayPost",
        "brand:hy": "Հայփոստ",
        "brand:wikidata": "Q3128876",
        "brand:wikipedia": "en:HayPost"
      }
    },
    {
      "displayName": "Hermes",
      "id": "hermes-12460e",
      "locationSet": {"include": ["de"]},
      "matchNames": [
        "hermes logistik gruppe deutschland",
        "hermes logistik gruppe deutschland gmbh",
        "hermes paketshop"
      ],
      "tags": {
        "amenity": "post_office",
        "brand": "Hermes",
        "brand:wikidata": "Q1613532",
        "brand:wikipedia": "en:Hermes Group"
      }
    },
    {
      "displayName": "Hrvatska pošta",
      "id": "hrvatskaposta-de0e55",
      "locationSet": {"include": ["hr"]},
      "tags": {
        "amenity": "post_office",
        "brand": "Hrvatska pošta",
        "brand:wikidata": "Q507289",
        "brand:wikipedia": "hr:Hrvatska pošta"
      }
    },
    {
      "displayName": "Hrvatska pošta Mostar",
      "id": "hrvatskapostamostar-e1935e",
      "locationSet": {"include": ["ba"]},
      "tags": {
        "amenity": "post_office",
        "brand": "Hrvatska pošta Mostar",
        "brand:wikidata": "Q5307025",
        "brand:wikipedia": "bs:Hrvatska pošta Mostar"
      }
    },
    {
      "displayName": "India Post",
      "id": "indiapost-2d68c1",
      "locationSet": {"include": ["in"]},
      "matchNames": [
        "indian post",
        "indian postal service"
      ],
      "tags": {
        "amenity": "post_office",
        "brand": "India Post",
        "brand:wikidata": "Q3519720",
        "brand:wikipedia": "en:India Post"
      }
    },
    {
      "displayName": "InPost",
      "id": "inpost-4d399f",
      "locationSet": {"include": ["pl"]},
      "tags": {
        "amenity": "post_office",
        "brand": "InPost",
        "brand:wikidata": "Q3182097",
        "brand:wikipedia": "pl:InPost"
      }
    },
    {
      "displayName": "Instituto Postal Telegráfico de Venezuela",
      "id": "institutopostaltelegraficodevenezuela-9c0fbc",
      "locationSet": {"include": ["ve"]},
      "tags": {
        "alt_name": "IPOSTEL",
        "amenity": "post_office",
        "brand": "Instituto Postal Telegráfico de Venezuela",
        "brand:wikidata": "Q30061585",
        "brand:wikipedia": "es:Instituto Postal Telegráfico de Venezuela"
      }
    },
    {
      "displayName": "Íslandspóstur",
      "id": "islandspostur-cca581",
      "locationSet": {"include": ["is"]},
      "tags": {
        "amenity": "post_office",
        "brand": "Íslandspóstur",
        "brand:wikidata": "Q291809",
        "brand:wikipedia": "is:Íslandspóstur"
      }
    },
    {
      "displayName": "Itella",
      "id": "itella-36a4d3",
      "locationSet": {"include": ["fi"]},
      "tags": {
        "amenity": "post_office",
        "brand": "Itella"
      }
    },
    {
      "displayName": "J&T Express",
      "id": "jandtexpress-3fd1b3",
      "locationSet": {
        "include": ["id", "my", "ph"]
      },
      "tags": {
        "amenity": "post_office",
        "brand": "J&T Express",
        "brand:wikidata": "Q95690344",
        "brand:wikipedia": "id:J&T Express"
      }
    },
    {
      "displayName": "Jersey Post",
      "id": "jerseypost-35ff02",
      "locationSet": {"include": ["je"]},
      "tags": {
        "amenity": "post_office",
        "brand": "Jersey Post",
        "brand:wikidata": "Q6184914",
        "brand:wikipedia": "en:Jersey Post"
      }
    },
    {
      "displayName": "JRS Express",
      "id": "jrsexpress-27cb18",
      "locationSet": {"include": ["001"]},
      "tags": {
        "amenity": "post_office",
        "brand": "JRS Express",
        "name": "JRS Express"
      }
    },
    {
      "displayName": "La Poste",
      "id": "laposte-b956a2",
      "locationSet": {"include": ["fr"]},
      "tags": {
        "amenity": "post_office",
        "brand": "La Poste",
        "brand:wikidata": "Q373724",
        "brand:wikipedia": "fr:La Poste (entreprise française)"
      }
    },
    {
      "displayName": "La Poste Tunisienne",
      "id": "lapostetunisienne-f583c6",
      "locationSet": {"include": ["tn"]},
      "tags": {
        "amenity": "post_office",
        "brand": "La Poste Tunisienne",
        "brand:ar": "البريد التونسي",
        "brand:fr": "La Poste Tunisienne",
        "brand:wikidata": "Q3399820",
        "brand:wikipedia": "fr:Poste tunisienne"
      }
    },
    {
      "displayName": "Latvijas Pasts",
      "id": "latvijaspasts-6883b3",
      "locationSet": {"include": ["lv"]},
      "tags": {
        "amenity": "post_office",
        "brand": "Latvijas Pasts",
        "brand:wikidata": "Q1807088",
        "brand:wikipedia": "lv:Latvijas Pasts"
      }
    },
    {
      "displayName": "LBC",
      "id": "lbc-3974e1",
      "locationSet": {"include": ["ph"]},
      "matchNames": ["lbc express"],
      "tags": {
        "amenity": "post_office",
        "brand": "LBC",
        "brand:wikidata": "Q17075584",
        "brand:wikipedia": "en:LBC Express"
      }
    },
    {
      "displayName": "Lietuvos paštas",
      "id": "lietuvospastas-8daf6b",
      "locationSet": {"include": ["lt"]},
      "tags": {
        "amenity": "post_office",
        "brand": "Lietuvos paštas",
        "brand:wikidata": "Q175964",
        "brand:wikipedia": "lt:Lietuvos paštas"
      }
    },
    {
      "displayName": "Magyar Posta",
      "id": "magyarposta-9e675c",
      "locationSet": {"include": ["hu"]},
      "matchNames": ["magyar posta zrt."],
      "tags": {
        "amenity": "post_office",
        "brand": "Magyar Posta",
        "brand:wikidata": "Q145614",
        "brand:wikipedia": "hu:Magyar Posta Zrt."
      }
    },
    {
      "displayName": "Mail Boxes Etc.",
      "id": "mailboxesetc-27cb18",
      "locationSet": {"include": ["001"]},
      "tags": {
        "amenity": "post_office",
        "brand": "Mail Boxes Etc.",
        "brand:wikidata": "Q1139182",
        "brand:wikipedia": "en:Mail Boxes Etc."
      }
    },
    {
      "displayName": "Meest",
      "id": "meest-b79583",
      "locationSet": {"include": ["ua"]},
      "tags": {
        "amenity": "post_office",
        "brand": "Meest",
        "brand:en": "Meest",
        "brand:uk": "Міст"
      }
    },
    {
      "displayName": "Meest Express",
      "id": "meestexpress-b79583",
      "locationSet": {"include": ["ua"]},
      "tags": {
        "amenity": "post_office",
        "brand": "Meest Express",
        "brand:en": "Meest Express",
        "brand:uk": "Міст Експрес",
        "brand:wikidata": "Q25432124",
        "brand:wikipedia": "uk:Meest"
      }
    },
    {
      "displayName": "MNG Kargo",
      "id": "mngkargo-d7f31b",
      "locationSet": {"include": ["tr"]},
      "tags": {
        "amenity": "post_office",
        "brand": "MNG Kargo",
        "brand:wikidata": "Q20472590",
        "brand:wikipedia": "tr:MNG Kargo"
      }
    },
    {
      "displayName": "MRW",
      "id": "mrw-1eb671",
      "locationSet": {
        "include": ["ad", "es", "gi", "pt", "ve"]
      },
      "tags": {
        "amenity": "post_office",
        "brand": "MRW",
        "brand:wikidata": "Q23767821",
        "brand:wikipedia": "es:MRW"
      }
    },
    {
      "displayName": "New Zealand Post",
      "id": "newzealandpost-c4f0a8",
      "locationSet": {"include": ["nz"]},
      "matchNames": ["nz post"],
      "tags": {
        "amenity": "post_office",
        "brand": "New Zealand Post",
        "brand:wikidata": "Q1144511",
        "brand:wikipedia": "en:NZ Post"
      }
    },
    {
      "displayName": "O’zbеkiston Pochtasi",
      "id": "b5e0b2-b213b9",
      "locationSet": {"include": ["uz"]},
      "matchNames": ["ozbеkiston pochtasi aj"],
      "tags": {
        "amenity": "post_office",
        "brand": "O’zbеkiston Pochtasi",
        "brand:wikidata": "Q105227651",
        "brand:wikipedia": "en:O′zbekiston Pochtasi"
      }
    },
    {
      "displayName": "Omniva",
      "id": "omniva-d21122",
      "locationSet": {"include": ["ee"]},
      "tags": {
        "amenity": "post_office",
        "brand": "Omniva",
        "brand:wikidata": "Q282457",
        "brand:wikipedia": "en:Omniva"
      }
    },
    {
      "displayName": "OPT",
      "id": "opt-955a6b",
      "locationSet": {"include": ["pf"]},
      "tags": {
        "amenity": "post_office",
        "brand": "OPT",
        "brand:wikidata": "Q3349602",
        "brand:wikipedia": "fr:Office des postes et télécommunications de Polynésie française"
      }
    },
    {
      "displayName": "Organización Coordinadora Argentina",
      "id": "organizacioncoordinadoraargentina-8d568f",
      "locationSet": {"include": ["ar"]},
      "tags": {
        "amenity": "post_office",
        "brand": "Organización Coordinadora Argentina",
        "brand:wikidata": "Q5172887",
        "brand:wikipedia": "es:Correo OCA",
        "short_name": "OCA"
      }
    },
    {
      "displayName": "Österreichische Post AG",
      "id": "osterreichischepostag-5ebfad",
      "locationSet": {"include": ["at"]},
      "tags": {
        "amenity": "post_office",
        "brand": "Österreichische Post AG",
        "brand:wikidata": "Q1763505",
        "brand:wikipedia": "de:Österreichische Post"
      }
    },
    {
      "displayName": "P&T",
      "id": "pandt-9e873a",
      "locationSet": {"include": ["lu"]},
      "tags": {
        "amenity": "post_office",
        "brand": "P&T",
        "brand:wikidata": "Q1570910",
        "brand:wikipedia": "de:Post Luxembourg"
      }
    },
    {
      "displayName": "Pakistan Post",
      "id": "pakistanpost-e3df24",
      "locationSet": {"include": ["pk"]},
      "tags": {
        "amenity": "post_office",
        "brand": "Pakistan Post",
        "brand:wikidata": "Q4046330",
        "brand:wikipedia": "en:Pakistan Post"
      }
    },
    {
      "displayName": "Palestine Post",
      "id": "palestinepost-36c305",
      "locationSet": {"include": ["ps"]},
      "tags": {
        "amenity": "post_office",
        "brand": "Palestine Post",
        "brand:wikidata": "Q4351991",
        "brand:wikipedia": "en:Palestine Post"
      }
    },
    {
      "displayName": "PHLPost",
      "id": "phlpost-3974e1",
      "locationSet": {"include": ["ph"]},
      "matchNames": ["philpost", "phl"],
      "tags": {
        "amenity": "post_office",
        "brand": "PHLPost",
        "brand:wikidata": "Q1406037",
        "brand:wikipedia": "en:Philippine Postal Corporation",
        "official_name": "Philippine Postal Corporation"
      }
    },
    {
      "displayName": "Poçt ATS",
      "id": "poctats-27cb18",
      "locationSet": {"include": ["001"]},
      "tags": {
        "amenity": "post_office",
        "brand": "Poçt ATS",
        "name": "Poçt ATS"
      }
    },
    {
      "displayName": "Poczta Polska",
      "id": "pocztapolska-4d399f",
      "locationSet": {"include": ["pl"]},
      "matchNames": [
        "poczta",
        "poczta polska sa"
      ],
      "tags": {
        "amenity": "post_office",
        "brand": "Poczta Polska",
        "brand:wikidata": "Q168833",
        "brand:wikipedia": "pl:Poczta Polska"
      }
    },
    {
      "displayName": "Pos Indonesia",
      "id": "posindonesia-9488cd",
      "locationSet": {"include": ["id"]},
      "matchNames": ["pt pos indonesia"],
      "tags": {
        "alt_name": "Kantor Pos",
        "amenity": "post_office",
        "brand": "Pos Indonesia",
        "brand:wikidata": "Q4273095",
        "brand:wikipedia": "id:Pos Indonesia"
      }
    },
    {
      "displayName": "Pos Malaysia",
      "id": "posmalaysia-f9f3cc",
      "locationSet": {"include": ["my"]},
      "tags": {
        "amenity": "post_office",
        "brand": "Pos Malaysia",
        "brand:wikidata": "Q6112623",
        "brand:wikipedia": "en:Pos Malaysia"
      }
    },
    {
      "displayName": "Post Danmark",
      "id": "postdanmark-701c93",
      "locationSet": {"include": ["dk"]},
      "tags": {
        "amenity": "post_office",
        "brand": "Post Danmark",
        "brand:wikidata": "Q1334647",
        "brand:wikipedia": "da:PostNord Danmark"
      }
    },
    {
      "displayName": "Post Office (UK)",
      "id": "postoffice-a028f7",
      "locationSet": {"include": ["gb"]},
      "matchNames": [
        "post office ltd",
        "the post office"
      ],
      "tags": {
        "amenity": "post_office",
        "brand": "Post Office",
        "brand:wikidata": "Q1783168",
        "brand:wikipedia": "en:Post Office Ltd"
      }
    },
    {
      "displayName": "Poșta Moldovei",
      "id": "postamoldovei-6e99d9",
      "locationSet": {"include": ["md"]},
      "tags": {
        "amenity": "post_office",
        "brand": "Poșta Moldovei",
        "brand:wikidata": "Q2085731",
        "brand:wikipedia": "en:Poșta Moldovei"
      }
    },
    {
      "displayName": "Poșta Română",
      "id": "postaromana-8b52d3",
      "locationSet": {"include": ["ro"]},
      "tags": {
        "amenity": "post_office",
        "brand": "Poșta Română",
        "brand:wikidata": "Q283175",
        "brand:wikipedia": "ro:Poșta Română"
      }
    },
    {
      "displayName": "Posta Shqiptare",
      "id": "postashqiptare-7b41c6",
      "locationSet": {"include": ["al"]},
      "tags": {
        "amenity": "post_office",
        "brand": "Posta Shqiptare",
        "brand:wikidata": "Q1334419",
        "brand:wikipedia": "sq:Posta Shqiptare"
      }
    },
    {
      "displayName": "Pošta Slovenije",
      "id": "postaslovenije-dbe9b5",
      "locationSet": {"include": ["si"]},
      "tags": {
        "amenity": "post_office",
        "brand": "Pošta Slovenije",
        "brand:wikidata": "Q6522631",
        "brand:wikipedia": "sl:Pošta Slovenije"
      }
    },
    {
      "displayName": "PostalAnnex",
      "id": "postalannex-b9aa24",
      "locationSet": {"include": ["us"]},
      "matchTags": ["shop/post_office"],
      "tags": {
        "amenity": "post_office",
        "brand": "PostalAnnex",
        "brand:wikidata": "Q61960357"
      }
    },
    {
      "displayName": "Postbank",
      "id": "postbank-27cb18",
      "locationSet": {"include": ["001"]},
      "tags": {
        "amenity": "post_office",
        "brand": "Postbank"
      }
    },
    {
      "displayName": "Postbank Finanzcenter",
      "id": "postbankfinanzcenter-27cb18",
      "locationSet": {"include": ["001"]},
      "tags": {
        "amenity": "post_office",
        "brand": "Postbank Finanzcenter",
        "name": "Postbank Finanzcenter"
      }
    },
    {
      "displayName": "postcon",
      "id": "postcon-12460e",
      "locationSet": {"include": ["de"]},
      "tags": {
        "amenity": "post_office",
        "brand": "postcon",
        "brand:wikidata": "Q2384619",
        "brand:wikipedia": "de:Postcon"
      }
    },
    {
      "displayName": "Poste Annexe",
      "id": "posteannexe-27cb18",
      "locationSet": {"include": ["001"]},
      "tags": {
        "amenity": "post_office",
        "brand": "Poste Annexe",
        "name": "Poste Annexe"
      }
    },
    {
      "displayName": "Poste Italiane",
      "id": "posteitaliane-28c4c1",
      "locationSet": {"include": ["it"]},
      "matchNames": ["poste italiane spa"],
      "tags": {
        "amenity": "post_office",
        "brand": "Poste Italiane",
        "brand:wikidata": "Q495026",
        "brand:wikipedia": "en:Poste italiane"
      }
    },
    {
      "displayName": "Posten (Norge)",
      "id": "posten-0526a8",
      "locationSet": {"include": ["no"]},
      "note": "see https://github.com/osmlab/name-suggestion-index/issues/5561",
      "tags": {
        "amenity": "post_office",
        "brand": "Posten"
      }
    },
    {
      "displayName": "Postes Canada",
      "id": "postescanada-85aa38",
      "locationSet": {
        "include": ["quebec.geojson"]
      },
      "matchNames": [
        "canada post/ poste canada",
        "poste canada"
      ],
      "tags": {
        "amenity": "post_office",
        "brand": "Postes Canada",
        "brand:wikidata": "Q1032001",
        "brand:wikipedia": "fr:Postes Canada"
      }
    },
    {
      "displayName": "Posti",
      "id": "posti-36a4d3",
      "locationSet": {"include": ["fi"]},
      "tags": {
        "amenity": "post_office",
        "brand": "Posti",
        "brand:wikidata": "Q843453",
        "brand:wikipedia": "fi:Posti Group"
      }
    },
    {
      "displayName": "PostNL",
      "id": "postnl-37cdb3",
      "locationSet": {"include": ["nl"]},
      "tags": {
        "amenity": "post_office",
        "brand": "PostNL",
        "brand:wikidata": "Q5921598",
        "brand:wikipedia": "nl:PostNL"
      }
    },
    {
      "displayName": "PostNord",
      "id": "postnord-fe2b65",
      "locationSet": {"include": ["dk", "se"]},
      "tags": {
        "amenity": "post_office",
        "brand": "PostNord",
        "brand:wikidata": "Q3181430",
        "brand:wikipedia": "sv:Postnord"
      }
    },
    {
      "displayName": "PostNord AB",
      "id": "postnordab-9b04ad",
      "locationSet": {"include": ["se"]},
      "tags": {
        "amenity": "post_office",
        "brand": "PostNord AB",
        "brand:wikidata": "Q3181430",
        "brand:wikipedia": "sv:Postnord"
      }
    },
    {
      "displayName": "PTT",
      "id": "ptt-d7f31b",
      "locationSet": {"include": ["tr"]},
      "tags": {
        "amenity": "post_office",
        "brand": "PTT",
        "brand:wikidata": "Q3079259",
        "brand:wikipedia": "tr:PTT"
      }
    },
    {
      "displayName": "Relais La Poste",
      "id": "relaislaposte-27cb18",
      "locationSet": {"include": ["001"]},
      "tags": {
        "amenity": "post_office",
        "brand": "Relais La Poste",
        "name": "Relais La Poste"
      }
    },
    {
      "displayName": "Relais Poste",
      "id": "relaisposte-27cb18",
      "locationSet": {"include": ["001"]},
      "tags": {
        "amenity": "post_office",
        "brand": "Relais Poste",
        "name": "Relais Poste"
      }
    },
    {
      "displayName": "Royal Mail",
      "id": "royalmail-a028f7",
      "locationSet": {"include": ["gb"]},
      "tags": {
        "amenity": "post_office",
        "brand": "Royal Mail",
        "brand:wikidata": "Q638098",
        "brand:wikipedia": "en:Royal Mail"
      }
    },
    {
      "displayName": "Serpost",
      "id": "serpost-00e4ba",
      "locationSet": {"include": ["pe"]},
      "matchNames": [
        "serpost sa",
        "servicios postales del peru",
        "servicios postales del peru sa"
      ],
      "matchTags": ["shop/post_office"],
      "tags": {
        "amenity": "post_office",
        "brand": "Serpost",
        "brand:wikidata": "Q19521863",
        "brand:wikipedia": "es:Servicios Postales del Perú"
      }
    },
    {
      "displayName": "Servientrega",
      "id": "servientrega-722495",
      "locationSet": {"include": ["co"]},
      "tags": {
        "amenity": "post_office",
        "brand": "Servientrega",
        "brand:wikidata": "Q96094519"
      }
    },
    {
      "displayName": "Shoppers Drug Mart",
      "id": "shoppersdrugmart-740d6a",
      "locationSet": {"include": ["ca"]},
      "tags": {
        "amenity": "post_office",
        "brand": "Shoppers Drug Mart"
      }
    },
    {
      "displayName": "Singapore Post",
      "id": "singaporepost-ce5415",
      "locationSet": {"include": ["sg"]},
      "tags": {
        "amenity": "post_office",
        "brand": "Singapore Post",
        "brand:wikidata": "Q4049531",
        "brand:wikipedia": "en:Singapore Post"
      }
    },
    {
      "displayName": "Slovenská pošta",
      "id": "slovenskaposta-b4dbc8",
      "locationSet": {"include": ["sk"]},
      "matchNames": ["slovenska pošta as"],
      "tags": {
        "amenity": "post_office",
        "brand": "Slovenská pošta",
        "brand:wikidata": "Q1191849",
        "brand:wikipedia": "en:Slovenská pošta"
      }
    },
    {
      "displayName": "South African Post Office",
      "id": "southafricanpostoffice-8373b7",
      "locationSet": {"include": ["za"]},
      "tags": {
        "amenity": "post_office",
        "brand": "South African Post Office",
        "brand:wikidata": "Q7565777",
        "brand:wikipedia": "en:South African Post Office",
        "short_name": "SAPO"
      }
    },
    {
      "displayName": "Speedy",
      "id": "speedy-628448",
      "locationSet": {"include": ["bg"]},
      "note": "Operated by DPD, and uses the DPD logo - #4674",
      "tags": {
        "alt_name": "Speedy",
        "amenity": "post_office",
        "brand": "Speedy",
        "brand:wikidata": "Q541030",
        "brand:wikipedia": "en:DPDgroup",
        "operator": "DPD"
      }
    },
    {
      "displayName": "Sürat Kargo",
      "id": "suratkargo-d7f31b",
      "locationSet": {"include": ["tr"]},
      "tags": {
        "amenity": "post_office",
        "brand": "Sürat Kargo",
        "brand:wikidata": "Q6051265",
        "brand:wikipedia": "tr:Sürat Kargo"
      }
    },
    {
      "displayName": "TCC",
      "id": "tcc-722495",
      "locationSet": {"include": ["co"]},
      "tags": {
        "amenity": "post_office",
        "brand": "TCC",
        "brand:wikidata": "Q27968821",
        "brand:wikipedia": "es:TCC (Colombia)",
        "old_name": "Transcomerco",
        "short_name": "TCC"
      }
    },
    {
      "displayName": "TEALCA",
      "id": "tealca-9c0fbc",
      "locationSet": {"include": ["ve"]},
      "matchNames": ["tealca ca"],
      "tags": {
        "amenity": "post_office",
        "brand": "TEALCA"
      }
    },
    {
      "displayName": "Thailand Post",
      "id": "thailandpost-07e441",
      "locationSet": {"include": ["th"]},
      "tags": {
        "amenity": "post_office",
        "brand": "Thailand Post",
        "brand:en": "Thailand Post",
        "brand:th": "ไปรษณีย์ไทย",
        "brand:wikidata": "Q6676271",
        "brand:wikipedia": "th:ไปรษณีย์ไทย (บริษัท)"
      }
    },
    {
      "displayName": "The UPS Store",
      "id": "theupsstore-d4e3fc",
      "locationSet": {"include": ["ca", "us"]},
      "matchNames": [
        "united parcel service",
        "ups store"
      ],
      "matchTags": ["shop/copyshop"],
      "tags": {
        "amenity": "post_office",
        "brand": "The UPS Store",
        "brand:wikidata": "Q7771029",
        "brand:wikipedia": "en:The UPS Store",
        "operator:type": "private",
        "short_name": "UPS"
      }
    },
    {
      "displayName": "TNT",
      "id": "tnt-27cb18",
      "locationSet": {"include": ["001"]},
      "tags": {
        "amenity": "post_office",
        "brand": "TNT",
        "brand:wikidata": "Q1105744",
        "brand:wikipedia": "en:TNT Express"
      }
    },
    {
      "displayName": "TTPost",
      "id": "ttpost-4290e3",
      "locationSet": {"include": ["tt"]},
      "tags": {
        "amenity": "post_office",
        "brand": "TTPost",
        "brand:wikidata": "Q7671960",
        "brand:wikipedia": "en:TTPost"
      }
    },
    {
      "displayName": "United States Postal Service",
      "id": "unitedstatespostalservice-b9aa24",
      "locationSet": {"include": ["us"]},
      "matchNames": [
        "post office",
        "united states post office",
        "us post office",
        "us postal service",
        "usps post office"
      ],
      "tags": {
        "amenity": "post_office",
        "brand": "United States Postal Service",
        "brand:wikidata": "Q668687",
        "brand:wikipedia": "en:United States Postal Service",
        "operator:type": "public",
        "short_name": "USPS"
      }
    },
    {
      "displayName": "Volg",
      "id": "volg-bb698f",
      "locationSet": {"include": ["ch"]},
      "tags": {
        "amenity": "post_office",
        "brand": "Volg",
        "brand:wikidata": "Q2530746",
        "brand:wikipedia": "de:Volg"
      }
    },
    {
      "displayName": "Yurtiçi Kargo",
      "id": "yurticikargo-d7f31b",
      "locationSet": {"include": ["tr"]},
      "tags": {
        "amenity": "post_office",
        "brand": "Yurtiçi Kargo",
        "brand:wikidata": "Q6505802",
        "brand:wikipedia": "tr:Yurtiçi Kargo"
      }
    },
    {
      "displayName": "Zásilkovna",
      "id": "zasilkovna-024a94",
      "locationSet": {"include": ["cz"]},
      "tags": {
        "amenity": "post_office",
        "brand": "Zásilkovna",
        "brand:wikidata": "Q25454926",
        "brand:wikipedia": "cs:Zásilkovna"
      }
    },
    {
      "displayName": "Zoom",
      "id": "zoom-9c0fbc",
      "locationSet": {"include": ["ve"]},
      "matchNames": ["grupo zoom ca"],
      "tags": {
        "amenity": "post_office",
        "brand": "Zoom"
      }
    },
    {
      "displayName": "Ελληνικά Ταχυδρομεία",
      "id": "hellenicpost-7d7ae6",
      "locationSet": {"include": ["gr"]},
      "tags": {
        "amenity": "post_office",
        "brand": "Ελληνικά Ταχυδρομεία",
        "brand:el": "Ελληνικά Ταχυδρομεία",
        "brand:en": "Hellenic Post",
        "brand:wikidata": "Q1275135",
        "brand:wikipedia": "el:Ελληνικά Ταχυδρομεία",
        "short_name": "ΕΛΤΑ"
      }
    },
    {
      "displayName": "Автолюкс",
      "id": "autolux-b79583",
      "locationSet": {"include": ["ua"]},
      "tags": {
        "amenity": "post_office",
        "brand": "Автолюкс",
        "brand:en": "Autolux",
        "brand:uk": "Автолюкс",
        "brand:wikidata": "Q12075972",
        "brand:wikipedia": "uk:Автолюкс"
      }
    },
    {
      "displayName": "Белпошта",
      "id": "belposhta-0051a6",
      "locationSet": {"include": ["by"]},
      "matchNames": ["руп белпочта"],
      "tags": {
        "amenity": "post_office",
        "brand": "Белпошта",
        "brand:be": "Белпошта",
        "brand:en": "Belposhta",
        "brand:ru": "Белпочта",
        "brand:wikidata": "Q2662336",
        "brand:wikipedia": "be:Белпошта"
      }
    },
    {
      "displayName": "Български пощи",
      "id": "6d0749-628448",
      "locationSet": {"include": ["bg"]},
      "matchNames": ["български пощи еад"],
      "tags": {
        "amenity": "post_office",
        "brand": "Български пощи",
        "brand:wikidata": "Q2880826",
        "brand:wikipedia": "bg:Български пощи"
      }
    },
    {
      "displayName": "ГиперМолл",
      "id": "1fa616-0051a6",
      "locationSet": {"include": ["by"]},
      "tags": {
        "amenity": "post_office",
        "brand": "ГиперМолл"
      }
    },
    {
      "displayName": "ГУП Почта Приднестровья",
      "id": "transnistriapost-6e99d9",
      "locationSet": {"include": ["md"]},
      "tags": {
        "amenity": "post_office",
        "brand": "ГУП Почта Приднестровья",
        "brand:en": "Transnistria Post",
        "brand:ru": "ГУП Почта Приднестровья",
        "brand:wikidata": "Q4375351",
        "brand:wikipedia": "ru:Почта Приднестровья"
      }
    },
    {
      "displayName": "Делівері",
      "id": "223604-b79583",
      "locationSet": {"include": ["ua"]},
      "tags": {
        "amenity": "post_office",
        "brand": "Делівері"
      }
    },
    {
      "displayName": "ДЖАСТ ІН",
      "id": "justin-b79583",
      "locationSet": {"include": ["ua"]},
      "tags": {
        "amenity": "post_office",
        "brand": "ДЖАСТ ІН",
        "brand:en": "justin",
        "brand:uk": "ДЖАСТ ІН",
        "brand:wikidata": "Q63828668",
        "brand:wikipedia": "uk:Justin"
      }
    },
    {
      "displayName": "Европочта",
      "id": "4e1752-27cb18",
      "locationSet": {"include": ["001"]},
      "tags": {
        "amenity": "post_office",
        "brand": "Европочта",
        "name": "Европочта"
      }
    },
    {
      "displayName": "Еконт",
      "id": "27c606-628448",
      "locationSet": {"include": ["bg"]},
      "matchNames": ["econt", "ekont"],
      "tags": {
        "amenity": "post_office",
        "brand": "Еконт Експрес ЕООД",
        "brand:wikidata": "Q12279603",
        "brand:wikipedia": "bg:Еконт Експрес"
      }
    },
    {
      "displayName": "Интернет-магазин Евроопт",
      "id": "ca40c3-0051a6",
      "locationSet": {"include": ["by"]},
      "tags": {
        "amenity": "post_office",
        "brand": "Интернет-магазин Евроопт"
      }
    },
    {
      "displayName": "Ін-Тайм",
      "id": "ba4b41-b79583",
      "locationSet": {"include": ["ua"]},
      "tags": {
        "amenity": "post_office",
        "brand": "Ін-Тайм",
        "brand:wikidata": "Q12074387",
        "brand:wikipedia": "uk:Ін-Тайм"
      }
    },
    {
      "displayName": "Казпочта",
      "id": "c12bb7-89ac5b",
      "locationSet": {"include": ["kz"]},
      "tags": {
        "amenity": "post_office",
        "brand": "Казпочта",
        "brand:wikidata": "Q746263",
        "brand:wikipedia": "ru:Казпочта"
      }
    },
    {
      "displayName": "Македонска Пошта",
      "id": "7fe185-71f511",
      "locationSet": {"include": ["mk"]},
      "tags": {
        "amenity": "post_office",
        "brand": "Македонска Пошта",
        "brand:wikidata": "Q3209396",
        "brand:wikipedia": "mk:Македонска пошта"
      }
    },
    {
      "displayName": "Нова Пошта",
      "id": "530f2c-b79583",
      "locationSet": {"include": ["ua"]},
      "matchNames": [
        "нова пошта №1",
        "нова пошта №2",
        "нова пошта №3",
        "нова пошта №4",
        "нова пошта, відділення №1"
      ],
      "tags": {
        "amenity": "post_office",
        "brand": "Нова Пошта",
        "brand:wikidata": "Q12133863",
        "brand:wikipedia": "uk:Нова Пошта"
      }
    },
    {
      "displayName": "Почта Крыма",
      "id": "postofcrimea-4aef6a",
      "locationSet": {"include": ["crimea"]},
      "tags": {
        "amenity": "post_office",
        "brand": "Почта Крыма",
        "brand:en": "Post of Crimea",
        "brand:ru": "Почта Крыма",
        "brand:wikidata": "Q21193668",
        "brand:wikipedia": "ru:Почта Крыма"
      }
    },
    {
      "displayName": "Почта России",
      "id": "8e5a76-1328c6",
      "locationSet": {"include": ["ru"]},
      "matchNames": [
        "ао почта россии",
        "фгуп почта россии"
      ],
      "tags": {
        "amenity": "post_office",
        "brand": "Почта России",
        "brand:wikidata": "Q1502763",
        "brand:wikipedia": "ru:Почта России"
      }
    },
    {
      "displayName": "Пошта Србије",
      "id": "848860-59a7c7",
      "locationSet": {"include": ["rs"]},
      "tags": {
        "amenity": "post_office",
        "brand": "Пошта Србије",
        "brand:wikidata": "Q769311",
        "brand:wikipedia": "sr:Pošta Srbije"
      }
    },
    {
      "displayName": "СДЭК",
      "id": "5ac048-1328c6",
      "locationSet": {"include": ["ru"]},
      "tags": {
        "amenity": "post_office",
        "brand": "СДЭК",
        "brand:wikidata": "Q28665980",
        "brand:wikipedia": "ru:СДЭК"
      }
    },
    {
      "displayName": "УК \"СДЭК\"",
      "id": "386d0e-27cb18",
      "locationSet": {"include": ["001"]},
      "tags": {
        "amenity": "post_office",
        "brand": "УК \"СДЭК\""
      }
    },
    {
      "displayName": "Укрпошта",
      "id": "c8edb5-b79583",
      "locationSet": {"include": ["ua"]},
      "matchNames": ["ат укрпошта"],
      "tags": {
        "amenity": "post_office",
        "brand": "Укрпошта",
        "brand:ru": "Укрпочта",
        "brand:uk": "Укрпошта",
        "brand:wikidata": "Q2470783",
        "brand:wikipedia": "uk:Укрпошта"
      }
    },
    {
      "displayName": "דואר ישראל",
      "id": "israelpostalcompany-365007",
      "locationSet": {"include": ["il"]},
      "tags": {
        "amenity": "post_office",
        "brand": "דואר ישראל",
        "brand:en": "Israel Postal Company",
        "brand:he": "דואר ישראל",
        "brand:wikidata": "Q671700",
        "brand:wikipedia": "he:דואר ישראל"
      }
    },
    {
      "displayName": "البريد الإيراني",
      "id": "iranpost-69c7e5",
      "locationSet": {"include": ["ir"]},
      "tags": {
        "amenity": "post_office",
        "brand": "البريد الإيراني",
        "brand:ar": "البريد الإيراني",
        "brand:en": "Iran Post",
        "brand:wikidata": "Q6066851",
        "brand:wikipedia": "fa:شرکت ملی پست جمهوری اسلامی ایران"
      }
    },
    {
      "displayName": "우정사업본부",
      "id": "koreapost-00f598",
      "locationSet": {"include": ["kr"]},
      "tags": {
        "amenity": "post_office",
        "brand": "우정사업본부",
        "brand:en": "Korea Post",
        "brand:ko": "우정사업본부",
        "brand:wikidata": "Q483280",
        "brand:wikipedia": "ko:우정사업본부"
      }
    },
    {
      "displayName": "ヤマト運輸",
      "id": "yamatotransport-431759",
      "locationSet": {"include": ["jp"]},
      "tags": {
        "amenity": "post_office",
        "brand": "ヤマト運輸",
        "brand:en": "Yamato Transport",
        "brand:ja": "ヤマト運輸",
        "brand:wikidata": "Q6584353",
        "brand:wikipedia": "ja:ヤマト運輸"
      }
    },
    {
      "displayName": "中国邮政",
      "id": "chinapost-de5f7a",
      "locationSet": {"include": ["cn"]},
      "tags": {
        "amenity": "post_office",
        "brand": "中国邮政",
        "brand:en": "China Post",
        "brand:wikidata": "Q1066476",
        "brand:wikipedia": "en:China Post",
        "brand:zh": "中国邮政"
      }
    },
    {
      "displayName": "中華郵政",
      "id": "chunghwapost-4cfb78",
      "locationSet": {"include": ["tw"]},
      "matchNames": ["中華郵政公司", "中華郵政股份有限公司"],
      "tags": {
        "amenity": "post_office",
        "brand": "中華郵政",
        "brand:en": "Chunghwa Post",
        "brand:wikidata": "Q709259",
        "brand:wikipedia": "zh:中華郵政",
        "brand:zh": "中華郵政"
      }
    },
    {
      "displayName": "佐川急便",
      "id": "sagawaexpress-431759",
      "locationSet": {"include": ["jp"]},
      "tags": {
        "amenity": "post_office",
        "brand": "佐川急便",
        "brand:en": "Sagawa Express",
        "brand:ja": "佐川急便",
        "brand:wikidata": "Q7399082",
        "brand:wikipedia": "ja:佐川急便"
      }
    },
    {
      "displayName": "日本郵便",
      "id": "japanpost-431759",
      "locationSet": {"include": ["jp"]},
      "matchNames": [
        "日本郵便株式会社",
        "日本郵政",
        "日本郵政グループ",
        "日本郵政株式会社"
      ],
      "tags": {
        "amenity": "post_office",
        "brand": "日本郵便",
        "brand:en": "Japan Post",
        "brand:ja": "日本郵便",
        "brand:wikidata": "Q11509260",
        "brand:wikipedia": "ja:日本郵便",
        "short_name:en": "JP"
      }
    },
    {
      "displayName": "菜鸟驿站",
      "id": "cainiao-de5f7a",
      "locationSet": {"include": ["cn"]},
      "tags": {
        "amenity": "post_office",
        "brand": "菜鸟驿站",
        "brand:en": "CAI NIAO",
        "brand:wikidata": "Q16947973",
        "brand:wikipedia": "zh:菜鸟网络",
        "brand:zh": "菜鸟驿站"
      }
    },
    {
      "displayName": "香港郵政 Hongkong Post",
      "id": "hongkongpost-5291fc",
      "locationSet": {"include": ["hk"]},
      "tags": {
        "amenity": "post_office",
        "brand": "香港郵政 Hongkong Post",
        "brand:en": "Hongkong Post",
        "brand:wikidata": "Q196631",
        "brand:wikipedia": "zh:香港郵政",
        "brand:zh": "香港郵政"
      }
    }
  ]
}
