{
  "properties": {
    "path": "brands/amenity/pub",
    "exclude": {
      "generic": [
        "^(bar|bistro|pub)$",
        "^(commercial )?hotel$"
      ]
    }
  },
  "items": [
    {
      "displayName": "Bistrot",
      "id": "bistrot-296a9c",
      "locationSet": {"include": ["001"]},
      "tags": {
        "amenity": "pub",
        "brand": "Bistrot",
        "name": "Bistrot"
      }
    },
    {
      "displayName": "Black Horse",
      "id": "blackhorse-296a9c",
      "locationSet": {"include": ["001"]},
      "tags": {
        "amenity": "pub",
        "brand": "Black Horse",
        "name": "Black Horse"
      }
    },
    {
      "displayName": "Belhaven Pubs",
      "locationSet": {"include": ["gb"]},
      "tags": {
        "amenity": "pub",
        "brand": "Belhaven Pubs",
        "brand:wikidata": "Q105516156"
      }
    },
    {
      "displayName": "Brewers Fayre",
      "id": "brewersfayre-eaed91",
      "locationSet": {"include": ["gb"]},
      "tags": {
        "amenity": "pub",
        "brand": "Brewers Fayre",
        "brand:wikidata": "Q4962678",
        "brand:wikipedia": "en:Brewers Fayre",
        "cuisine": "british"
      }
    },
    {
      "displayName": "Buvette",
      "id": "buvette-296a9c",
      "locationSet": {"include": ["001"]},
      "tags": {
        "amenity": "pub",
        "brand": "Buvette",
        "name": "Buvette"
      }
    },
    {
      "displayName": "Cave",
      "id": "cave-296a9c",
      "locationSet": {"include": ["001"]},
      "tags": {
        "amenity": "pub",
        "brand": "Cave",
        "name": "Cave"
      }
    },
    {
      "displayName": "Chef & Brewer",
      "id": "chefandbrewer-eaed91",
      "locationSet": {"include": ["gb"]},
      "tags": {
        "amenity": "pub",
        "brand": "Chef & Brewer",
        "brand:wikidata": "Q5089491",
        "brand:wikipedia": "en:Chef & Brewer"
      }
    },
    {
      "displayName": "Coach and Horses",
      "id": "coachandhorses-296a9c",
      "locationSet": {"include": ["001"]},
      "tags": {
        "amenity": "pub",
        "brand": "Coach and Horses",
        "name": "Coach and Horses"
      }
    },
    {
      "displayName": "Cross Keys",
      "id": "crosskeys-296a9c",
      "locationSet": {"include": ["001"]},
      "tags": {
        "amenity": "pub",
        "brand": "Cross Keys",
        "name": "Cross Keys"
      }
    },
    {
      "displayName": "Crown Inn",
      "id": "crowninn-296a9c",
      "locationSet": {"include": ["001"]},
      "tags": {
        "amenity": "pub",
        "brand": "Crown Inn",
        "name": "Crown Inn"
      }
    },
    {
      "displayName": "Ezītis miglā",
      "id": "ezitismigla-f4b906",
      "locationSet": {"include": ["lv"]},
      "tags": {
        "amenity": "pub",
        "brand": "Ezītis miglā",
        "name": "Ezītis miglā"
      }
    },
    {
      "displayName": "Fuller's",
      "id": "fullers-eaed91",
      "locationSet": {"include": ["gb"]},
      "note": "No name for Fuller's brand as each pub is named differently.",
      "tags": {
        "amenity": "pub",
        "brand": "Fuller's",
        "brand:wikidata": "Q5253950",
        "brand:wikipedia": "en:Fuller's Brewery"
      }
    },
    {
      "displayName": "Greene King",
      "id": "greeneking-eaed91",
      "locationSet": {"include": ["gb"]},
      "note": "No name for Greene King's brand as each pub is named differently.",
      "tags": {
        "amenity": "pub",
        "brand": "Greene King",
        "brand:wikidata": "Q5564162",
        "brand:wikipedia": "en:Greene King"
      }
    },
    {
      "displayName": "Hall & Woodhouse",
      "id": "hallandwoodhouse-eaed91",
      "locationSet": {"include": ["gb"]},
      "tags": {
        "amenity": "pub",
        "brand": "Hall & Woodhouse",
        "brand:wikidata": "Q5642555",
        "brand:wikipedia": "en:Hall & Woodhouse"
      }
    },
    {
      "displayName": "Hungry Horse",
      "id": "hungryhorse-eaed91",
      "locationSet": {"include": ["gb"]},
      "tags": {
        "amenity": "pub",
        "brand": "Hungry Horse",
        "brand:wikidata": "Q5943510",
        "brand:wikipedia": "en:Hungry Horse"
      }
    },
    {
      "displayName": "Irish Pub",
      "id": "irishpub-296a9c",
      "locationSet": {"include": ["001"]},
      "tags": {
        "amenity": "pub",
        "brand": "Irish Pub",
        "name": "Irish Pub"
      }
    },
    {
      "displayName": "Italbolt",
      "id": "italbolt-296a9c",
      "locationSet": {"include": ["001"]},
      "tags": {
        "amenity": "pub",
        "brand": "Italbolt",
        "name": "Italbolt"
      }
    },
    {
      "displayName": "Kings Arms",
      "id": "kingsarms-296a9c",
      "locationSet": {"include": ["001"]},
      "tags": {
        "amenity": "pub",
        "brand": "Kings Arms",
        "name": "Kings Arms"
      }
    },
    {
      "displayName": "Kings Head",
      "id": "kingshead-296a9c",
      "locationSet": {"include": ["001"]},
      "tags": {
        "amenity": "pub",
        "brand": "Kings Head",
        "name": "Kings Head"
      }
    },
    {
      "displayName": "Kocsma",
      "id": "kocsma-296a9c",
      "locationSet": {"include": ["001"]},
      "tags": {
        "amenity": "pub",
        "brand": "Kocsma",
        "name": "Kocsma"
      }
    },
    {
      "displayName": "Maquis",
      "id": "maquis-296a9c",
      "locationSet": {"include": ["001"]},
      "tags": {
        "amenity": "pub",
        "brand": "Maquis",
        "name": "Maquis"
      }
    },
    {
      "displayName": "MásQMenos",
      "id": "masqmenos-575688",
      "locationSet": {
        "include": ["es", "fr", "gb"]
      },
      "tags": {
        "amenity": "pub",
        "brand": "MásQMenos",
        "brand:wikidata": "Q98504930",
        "cuisine": "tapas",
        "name": "MásQMenos"
      }
    },
    {
      "displayName": "New Inn",
      "id": "newinn-296a9c",
      "locationSet": {"include": ["001"]},
      "tags": {
        "amenity": "pub",
        "brand": "New Inn",
        "name": "New Inn"
      }
    },
    {
      "displayName": "Pitcher & Piano",
      "id": "pitcherandpiano-eaed91",
      "locationSet": {"include": ["gb"]},
      "tags": {
        "amenity": "pub",
        "brand": "Pitcher & Piano",
        "brand:wikidata": "Q65930663",
        "cuisine": "british",
        "name": "Pitcher & Piano"
      }
    },
    {
      "displayName": "Prince of Wales",
      "id": "princeofwales-296a9c",
      "locationSet": {"include": ["001"]},
      "tags": {
        "amenity": "pub",
        "brand": "Prince of Wales",
        "name": "Prince of Wales"
      }
    },
    {
      "displayName": "Queens Head",
      "id": "queenshead-296a9c",
      "locationSet": {"include": ["001"]},
      "tags": {
        "amenity": "pub",
        "brand": "Queens Head",
        "name": "Queens Head"
      }
    },
    {
      "displayName": "Red Lion",
      "id": "redlion-296a9c",
      "locationSet": {"include": ["001"]},
      "tags": {
        "amenity": "pub",
        "brand": "Red Lion",
        "name": "Red Lion"
      }
    },
    {
      "displayName": "Rose & Crown",
      "id": "roseandcrown-296a9c",
      "locationSet": {"include": ["001"]},
      "tags": {
        "amenity": "pub",
        "brand": "Rose & Crown",
        "name": "Rose & Crown"
      }
    },
    {
      "displayName": "Royal Hotel",
      "id": "royalhotel-296a9c",
      "locationSet": {"include": ["001"]},
      "tags": {
        "amenity": "pub",
        "brand": "Royal Hotel",
        "name": "Royal Hotel"
      }
    },
    {
      "displayName": "Royal Oak",
      "id": "royaloak-296a9c",
      "locationSet": {"include": ["001"]},
      "tags": {
        "amenity": "pub",
        "brand": "Royal Oak",
        "name": "Royal Oak"
      }
    },
    {
      "displayName": "Söröző",
      "id": "sorozo-296a9c",
      "locationSet": {"include": ["001"]},
      "tags": {
        "amenity": "pub",
        "brand": "Söröző",
        "name": "Söröző"
      }
    },
    {
      "displayName": "The Anchor",
      "id": "theanchor-296a9c",
      "locationSet": {"include": ["001"]},
      "tags": {
        "amenity": "pub",
        "brand": "The Anchor",
        "name": "The Anchor"
      }
    },
    {
      "displayName": "The Angel",
      "id": "theangel-296a9c",
      "locationSet": {"include": ["001"]},
      "tags": {
        "amenity": "pub",
        "brand": "The Angel",
        "name": "The Angel"
      }
    },
    {
      "displayName": "The Beehive",
      "id": "thebeehive-296a9c",
      "locationSet": {"include": ["001"]},
      "tags": {
        "amenity": "pub",
        "brand": "The Beehive",
        "name": "The Beehive"
      }
    },
    {
      "displayName": "The Bell",
      "id": "thebell-296a9c",
      "locationSet": {"include": ["001"]},
      "tags": {
        "amenity": "pub",
        "brand": "The Bell",
        "name": "The Bell"
      }
    },
    {
      "displayName": "The Bell Inn",
      "id": "thebellinn-296a9c",
      "locationSet": {"include": ["001"]},
      "tags": {
        "amenity": "pub",
        "brand": "The Bell Inn",
        "name": "The Bell Inn"
      }
    },
    {
      "displayName": "The Black Bull",
      "id": "theblackbull-296a9c",
      "locationSet": {"include": ["001"]},
      "tags": {
        "amenity": "pub",
        "brand": "The Black Bull",
        "name": "The Black Bull"
      }
    },
    {
      "displayName": "The Black Horse",
      "id": "theblackhorse-296a9c",
      "locationSet": {"include": ["001"]},
      "tags": {
        "amenity": "pub",
        "brand": "The Black Horse",
        "name": "The Black Horse"
      }
    },
    {
      "displayName": "The Bull",
      "id": "thebull-296a9c",
      "locationSet": {"include": ["001"]},
      "tags": {
        "amenity": "pub",
        "brand": "The Bull",
        "name": "The Bull"
      }
    },
    {
      "displayName": "The Castle",
      "id": "thecastle-296a9c",
      "locationSet": {"include": ["001"]},
      "tags": {
        "amenity": "pub",
        "brand": "The Castle",
        "name": "The Castle"
      }
    },
    {
      "displayName": "The Chequers",
      "id": "thechequers-296a9c",
      "locationSet": {"include": ["001"]},
      "tags": {
        "amenity": "pub",
        "brand": "The Chequers",
        "name": "The Chequers"
      }
    },
    {
      "displayName": "The Cricketers",
      "id": "thecricketers-296a9c",
      "locationSet": {"include": ["001"]},
      "tags": {
        "amenity": "pub",
        "brand": "The Cricketers",
        "name": "The Cricketers"
      }
    },
    {
      "displayName": "The Cross Keys",
      "id": "thecrosskeys-296a9c",
      "locationSet": {"include": ["001"]},
      "tags": {
        "amenity": "pub",
        "brand": "The Cross Keys",
        "name": "The Cross Keys"
      }
    },
    {
      "displayName": "The Crown",
      "id": "thecrown-296a9c",
      "locationSet": {"include": ["001"]},
      "tags": {
        "amenity": "pub",
        "brand": "The Crown",
        "name": "The Crown"
      }
    },
    {
      "displayName": "The Crown Inn",
      "id": "thecrowninn-296a9c",
      "locationSet": {"include": ["001"]},
      "tags": {
        "amenity": "pub",
        "brand": "The Crown Inn",
        "name": "The Crown Inn"
      }
    },
    {
      "displayName": "The Fox",
      "id": "thefox-296a9c",
      "locationSet": {"include": ["001"]},
      "tags": {
        "amenity": "pub",
        "brand": "The Fox",
        "name": "The Fox"
      }
    },
    {
      "displayName": "The George",
      "id": "thegeorge-296a9c",
      "locationSet": {"include": ["001"]},
      "tags": {
        "amenity": "pub",
        "brand": "The George",
        "name": "The George"
      }
    },
    {
      "displayName": "The Green Man",
      "id": "thegreenman-296a9c",
      "locationSet": {"include": ["001"]},
      "tags": {
        "amenity": "pub",
        "brand": "The Green Man",
        "name": "The Green Man"
      }
    },
    {
      "displayName": "The Greyhound",
      "id": "thegreyhound-296a9c",
      "locationSet": {"include": ["001"]},
      "tags": {
        "amenity": "pub",
        "brand": "The Greyhound",
        "name": "The Greyhound"
      }
    },
    {
      "displayName": "The Kings Arms",
      "id": "thekingsarms-296a9c",
      "locationSet": {"include": ["001"]},
      "tags": {
        "amenity": "pub",
        "brand": "The Kings Arms",
        "name": "The Kings Arms"
      }
    },
    {
      "displayName": "The Kings Head",
      "id": "thekingshead-296a9c",
      "locationSet": {"include": ["001"]},
      "tags": {
        "amenity": "pub",
        "brand": "The Kings Head",
        "name": "The Kings Head"
      }
    },
    {
      "displayName": "The New Inn",
      "id": "thenewinn-296a9c",
      "locationSet": {"include": ["001"]},
      "tags": {
        "amenity": "pub",
        "brand": "The New Inn",
        "name": "The New Inn"
      }
    },
    {
      "displayName": "The Plough",
      "id": "theplough-296a9c",
      "locationSet": {"include": ["001"]},
      "tags": {
        "amenity": "pub",
        "brand": "The Plough",
        "name": "The Plough"
      }
    },
    {
      "displayName": "The Plough Inn",
      "id": "theploughinn-296a9c",
      "locationSet": {"include": ["001"]},
      "tags": {
        "amenity": "pub",
        "brand": "The Plough Inn",
        "name": "The Plough Inn"
      }
    },
    {
      "displayName": "The Pub",
      "id": "thepub-296a9c",
      "locationSet": {"include": ["001"]},
      "tags": {
        "amenity": "pub",
        "brand": "The Pub",
        "name": "The Pub"
      }
    },
    {
      "displayName": "The Queens Head",
      "id": "thequeenshead-296a9c",
      "locationSet": {"include": ["001"]},
      "tags": {
        "amenity": "pub",
        "brand": "The Queens Head",
        "name": "The Queens Head"
      }
    },
    {
      "displayName": "The Railway",
      "id": "therailway-296a9c",
      "locationSet": {"include": ["001"]},
      "tags": {
        "amenity": "pub",
        "brand": "The Railway",
        "name": "The Railway"
      }
    },
    {
      "displayName": "The Red Lion",
      "id": "theredlion-296a9c",
      "locationSet": {"include": ["001"]},
      "tags": {
        "amenity": "pub",
        "brand": "The Red Lion",
        "name": "The Red Lion"
      }
    },
    {
      "displayName": "The Rising Sun",
      "id": "therisingsun-296a9c",
      "locationSet": {"include": ["001"]},
      "tags": {
        "amenity": "pub",
        "brand": "The Rising Sun",
        "name": "The Rising Sun"
      }
    },
    {
      "displayName": "The Royal Oak",
      "id": "theroyaloak-296a9c",
      "locationSet": {"include": ["001"]},
      "tags": {
        "amenity": "pub",
        "brand": "The Royal Oak",
        "name": "The Royal Oak"
      }
    },
    {
      "displayName": "The Ship",
      "id": "theship-296a9c",
      "locationSet": {"include": ["001"]},
      "tags": {
        "amenity": "pub",
        "brand": "The Ship",
        "name": "The Ship"
      }
    },
    {
      "displayName": "The Ship Inn",
      "id": "theshipinn-296a9c",
      "locationSet": {"include": ["001"]},
      "tags": {
        "amenity": "pub",
        "brand": "The Ship Inn",
        "name": "The Ship Inn"
      }
    },
    {
      "displayName": "The Star",
      "id": "thestar-296a9c",
      "locationSet": {"include": ["001"]},
      "tags": {
        "amenity": "pub",
        "brand": "The Star",
        "name": "The Star"
      }
    },
    {
      "displayName": "The Star Inn",
      "id": "thestarinn-296a9c",
      "locationSet": {"include": ["001"]},
      "tags": {
        "amenity": "pub",
        "brand": "The Star Inn",
        "name": "The Star Inn"
      }
    },
    {
      "displayName": "The Sun Inn",
      "id": "thesuninn-296a9c",
      "locationSet": {"include": ["001"]},
      "tags": {
        "amenity": "pub",
        "brand": "The Sun Inn",
        "name": "The Sun Inn"
      }
    },
    {
      "displayName": "The Swan",
      "id": "theswan-296a9c",
      "locationSet": {"include": ["001"]},
      "tags": {
        "amenity": "pub",
        "brand": "The Swan",
        "name": "The Swan"
      }
    },
    {
      "displayName": "The Swan Inn",
      "id": "theswaninn-296a9c",
      "locationSet": {"include": ["001"]},
      "tags": {
        "amenity": "pub",
        "brand": "The Swan Inn",
        "name": "The Swan Inn"
      }
    },
    {
      "displayName": "The Victoria",
      "id": "thevictoria-296a9c",
      "locationSet": {"include": ["001"]},
      "tags": {
        "amenity": "pub",
        "brand": "The Victoria",
        "name": "The Victoria"
      }
    },
    {
      "displayName": "The Wheatsheaf",
      "id": "thewheatsheaf-296a9c",
      "locationSet": {"include": ["001"]},
      "tags": {
        "amenity": "pub",
        "brand": "The Wheatsheaf",
        "name": "The Wheatsheaf"
      }
    },
    {
      "displayName": "The White Hart",
      "id": "thewhitehart-296a9c",
      "locationSet": {"include": ["001"]},
      "tags": {
        "amenity": "pub",
        "brand": "The White Hart",
        "name": "The White Hart"
      }
    },
    {
      "displayName": "The White Horse",
      "id": "thewhitehorse-296a9c",
      "locationSet": {"include": ["001"]},
      "tags": {
        "amenity": "pub",
        "brand": "The White Horse",
        "name": "The White Horse"
      }
    },
    {
      "displayName": "The White Lion",
      "id": "thewhitelion-296a9c",
      "locationSet": {"include": ["001"]},
      "tags": {
        "amenity": "pub",
        "brand": "The White Lion",
        "name": "The White Lion"
      }
    },
    {
      "displayName": "The White Swan",
      "id": "thewhiteswan-296a9c",
      "locationSet": {"include": ["001"]},
      "tags": {
        "amenity": "pub",
        "brand": "The White Swan",
        "name": "The White Swan"
      }
    },
    {
      "displayName": "The Windmill",
      "id": "thewindmill-296a9c",
      "locationSet": {"include": ["001"]},
      "tags": {
        "amenity": "pub",
        "brand": "The Windmill",
        "name": "The Windmill"
      }
    },
    {
      "displayName": "Toddy Shop",
      "id": "toddyshop-fb2db4",
      "locationSet": {"include": ["in"]},
      "tags": {
        "amenity": "pub",
        "brand": "Toddy Shop",
        "brand:wikidata": "Q7812761",
        "brand:wikipedia": "en:Toddy shop",
        "drink:palm_wine": "yes",
        "name": "Toddy Shop"
      }
    },
    {
      "displayName": "Walkabout",
      "id": "walkabout-eaed91",
      "locationSet": {"include": ["gb"]},
      "tags": {
        "amenity": "pub",
        "brand": "Walkabout",
        "brand:wikidata": "Q7962149",
        "brand:wikipedia": "en:Walkabout (pub chain)",
        "name": "Walkabout"
      }
    },
    {
      "displayName": "Wetherspoon",
      "id": "wetherspoon-eaed91",
      "locationSet": {"include": ["gb"]},
      "matchNames": [
        "jd wetherspoon",
        "jd wetherspoons",
        "wetherspoons"
      ],
      "note": "Company is known as 'JD Wetherspoon', but current branding seems to be just 'Wetherspoon' as of Sept 2020. No social media is available for this brand, no name is set as each pub is named differently.",
      "tags": {
        "amenity": "pub",
        "brand": "Wetherspoon",
        "brand:wikidata": "Q6109362",
        "brand:wikipedia": "en:Wetherspoons"
      }
    },
    {
      "displayName": "White Hart",
      "id": "whitehart-296a9c",
      "locationSet": {"include": ["001"]},
      "tags": {
        "amenity": "pub",
        "brand": "White Hart",
        "name": "White Hart"
      }
    },
    {
      "displayName": "White Horse",
      "id": "whitehorse-296a9c",
      "locationSet": {"include": ["001"]},
      "tags": {
        "amenity": "pub",
        "brand": "White Horse",
        "name": "White Horse"
      }
    },
    {
      "displayName": "Young's",
      "id": "youngs-72d0dd",
      "locationSet": {"include": ["gb-eng"]},
      "tags": {
        "amenity": "pub",
        "brand": "Young's",
        "brand:wikidata": "Q8057802",
        "brand:wikipedia": "en:Young's"
      }
    },
    {
      "displayName": "つぼ八",
      "id": "tsubohachi-0435b9",
      "locationSet": {"include": ["jp"]},
      "tags": {
        "amenity": "pub",
        "brand": "つぼ八",
        "brand:en": "Tsubohachi",
        "brand:ja": "つぼ八",
        "brand:wikidata": "Q11272459",
        "brand:wikipedia": "ja:つぼ八",
        "name": "つぼ八",
        "name:en": "Tsubohachi",
        "name:ja": "つぼ八"
      }
    },
    {
      "displayName": "はなの舞",
      "id": "hananomai-0435b9",
      "locationSet": {"include": ["jp"]},
      "tags": {
        "amenity": "pub",
        "brand": "はなの舞",
        "brand:en": "Hananomai",
        "brand:ja": "はなの舞",
        "brand:wikidata": "Q88384850",
        "name": "はなの舞",
        "name:en": "Hananomai",
        "name:ja": "はなの舞"
      }
    },
    {
      "displayName": "和民",
      "id": "watami-0435b9",
      "locationSet": {"include": ["jp"]},
      "tags": {
        "amenity": "pub",
        "brand": "和民",
        "brand:en": "Watami",
        "brand:ja": "和民",
        "brand:wikidata": "Q10921591",
        "brand:wikipedia": "ja:ワタミ",
        "name": "和民",
        "name:en": "Watami",
        "name:ja": "和民"
      }
    },
    {
      "displayName": "庄や",
      "id": "5d7ca5-296a9c",
      "locationSet": {"include": ["001"]},
      "tags": {
        "amenity": "pub",
        "brand": "庄や",
        "brand:ja": "庄や",
        "name": "庄や",
        "name:ja": "庄や"
      }
    },
    {
      "displayName": "白木屋",
      "id": "shirokiya-0435b9",
      "locationSet": {"include": ["jp"]},
      "tags": {
        "amenity": "pub",
        "brand": "白木屋",
        "brand:en": "Shirokiya",
        "brand:ja": "白木屋",
        "brand:wikidata": "Q489746",
        "brand:wikipedia": "ja:白木屋 (居酒屋)",
        "name": "白木屋",
        "name:en": "Shirokiya",
        "name:ja": "白木屋"
      }
    },
    {
      "displayName": "笑笑",
      "id": "warawara-0435b9",
      "locationSet": {"include": ["jp"]},
      "tags": {
        "amenity": "pub",
        "brand": "笑笑",
        "brand:en": "Warawara",
        "brand:ja": "笑笑",
        "brand:wikidata": "Q87214327",
        "name": "笑笑",
        "name:en": "Warawara",
        "name:ja": "笑笑"
      }
    },
    {
      "displayName": "風来坊",
      "id": "furaibo-0435b9",
      "locationSet": {"include": ["jp"]},
      "tags": {
        "amenity": "pub",
        "brand": "風来坊",
        "brand:en": "Furaibo",
        "brand:ja": "風来坊",
        "brand:wikidata": "Q22129759",
        "brand:wikipedia": "ja:風来坊 (愛知県)",
        "name": "風来坊",
        "name:en": "Furaibo",
        "name:ja": "風来坊"
      }
    },
    {
      "displayName": "養老乃瀧",
      "id": "yoronotaki-0435b9",
      "locationSet": {"include": ["jp"]},
      "tags": {
        "amenity": "pub",
        "brand": "養老乃瀧",
        "brand:en": "Yoronotaki",
        "brand:ja": "養老乃瀧",
        "brand:wikidata": "Q11666874",
        "brand:wikipedia": "ja:養老乃瀧",
        "name": "養老乃瀧",
        "name:en": "Yoronotaki",
        "name:ja": "養老乃瀧"
      }
    },
    {
      "displayName": "魚民",
      "id": "uotami-0435b9",
      "locationSet": {"include": ["jp"]},
      "tags": {
        "amenity": "pub",
        "brand": "魚民",
        "brand:en": "Uotami",
        "brand:ja": "魚民",
        "brand:wikidata": "Q11673981",
        "brand:wikipedia": "ja:魚民",
        "name": "魚民",
        "name:en": "Uotami",
        "name:ja": "魚民"
      }
    },
    {
      "displayName": "鳥貴族",
      "id": "torikizoku-0435b9",
      "locationSet": {"include": ["jp"]},
      "tags": {
        "amenity": "pub",
        "brand": "鳥貴族",
        "brand:en": "Torikizoku",
        "brand:ja": "鳥貴族",
        "brand:wikidata": "Q11675129",
        "brand:wikipedia": "ja:鳥貴族",
        "name": "鳥貴族",
        "name:en": "Torikizoku",
        "name:ja": "鳥貴族"
      }
    }
  ]
}
