{
  "properties": {
    "path": "brands/amenity/public_bookcase",
    "exclude": {
      "generic": [
        "^(public bookcase|boîte à livres|(offener )?bücherschrank)$"
      ]
    }
  },
  "items": [
    {
      "displayName": "Boite à livres",
      "id": "boitealivres-6e8312",
      "locationSet": {"include": ["001"]},
      "tags": {
        "amenity": "public_bookcase",
        "brand": "Boite à livres",
        "name": "Boite à livres"
      }
    },
    {
      "displayName": "Official BookCrossing Zone (OBCZ)",
      "id": "bookcrossing-6e8312",
      "locationSet": {"include": ["001"]},
      "tags": {
        "amenity": "public_bookcase",
        "brand": "BookCrossing",
        "brand:wikidata": "Q324286",
        "name": "OBCZ"
      }
    },
    {
      "displayName": "Bücherzelle",
      "id": "bucherzelle-6e8312",
      "locationSet": {"include": ["001"]},
      "tags": {
        "amenity": "public_bookcase",
        "brand": "Bücherzelle",
        "name": "Bücherzelle"
      }
    },
    {
      "displayName": "KinderzwerfboekStation",
      "id": "kinderzwerfboek-6e8312",
      "locationSet": {"include": ["001"]},
      "tags": {
        "amenity": "public_bookcase",
        "brand": "Kinderzwerfboek",
        "name": "KinderzwerfboekStation",
        "books": "children"
      }
    },
    {
      "displayName": "Little Free Library",
      "id": "littlefreelibrary-6e8312",
      "locationSet": {"include": ["001"]},
      "tags": {
        "amenity": "public_bookcase",
        "brand": "Little Free Library",
        "brand:wikidata": "Q6650101",
        "name": "Little Free Library"
      }
    },
    {
      "displayName": "Minibieb",
      "id": "minibieb-6e8312",
      "locationSet": {"include": ["001"]},
      "tags": {
        "amenity": "public_bookcase",
        "brand": "Minibieb",
        "name": "Minibieb"
      }
    },
    {
      "displayName": "Street Library",
      "id": "streetlibrary-ff483e",
      "locationSet": {"include": ["au"]},
      "tags": {
        "amenity": "public_bookcase",
        "brand": "Street Library",
        "brand:wikidata": "Q110910587",
        "name": "Street Library"
      }
    }
  ]
}
