{
  "properties": {
    "path": "brands/amenity/recycling",
    "exclude": {
      "generic": [
        "^d[ée]ch[èe]tt?erie$",
        "^recycling$"
      ]
    }
  },
  "items": [
    {
      "displayName": "Bauhof",
      "id": "bauhof-247680",
      "locationSet": {"include": ["001"]},
      "tags": {
        "amenity": "recycling",
        "brand": "Bauhof",
        "name": "Bauhof"
      }
    },
    {
      "displayName": "Biotonne",
      "id": "biotonne-247680",
      "locationSet": {"include": ["001"]},
      "tags": {
        "amenity": "recycling",
        "brand": "Biotonne",
        "name": "Biotonne"
      }
    },
    {
      "displayName": "Ecocentro",
      "id": "ecocentro-247680",
      "locationSet": {"include": ["001"]},
      "tags": {
        "amenity": "recycling",
        "brand": "Ecocentro",
        "name": "Ecocentro"
      }
    },
    {
      "displayName": "Ecoilha Subterrânea",
      "id": "ecoilhasubterranea-247680",
      "locationSet": {"include": ["001"]},
      "tags": {
        "amenity": "recycling",
        "brand": "Ecoilha Subterrânea",
        "name": "Ecoilha Subterrânea"
      }
    },
    {
      "displayName": "Ecoponto",
      "id": "ecoponto-247680",
      "locationSet": {"include": ["001"]},
      "tags": {
        "amenity": "recycling",
        "brand": "Ecoponto",
        "name": "Ecoponto"
      }
    },
    {
      "displayName": "Glascontainer",
      "id": "glascontainer-247680",
      "locationSet": {"include": ["001"]},
      "tags": {
        "amenity": "recycling",
        "brand": "Glascontainer",
        "name": "Glascontainer"
      }
    },
    {
      "displayName": "Isola Ecologica",
      "id": "isolaecologica-247680",
      "locationSet": {"include": ["001"]},
      "tags": {
        "amenity": "recycling",
        "brand": "Isola Ecologica",
        "name": "Isola Ecologica"
      }
    },
    {
      "displayName": "Planet Aid",
      "id": "planetaid-f8d7ba",
      "locationSet": {"include": ["us"]},
      "tags": {
        "amenity": "recycling",
        "brand": "Planet Aid",
        "brand:wikidata": "Q7201055",
        "brand:wikipedia": "en:Planet Aid",
        "name": "Planet Aid",
        "recycling_type": "container",
        "recycling:clothes": "yes",
        "recycling:shoes": "yes"
      }
    },
    {
      "displayName": "Punto Limpio",
      "id": "puntolimpio-247680",
      "locationSet": {"include": ["001"]},
      "tags": {
        "amenity": "recycling",
        "brand": "Punto Limpio",
        "name": "Punto Limpio"
      }
    },
    {
      "displayName": "Recyclinghof",
      "id": "recyclinghof-247680",
      "locationSet": {"include": ["001"]},
      "tags": {
        "amenity": "recycling",
        "brand": "Recyclinghof",
        "name": "Recyclinghof"
      }
    },
    {
      "displayName": "Saint Vincent de Paul",
      "id": "saintvincentdepaul-f8d7ba",
      "locationSet": {"include": ["us"]},
      "matchNames": ["st vincent de paul"],
      "tags": {
        "amenity": "recycling",
        "brand": "Saint Vincent de Paul",
        "brand:wikidata": "Q66581837",
        "name": "Saint Vincent de Paul",
        "recycling:clothes": "yes",
        "recycling:shoes": "yes",
        "short_name": "SVdP"
      }
    },
    {
      "displayName": "Sběrný dvůr",
      "id": "sbernydvur-247680",
      "locationSet": {"include": ["001"]},
      "tags": {
        "amenity": "recycling",
        "brand": "Sběrný dvůr",
        "name": "Sběrný dvůr"
      }
    },
    {
      "displayName": "The Salvation Army",
      "id": "thesalvationarmy-f8d7ba",
      "locationSet": {"include": ["us"]},
      "matchNames": ["salvation army"],
      "tags": {
        "amenity": "recycling",
        "brand": "The Salvation Army",
        "brand:wikidata": "Q188307",
        "brand:wikipedia": "en:The Salvation Army",
        "name": "The Salvation Army",
        "recycling:clothes": "yes"
      }
    },
    {
      "displayName": "Verre",
      "id": "verre-247680",
      "locationSet": {"include": ["001"]},
      "tags": {
        "amenity": "recycling",
        "brand": "Verre",
        "name": "Verre"
      }
    },
    {
      "displayName": "Wertstoffhof",
      "id": "wertstoffhof-247680",
      "locationSet": {"include": ["001"]},
      "tags": {
        "amenity": "recycling",
        "brand": "Wertstoffhof",
        "name": "Wertstoffhof"
      }
    },
    {
      "displayName": "Экобокс",
      "id": "89a4e1-247680",
      "locationSet": {"include": ["001"]},
      "tags": {
        "amenity": "recycling",
        "brand": "Экобокс",
        "name": "Экобокс"
      }
    },
    {
      "displayName": "سطل زباله",
      "id": "db721a-247680",
      "locationSet": {"include": ["001"]},
      "tags": {
        "amenity": "recycling",
        "brand": "سطل زباله",
        "name": "سطل زباله"
      }
    }
  ]
}
