{
  "properties": {
    "path": "brands/amenity/veterinary",
    "exclude": {
      "generic": [
        "^(cl[ií]nica )?veterinari[ao]$",
        "^(clinique )?vétérinaire$",
        "^veterinary$",
        "^ветеринарная клиника$",
        "^ветлечебница$"
      ]
    }
  },
  "items": [
    {
      "displayName": "Banfield Pet Hospital",
      "id": "banfieldpethospital-146b24",
      "locationSet": {"include": ["us"]},
      "tags": {
        "amenity": "veterinary",
        "brand": "Banfield Pet Hospital",
        "brand:wikidata": "Q2882416",
        "brand:wikipedia": "en:Banfield Pet Hospital",
        "name": "Banfield Pet Hospital"
      }
    },
    {
      "displayName": "Blue Cross Pet Clinic",
      "id": "bluecrosspetclinic-45f750",
      "locationSet": {"include": ["gb"]},
      "tags": {
        "amenity": "veterinary",
        "brand": "Blue Cross",
        "brand:wikidata": "Q3520039",
        "brand:wikipedia": "en:Blue Cross (animal charity)",
        "name": "Blue Cross Pet Clinic"
      }
    },
    {
      "displayName": "Tierarztpraxis",
      "id": "tierarztpraxis-ae5565",
      "locationSet": {"include": ["001"]},
      "tags": {
        "amenity": "veterinary",
        "brand": "Tierarztpraxis",
        "name": "Tierarztpraxis"
      }
    },
    {
      "displayName": "VCA Animal Hospital",
      "id": "vcaanimalhospital-e02471",
      "locationSet": {"include": ["ca", "us"]},
      "tags": {
        "amenity": "veterinary",
        "brand": "VCA Animal Hospital",
        "brand:wikidata": "Q7906620",
        "brand:wikipedia": "en:VCA Animal Hospitals",
        "name": "VCA Animal Hospital"
      }
    },
    {
      "displayName": "Vets4Pets",
      "id": "vets4pets-45f750",
      "locationSet": {"include": ["gb"]},
      "tags": {
        "amenity": "veterinary",
        "brand": "Vets4Pets",
        "brand:wikidata": "Q16960196",
        "brand:wikipedia": "en:Vets4pets",
        "name": "Vets4Pets"
      }
    }
  ]
}
