{
  "properties": {
    "path": "operators/highway/street_lamp",
    "exclude": {"generic": ["^street_lamp$"]}
  },
  "items": [
    {
      "displayName": "CenterPoint Energy",
      "id": "centerpointenergy-794e30",
      "locationSet": {"include": ["us"]},
      "tags": {
        "highway": "street_lamp",
        "operator": "CenterPoint Energy",
        "operator:wikidata": "Q1053560"
      }
    },
    {
      "displayName": "City of Rochester (New York)",
      "id": "cityofrochester-36d8ba",
      "locationSet": {
        "include": ["us-ny.geojson"]
      },
      "tags": {
        "highway": "street_lamp",
        "operator": "City of Rochester",
        "operator:wikidata": "Q49218"
      }
    },
    {
      "displayName": "Puget Sound Energy",
      "id": "pugetsoundenergy-2e474f",
      "locationSet": {
        "include": ["us-wa.geojson"]
      },
      "tags": {
        "highway": "street_lamp",
        "operator": "Puget Sound Energy",
        "operator:short": "PSE",
        "operator:wikidata": "Q7258927"
      }
    },
    {
      "displayName": "Rochester Gas & Electric",
      "id": "rochestergasandelectric-36d8ba",
      "locationSet": {
        "include": ["us-ny.geojson"]
      },
      "matchNames": ["rg&e"],
      "tags": {
        "highway": "street_lamp",
        "operator": "Rochester Gas & Electric",
        "operator:wikidata": "Q125472940"
      }
    },
    {
      "displayName": "Seattle City Light",
      "id": "seattlecitylight-2e474f",
      "locationSet": {
        "include": ["us-wa.geojson"]
      },
      "tags": {
        "highway": "street_lamp",
        "operator": "Seattle City Light",
        "operator:short": "SCL",
        "operator:wikidata": "Q7442080"
      }
    }
  ]
}
