{
  "operators/amenity/bicycle_rental": [
    {
      "displayName": "[TO]BIKE",
      "id": "tobike-6c5ffb",
      "locationSet": {"include": ["001"]},
      "tags": {
        "amenity": "bicycle_rental",
        "operator": "[TO]BIKE"
      }
    },
    {
      "displayName": "ADFC",
      "id": "adfc-6c5ffb",
      "locationSet": {"include": ["001"]},
      "tags": {
        "amenity": "bicycle_rental",
        "operator": "ADFC"
      }
    },
    {
      "displayName": "Ajuntament Castelló, Mobilitat",
      "id": "ajuntamentcastellomobilitat-6c5ffb",
      "locationSet": {"include": ["001"]},
      "tags": {
        "amenity": "bicycle_rental",
        "operator": "Ajuntament Castelló, Mobilitat"
      }
    },
    {
      "displayName": "Alta Bike Share",
      "id": "altabikeshare-6c5ffb",
      "locationSet": {"include": ["001"]},
      "tags": {
        "amenity": "bicycle_rental",
        "operator": "Alta Bike Share"
      }
    },
    {
      "displayName": "An Rothar Nua",
      "id": "anrotharnua-6c5ffb",
      "locationSet": {"include": ["001"]},
      "tags": {
        "amenity": "bicycle_rental",
        "operator": "An Rothar Nua"
      }
    },
    {
      "displayName": "Antik Telecom",
      "id": "antiktelecom-6c5ffb",
      "locationSet": {"include": ["001"]},
      "tags": {
        "amenity": "bicycle_rental",
        "operator": "Antik Telecom"
      }
    },
    {
      "displayName": "Area Blu",
      "id": "areablu-6c5ffb",
      "locationSet": {"include": ["001"]},
      "tags": {
        "amenity": "bicycle_rental",
        "operator": "Area Blu"
      }
    },
    {
      "displayName": "Århus Kommune",
      "id": "arhuskommune-6c5ffb",
      "locationSet": {"include": ["001"]},
      "tags": {
        "amenity": "bicycle_rental",
        "operator": "Århus Kommune"
      }
    },
    {
      "displayName": "ATB Bergamo",
      "id": "atbbergamo-6c5ffb",
      "locationSet": {"include": ["001"]},
      "tags": {
        "amenity": "bicycle_rental",
        "operator": "ATB Bergamo"
      }
    },
    {
      "displayName": "Ayuntamiento de Getafe",
      "id": "ayuntamientodegetafe-6c5ffb",
      "locationSet": {"include": ["001"]},
      "tags": {
        "amenity": "bicycle_rental",
        "operator": "Ayuntamiento de Getafe"
      }
    },
    {
      "displayName": "BalticBike",
      "id": "balticbike-6c5ffb",
      "locationSet": {"include": ["001"]},
      "tags": {
        "amenity": "bicycle_rental",
        "operator": "BalticBike"
      }
    },
    {
      "displayName": "baybike",
      "id": "baybike-67140f",
      "locationSet": {"include": ["jp"]},
      "tags": {
        "amenity": "bicycle_rental",
        "brand": "baybike",
        "brand:en": "baybike",
        "brand:ja": "ベイバイク",
        "brand:wikidata": "Q91499435",
        "fee": "yes",
        "name": "baybike",
        "name:en": "baybike",
        "name:ja": "ベイバイク",
        "official_name": "横浜コミュニティサイクル",
        "official_name:en": "Yokohama Bike Share",
        "official_name:ja": "横浜コミュニティサイクル",
        "operator": "baybike",
        "operator:en": "baybike",
        "operator:ja": "ベイバイク",
        "operator:wikidata": "Q91499435"
      }
    },
    {
      "displayName": "BCycle",
      "id": "bcycle-6c5ffb",
      "locationSet": {"include": ["001"]},
      "tags": {
        "amenity": "bicycle_rental",
        "operator": "BCycle"
      }
    },
    {
      "displayName": "Belfast Bikes (Belfast City Council)",
      "id": "belfastbikesbelfastcitycouncil-6c5ffb",
      "locationSet": {"include": ["001"]},
      "tags": {
        "amenity": "bicycle_rental",
        "operator": "Belfast Bikes (Belfast City Council)"
      }
    },
    {
      "displayName": "Bici Cuenca",
      "id": "bicicuenca-6c5ffb",
      "locationSet": {"include": ["001"]},
      "tags": {
        "amenity": "bicycle_rental",
        "operator": "Bici Cuenca"
      }
    },
    {
      "displayName": "Bici Las Condes",
      "id": "bicilascondes-6c5ffb",
      "locationSet": {"include": ["001"]},
      "tags": {
        "amenity": "bicycle_rental",
        "operator": "Bici Las Condes"
      }
    },
    {
      "displayName": "biciAltea",
      "id": "bicialtea-6c5ffb",
      "locationSet": {"include": ["001"]},
      "tags": {
        "amenity": "bicycle_rental",
        "operator": "biciAltea"
      }
    },
    {
      "displayName": "Bicincittà",
      "id": "bicincitta-6c5ffb",
      "locationSet": {"include": ["001"]},
      "tags": {
        "amenity": "bicycle_rental",
        "operator": "Bicincittà"
      }
    },
    {
      "displayName": "Bike Share Toronto",
      "id": "bikesharetoronto-6c5ffb",
      "locationSet": {"include": ["001"]},
      "tags": {
        "amenity": "bicycle_rental",
        "operator": "Bike Share Toronto"
      }
    },
    {
      "displayName": "BikeRio",
      "id": "bikerio-6c5ffb",
      "locationSet": {"include": ["001"]},
      "tags": {
        "amenity": "bicycle_rental",
        "operator": "BikeRio"
      }
    },
    {
      "displayName": "Bikesantiago",
      "id": "bikesantiago-6c5ffb",
      "locationSet": {"include": ["001"]},
      "tags": {
        "amenity": "bicycle_rental",
        "operator": "Bikesantiago"
      }
    },
    {
      "displayName": "BikeU",
      "id": "bikeu-6c5ffb",
      "locationSet": {"include": ["001"]},
      "tags": {
        "amenity": "bicycle_rental",
        "operator": "BikeU"
      }
    },
    {
      "displayName": "Biki",
      "id": "biki-ecae39",
      "locationSet": {"include": ["us"]},
      "tags": {
        "amenity": "bicycle_rental",
        "brand": "Biki",
        "brand:wikidata": "Q98337927",
        "name": "Biki",
        "operator": "Biki",
        "operator:wikidata": "Q98337927"
      }
    },
    {
      "displayName": "BIT Mobility",
      "id": "bitmobility-6c5ffb",
      "locationSet": {"include": ["001"]},
      "tags": {
        "amenity": "bicycle_rental",
        "operator": "BIT Mobility"
      }
    },
    {
      "displayName": "Bixi",
      "id": "bixi-a09b25",
      "locationSet": {"include": ["ca"]},
      "tags": {
        "amenity": "bicycle_rental",
        "brand": "Bixi",
        "brand:wikidata": "Q4919302",
        "brand:wikipedia": "en:BIXI Montréal",
        "name": "Bixi",
        "operator": "Bixi",
        "operator:wikidata": "Q4919302",
        "operator:wikipedia": "en:BIXI Montréal"
      }
    },
    {
      "displayName": "Biziprest",
      "id": "biziprest-6c5ffb",
      "locationSet": {"include": ["001"]},
      "tags": {
        "amenity": "bicycle_rental",
        "operator": "Biziprest"
      }
    },
    {
      "displayName": "BKK",
      "id": "bkk-6c5ffb",
      "locationSet": {"include": ["001"]},
      "tags": {
        "amenity": "bicycle_rental",
        "operator": "BKK"
      }
    },
    {
      "displayName": "Blue Cross Blue Shield of Massachusetts (BCBSMA)",
      "id": "bluecrossblueshieldofmassachusettsbcbsma-ecae39",
      "locationSet": {"include": ["us"]},
      "tags": {
        "amenity": "bicycle_rental",
        "brand": "Blue Cross Blue Shield of Massachusetts (BCBSMA)",
        "name": "Blue Cross Blue Shield of Massachusetts (BCBSMA)",
        "operator": "Blue Cross Blue Shield of Massachusetts (BCBSMA)"
      }
    },
    {
      "displayName": "Blue-Mobility",
      "id": "bluemobility-6c5ffb",
      "locationSet": {"include": ["001"]},
      "tags": {
        "amenity": "bicycle_rental",
        "operator": "Blue-Mobility"
      }
    },
    {
      "displayName": "Bluebikes",
      "id": "bluebikes-ecae39",
      "locationSet": {"include": ["us"]},
      "tags": {
        "amenity": "bicycle_rental",
        "brand": "Bluebikes",
        "brand:wikidata": "Q3142157",
        "brand:wikipedia": "en:Bluebikes",
        "name": "Bluebikes",
        "operator": "Bluebikes",
        "operator:wikidata": "Q3142157",
        "operator:wikipedia": "en:Bluebikes"
      }
    },
    {
      "displayName": "Boseh",
      "id": "boseh-6c5ffb",
      "locationSet": {"include": ["001"]},
      "tags": {
        "amenity": "bicycle_rental",
        "operator": "Boseh"
      }
    },
    {
      "displayName": "Boulder B-cycle",
      "id": "boulderbcycle-6c5ffb",
      "locationSet": {"include": ["001"]},
      "tags": {
        "amenity": "bicycle_rental",
        "operator": "Boulder B-cycle"
      }
    },
    {
      "displayName": "Bruin Bike Share",
      "id": "bruinbikeshare-6c5ffb",
      "locationSet": {"include": ["001"]},
      "tags": {
        "amenity": "bicycle_rental",
        "operator": "Bruin Bike Share"
      }
    },
    {
      "displayName": "Bycyklen",
      "id": "bycyklen-6c5ffb",
      "locationSet": {"include": ["001"]},
      "tags": {
        "amenity": "bicycle_rental",
        "operator": "Bycyklen"
      }
    },
    {
      "displayName": "Caju Bike",
      "id": "cajubike-6c5ffb",
      "locationSet": {"include": ["001"]},
      "tags": {
        "amenity": "bicycle_rental",
        "operator": "Caju Bike"
      }
    },
    {
      "displayName": "Call a Bike",
      "id": "callabike-012211",
      "locationSet": {"include": ["de"]},
      "tags": {
        "amenity": "bicycle_rental",
        "brand": "Call a Bike",
        "brand:wikidata": "Q1060525",
        "brand:wikipedia": "de:Call a Bike",
        "name": "Call a Bike",
        "operator": "Call a Bike",
        "operator:wikidata": "Q1060525",
        "operator:wikipedia": "de:Call a Bike"
      }
    },
    {
      "displayName": "Capital Bikeshare",
      "id": "capitalbikeshare-ecae39",
      "locationSet": {"include": ["us"]},
      "tags": {
        "amenity": "bicycle_rental",
        "brand": "Capital Bikeshare",
        "brand:wikidata": "Q1034635",
        "brand:wikipedia": "en:Capital Bikeshare",
        "name": "Capital Bikeshare",
        "operator": "Capital Bikeshare",
        "operator:wikidata": "Q1034635",
        "operator:wikipedia": "en:Capital Bikeshare"
      }
    },
    {
      "displayName": "carvelo2go",
      "id": "carvelo2go-6c5ffb",
      "locationSet": {"include": ["001"]},
      "tags": {
        "amenity": "bicycle_rental",
        "operator": "carvelo2go"
      }
    },
    {
      "displayName": "Citi Bike",
      "id": "citibike-ecae39",
      "locationSet": {"include": ["us"]},
      "tags": {
        "amenity": "bicycle_rental",
        "brand": "Citi Bike",
        "brand:wikidata": "Q2974438",
        "brand:wikipedia": "en:Citi Bike",
        "name": "Citi Bike",
        "operator": "Citi Bike",
        "operator:wikidata": "Q2974438",
        "operator:wikipedia": "en:Citi Bike"
      }
    },
    {
      "displayName": "City Bike Finland",
      "id": "citybikefinland-6c5ffb",
      "locationSet": {"include": ["001"]},
      "tags": {
        "amenity": "bicycle_rental",
        "operator": "City Bike Finland"
      }
    },
    {
      "displayName": "city bike Liverpool",
      "id": "citybikeliverpool-6c5ffb",
      "locationSet": {"include": ["001"]},
      "tags": {
        "amenity": "bicycle_rental",
        "operator": "city bike Liverpool"
      }
    },
    {
      "displayName": "City Bikes",
      "id": "citybikes-6c5ffb",
      "locationSet": {"include": ["001"]},
      "tags": {
        "amenity": "bicycle_rental",
        "operator": "City Bikes"
      }
    },
    {
      "displayName": "City of Santa Monica / CycleHop",
      "id": "cityofsantamonicacyclehop-6c5ffb",
      "locationSet": {"include": ["001"]},
      "tags": {
        "amenity": "bicycle_rental",
        "operator": "City of Santa Monica / CycleHop"
      }
    },
    {
      "displayName": "CityBike Vantaa Oy",
      "id": "citybikevantaaoy-6c5ffb",
      "locationSet": {"include": ["001"]},
      "tags": {
        "amenity": "bicycle_rental",
        "operator": "CityBike Vantaa Oy"
      }
    },
    {
      "displayName": "ClearChannel",
      "id": "clearchannel-6c5ffb",
      "locationSet": {"include": ["001"]},
      "matchNames": ["clear channel norge as"],
      "tags": {
        "amenity": "bicycle_rental",
        "operator": "ClearChannel"
      }
    },
    {
      "displayName": "CMVC - biConde",
      "id": "cmvcbiconde-6c5ffb",
      "locationSet": {"include": ["001"]},
      "tags": {
        "amenity": "bicycle_rental",
        "operator": "CMVC - biConde"
      }
    },
    {
      "displayName": "CoGo Bike Share",
      "id": "cogobikeshare-6c5ffb",
      "locationSet": {"include": ["001"]},
      "tags": {
        "amenity": "bicycle_rental",
        "operator": "CoGo Bike Share"
      }
    },
    {
      "displayName": "CycleHop",
      "id": "cyclehop-6c5ffb",
      "locationSet": {"include": ["001"]},
      "tags": {
        "amenity": "bicycle_rental",
        "operator": "CycleHop"
      }
    },
    {
      "displayName": "Cycleme kft.",
      "id": "cyclemekft-6c5ffb",
      "locationSet": {"include": ["001"]},
      "tags": {
        "amenity": "bicycle_rental",
        "operator": "Cycleme kft."
      }
    },
    {
      "displayName": "Cyclocity",
      "id": "cyclocity-6c5ffb",
      "locationSet": {"include": ["001"]},
      "matchNames": ["cyclocity inc"],
      "tags": {
        "amenity": "bicycle_rental",
        "operator": "Cyclocity"
      }
    },
    {
      "displayName": "Cykleo",
      "id": "cykleo-6c5ffb",
      "locationSet": {"include": ["001"]},
      "tags": {
        "amenity": "bicycle_rental",
        "operator": "Cykleo"
      }
    },
    {
      "displayName": "Deutsche Bahn Connect GmbH",
      "id": "deutschebahnconnectgmbh-6c5ffb",
      "locationSet": {"include": ["001"]},
      "tags": {
        "amenity": "bicycle_rental",
        "operator": "Deutsche Bahn Connect GmbH"
      }
    },
    {
      "displayName": "Divvy",
      "id": "divvy-6c5ffb",
      "locationSet": {"include": ["001"]},
      "tags": {
        "amenity": "bicycle_rental",
        "operator": "Divvy"
      }
    },
    {
      "displayName": "Donkey Republic",
      "id": "donkeyrepublic-6c5ffb",
      "locationSet": {"include": ["001"]},
      "tags": {
        "amenity": "bicycle_rental",
        "operator": "Donkey Republic"
      }
    },
    {
      "displayName": "Dukaten",
      "id": "dukaten-6c5ffb",
      "locationSet": {"include": ["001"]},
      "tags": {
        "amenity": "bicycle_rental",
        "operator": "Dukaten"
      }
    },
    {
      "displayName": "Easybike",
      "id": "easybike-6c5ffb",
      "locationSet": {"include": ["001"]},
      "tags": {
        "amenity": "bicycle_rental",
        "operator": "Easybike"
      }
    },
    {
      "displayName": "ecobike",
      "id": "ecobike-6c5ffb",
      "locationSet": {"include": ["001"]},
      "tags": {
        "amenity": "bicycle_rental",
        "operator": "ecobike"
      }
    },
    {
      "displayName": "EMEL",
      "id": "emel-6c5ffb",
      "locationSet": {"include": ["001"]},
      "tags": {
        "amenity": "bicycle_rental",
        "operator": "EMEL"
      }
    },
    {
      "displayName": "EMT Madrid",
      "id": "emtmadrid-6c5ffb",
      "locationSet": {"include": ["001"]},
      "tags": {
        "amenity": "bicycle_rental",
        "operator": "EMT Madrid"
      }
    },
    {
      "displayName": "EMT-Cemusa",
      "id": "emtcemusa-6c5ffb",
      "locationSet": {"include": ["001"]},
      "tags": {
        "amenity": "bicycle_rental",
        "operator": "EMT-Cemusa"
      }
    },
    {
      "displayName": "EMVSA",
      "id": "emvsa-6c5ffb",
      "locationSet": {"include": ["001"]},
      "tags": {
        "amenity": "bicycle_rental",
        "operator": "EMVSA"
      }
    },
    {
      "displayName": "EnCicla",
      "id": "encicla-6c5ffb",
      "locationSet": {"include": ["001"]},
      "tags": {
        "amenity": "bicycle_rental",
        "operator": "EnCicla"
      }
    },
    {
      "displayName": "ESWE Verkehr GmbH",
      "id": "esweverkehrgmbh-6c5ffb",
      "locationSet": {"include": ["001"]},
      "tags": {
        "amenity": "bicycle_rental",
        "operator": "ESWE Verkehr GmbH"
      }
    },
    {
      "displayName": "Explore Bike Share",
      "id": "explorebikeshare-ecae39",
      "locationSet": {"include": ["us"]},
      "tags": {
        "amenity": "bicycle_rental",
        "brand": "Explore Bike Share",
        "brand:wikidata": "Q86706492",
        "name": "Explore Bike Share",
        "operator": "Explore Bike Share",
        "operator:wikidata": "Q86706492"
      }
    },
    {
      "displayName": "fahrradspezialitaeten.com",
      "id": "fahrradspezialitaetencom-6c5ffb",
      "locationSet": {"include": ["001"]},
      "tags": {
        "amenity": "bicycle_rental",
        "operator": "fahrradspezialitaeten.com"
      }
    },
    {
      "displayName": "fLotte",
      "id": "flotte-012211",
      "locationSet": {"include": ["de"]},
      "tags": {
        "amenity": "bicycle_rental",
        "brand": "fLotte",
        "name": "fLotte",
        "operator": "fLotte"
      }
    },
    {
      "displayName": "Ford GoBike",
      "id": "fordgobike-6c5ffb",
      "locationSet": {"include": ["001"]},
      "tags": {
        "amenity": "bicycle_rental",
        "operator": "Ford GoBike"
      }
    },
    {
      "displayName": "Freiburger Verkehrs AG",
      "id": "freiburgerverkehrsag-6c5ffb",
      "locationSet": {"include": ["001"]},
      "tags": {
        "amenity": "bicycle_rental",
        "operator": "Freiburger Verkehrs AG"
      }
    },
    {
      "displayName": "Freiburger Verkehrs AG, nextbike",
      "id": "freiburgerverkehrsagnextbike-6c5ffb",
      "locationSet": {"include": ["001"]},
      "tags": {
        "amenity": "bicycle_rental",
        "operator": "Freiburger Verkehrs AG, nextbike"
      }
    },
    {
      "displayName": "GAINT",
      "id": "gaint-6c5ffb",
      "locationSet": {"include": ["001"]},
      "tags": {
        "amenity": "bicycle_rental",
        "operator": "GAINT"
      }
    },
    {
      "displayName": "GeoVelo",
      "id": "geovelo-6c5ffb",
      "locationSet": {"include": ["001"]},
      "tags": {
        "amenity": "bicycle_rental",
        "operator": "GeoVelo"
      }
    },
    {
      "displayName": "GIANT",
      "id": "giant-6c5ffb",
      "locationSet": {"include": ["001"]},
      "tags": {
        "amenity": "bicycle_rental",
        "operator": "GIANT"
      }
    },
    {
      "displayName": "Gobierno de la Ciudad de México",
      "id": "gobiernodelaciudaddemexico-6c5ffb",
      "locationSet": {"include": ["001"]},
      "tags": {
        "amenity": "bicycle_rental",
        "operator": "Gobierno de la Ciudad de México"
      }
    },
    {
      "displayName": "Gotcha Bikes",
      "id": "gotchabikes-6c5ffb",
      "locationSet": {"include": ["001"]},
      "tags": {
        "amenity": "bicycle_rental",
        "operator": "Gotcha Bikes"
      }
    },
    {
      "displayName": "Grid",
      "id": "grid-ecae39",
      "locationSet": {"include": ["us"]},
      "tags": {
        "amenity": "bicycle_rental",
        "brand": "Grid",
        "brand:wikidata": "Q62104168",
        "name": "Grid",
        "operator": "Grid",
        "operator:wikidata": "Q62104168"
      }
    },
    {
      "displayName": "GSBikeshare",
      "id": "gsbikeshare-6c5ffb",
      "locationSet": {"include": ["001"]},
      "tags": {
        "amenity": "bicycle_rental",
        "operator": "GSBikeshare"
      }
    },
    {
      "displayName": "Heartland B-cycle",
      "id": "heartlandbcycle-6c5ffb",
      "locationSet": {"include": ["001"]},
      "tags": {
        "amenity": "bicycle_rental",
        "operator": "Heartland B-cycle"
      }
    },
    {
      "displayName": "HELLO CYCLING",
      "id": "hellocycling-67140f",
      "locationSet": {"include": ["jp"]},
      "tags": {
        "amenity": "bicycle_rental",
        "brand": "HELLO CYCLING",
        "brand:en": "HELLO CYCLING",
        "brand:ja": "ハローサイクリング",
        "brand:wikidata": "Q91231927",
        "fee": "yes",
        "name": "HELLO CYCLING",
        "name:en": "HELLO CYCLING",
        "name:ja": "ハローサイクリング",
        "operator": "HELLO CYCLING",
        "operator:en": "HELLO CYCLING",
        "operator:ja": "ハローサイクリング",
        "operator:wikidata": "Q91231927"
      }
    },
    {
      "displayName": "hirebikeLincoln",
      "id": "hirebikelincoln-6c5ffb",
      "locationSet": {"include": ["001"]},
      "tags": {
        "amenity": "bicycle_rental",
        "operator": "hirebikeLincoln"
      }
    },
    {
      "displayName": "http://www.ta-shu.com",
      "id": "httpwwwtashucom-6c5ffb",
      "locationSet": {"include": ["001"]},
      "tags": {
        "amenity": "bicycle_rental",
        "operator": "http://www.ta-shu.com"
      }
    },
    {
      "displayName": "Impursa S.A.",
      "id": "impursasa-6c5ffb",
      "locationSet": {"include": ["001"]},
      "tags": {
        "amenity": "bicycle_rental",
        "operator": "Impursa S.A."
      }
    },
    {
      "displayName": "Innsbrucker Verkehrsbetriebe und Stubaitalbahn GmbH",
      "id": "innsbruckerverkehrsbetriebeundstubaitalbahngmbh-6c5ffb",
      "locationSet": {"include": ["001"]},
      "tags": {
        "amenity": "bicycle_rental",
        "operator": "Innsbrucker Verkehrsbetriebe und Stubaitalbahn GmbH"
      }
    },
    {
      "displayName": "JCDecaux",
      "id": "jcdecaux-6c5ffb",
      "locationSet": {"include": ["001"]},
      "tags": {
        "amenity": "bicycle_rental",
        "operator": "JCDecaux"
      }
    },
    {
      "displayName": "Jtaca srl",
      "id": "jtacasrl-6c5ffb",
      "locationSet": {"include": ["001"]},
      "tags": {
        "amenity": "bicycle_rental",
        "operator": "Jtaca srl"
      }
    },
    {
      "displayName": "Kajteroz",
      "id": "kajteroz-6c5ffb",
      "locationSet": {"include": ["001"]},
      "tags": {
        "amenity": "bicycle_rental",
        "operator": "Kajteroz"
      }
    },
    {
      "displayName": "Keolis",
      "id": "keolis-6c5ffb",
      "locationSet": {"include": ["001"]},
      "tags": {
        "amenity": "bicycle_rental",
        "operator": "Keolis"
      }
    },
    {
      "displayName": "Komunikacja Miejska w Szczecinku",
      "id": "komunikacjamiejskawszczecinku-6c5ffb",
      "locationSet": {"include": ["001"]},
      "tags": {
        "amenity": "bicycle_rental",
        "operator": "Komunikacja Miejska w Szczecinku"
      }
    },
    {
      "displayName": "Labici",
      "id": "labici-6c5ffb",
      "locationSet": {"include": ["001"]},
      "tags": {
        "amenity": "bicycle_rental",
        "operator": "Labici"
      }
    },
    {
      "displayName": "Lefkoşa Türk Belediyesi",
      "id": "lefkosaturkbelediyesi-6c5ffb",
      "locationSet": {"include": ["001"]},
      "tags": {
        "amenity": "bicycle_rental",
        "operator": "Lefkoşa Türk Belediyesi"
      }
    },
    {
      "displayName": "Los Angeles County Metropolitan Transportation Authority",
      "id": "losangelescountymetropolitantransportationauthority-6c5ffb",
      "locationSet": {"include": ["001"]},
      "tags": {
        "amenity": "bicycle_rental",
        "operator": "Los Angeles County Metropolitan Transportation Authority"
      }
    },
    {
      "displayName": "LTC",
      "id": "ltc-6c5ffb",
      "locationSet": {"include": ["001"]},
      "tags": {
        "amenity": "bicycle_rental",
        "operator": "LTC"
      }
    },
    {
      "displayName": "Lyft",
      "id": "lyft-6c5ffb",
      "locationSet": {"include": ["001"]},
      "matchNames": [
        "lyft motivate international inc"
      ],
      "tags": {
        "amenity": "bicycle_rental",
        "operator": "Lyft"
      }
    },
    {
      "displayName": "Madison B-cycle",
      "id": "madisonbcycle-6c5ffb",
      "locationSet": {"include": ["001"]},
      "tags": {
        "amenity": "bicycle_rental",
        "operator": "Madison B-cycle"
      }
    },
    {
      "displayName": "MeinRad",
      "id": "meinrad-012211",
      "locationSet": {"include": ["de"]},
      "tags": {
        "amenity": "bicycle_rental",
        "brand": "MeinRad",
        "name": "MeinRad",
        "operator": "MeinRad"
      }
    },
    {
      "displayName": "Mesto Trnava",
      "id": "mestotrnava-6c5ffb",
      "locationSet": {"include": ["001"]},
      "tags": {
        "amenity": "bicycle_rental",
        "operator": "Mesto Trnava"
      }
    },
    {
      "displayName": "metropolradruhr",
      "id": "metropolradruhr-012211",
      "locationSet": {"include": ["de"]},
      "tags": {
        "amenity": "bicycle_rental",
        "brand": "metropolradruhr",
        "brand:wikidata": "Q62104274",
        "name": "metropolradruhr",
        "operator": "metropolradruhr",
        "operator:wikidata": "Q62104274"
      }
    },
    {
      "displayName": "Mi Bici Tu Bici",
      "id": "mibicitubici-139f3d",
      "locationSet": {"include": ["ar"]},
      "tags": {
        "amenity": "bicycle_rental",
        "brand": "Mi Bici Tu Bici",
        "brand:wikidata": "Q100272303",
        "name": "Mi Bici Tu Bici",
        "operator": "Mi Bici Tu Bici",
        "operator:wikidata": "Q100272303"
      }
    },
    {
      "displayName": "MiBici",
      "id": "mibici-a539ff",
      "locationSet": {"include": ["mx"]},
      "tags": {
        "amenity": "bicycle_rental",
        "brand": "MiBici",
        "brand:wikidata": "Q60966987",
        "brand:wikipedia": "es:MiBici",
        "name": "MiBici",
        "operator": "MiBici",
        "operator:wikidata": "Q60966987",
        "operator:wikipedia": "es:MiBici"
      }
    },
    {
      "displayName": "Miejski Zakład Komunikacji",
      "id": "miejskizakladkomunikacji-6c5ffb",
      "locationSet": {"include": ["001"]},
      "tags": {
        "amenity": "bicycle_rental",
        "operator": "Miejski Zakład Komunikacji"
      }
    },
    {
      "displayName": "MO Kranj",
      "id": "mokranj-6c5ffb",
      "locationSet": {"include": ["001"]},
      "tags": {
        "amenity": "bicycle_rental",
        "operator": "MO Kranj"
      }
    },
    {
      "displayName": "MO Velenje",
      "id": "movelenje-6c5ffb",
      "locationSet": {"include": ["001"]},
      "tags": {
        "amenity": "bicycle_rental",
        "operator": "MO Velenje"
      }
    },
    {
      "displayName": "MOBIbike",
      "id": "mobibike-012211",
      "locationSet": {"include": ["de"]},
      "matchNames": ["sz-bike"],
      "tags": {
        "amenity": "bicycle_rental",
        "brand": "MOBIbike",
        "name": "MOBIbike",
        "operator": "MOBIbike"
      }
    },
    {
      "displayName": "MobiCascais",
      "id": "mobicascais-6c5ffb",
      "locationSet": {"include": ["001"]},
      "tags": {
        "amenity": "bicycle_rental",
        "operator": "MobiCascais"
      }
    },
    {
      "displayName": "MoBike",
      "id": "mobike-6c5ffb",
      "locationSet": {"include": ["001"]},
      "tags": {
        "amenity": "bicycle_rental",
        "operator": "MoBike"
      }
    },
    {
      "displayName": "MOL",
      "id": "mol-6c5ffb",
      "locationSet": {"include": ["001"]},
      "tags": {
        "amenity": "bicycle_rental",
        "operator": "MOL"
      }
    },
    {
      "displayName": "Motivate",
      "id": "motivate-6c5ffb",
      "locationSet": {"include": ["001"]},
      "matchNames": [
        "motivate international inc"
      ],
      "tags": {
        "amenity": "bicycle_rental",
        "operator": "Motivate"
      }
    },
    {
      "displayName": "Münchner Verkehrsgesellschaft mbH",
      "id": "munchnerverkehrsgesellschaftmbh-6c5ffb",
      "locationSet": {"include": ["001"]},
      "tags": {
        "amenity": "bicycle_rental",
        "operator": "Münchner Verkehrsgesellschaft mbH"
      }
    },
    {
      "displayName": "Municipalidad de Rosario",
      "id": "municipalidadderosario-6c5ffb",
      "locationSet": {"include": ["001"]},
      "tags": {
        "amenity": "bicycle_rental",
        "operator": "Municipalidad de Rosario"
      }
    },
    {
      "displayName": "MVG",
      "id": "mvg-6c5ffb",
      "locationSet": {"include": ["001"]},
      "tags": {
        "amenity": "bicycle_rental",
        "operator": "MVG"
      }
    },
    {
      "displayName": "NB Serwis",
      "id": "nbserwis-6c5ffb",
      "locationSet": {"include": ["001"]},
      "tags": {
        "amenity": "bicycle_rental",
        "operator": "NB Serwis"
      }
    },
    {
      "displayName": "Nextbike Polska",
      "id": "nextbikepolska-6c5ffb",
      "locationSet": {"include": ["001"]},
      "tags": {
        "amenity": "bicycle_rental",
        "operator": "Nextbike Polska"
      }
    },
    {
      "displayName": "Nextbike Ukraine llc",
      "id": "nextbikeukrainellc-6c5ffb",
      "locationSet": {"include": ["001"]},
      "tags": {
        "amenity": "bicycle_rental",
        "operator": "Nextbike Ukraine llc"
      }
    },
    {
      "displayName": "Nieruchomości i Opłaty Lokalne",
      "id": "nieruchomosciioplatylokalne-6c5ffb",
      "locationSet": {"include": ["001"]},
      "tags": {
        "amenity": "bicycle_rental",
        "operator": "Nieruchomości i Opłaty Lokalne"
      }
    },
    {
      "displayName": "NOMAGO",
      "id": "nomago-6c5ffb",
      "locationSet": {"include": ["001"]},
      "tags": {
        "amenity": "bicycle_rental",
        "operator": "NOMAGO"
      }
    },
    {
      "displayName": "NS",
      "id": "ns-6c5ffb",
      "locationSet": {"include": ["001"]},
      "tags": {
        "amenity": "bicycle_rental",
        "operator": "NS"
      }
    },
    {
      "displayName": "ntt docomo",
      "id": "nttdocomo-6c5ffb",
      "locationSet": {"include": ["001"]},
      "tags": {
        "amenity": "bicycle_rental",
        "operator": "ntt docomo"
      }
    },
    {
      "displayName": "NYC Bike Share",
      "id": "nycbikeshare-6c5ffb",
      "locationSet": {"include": ["001"]},
      "tags": {
        "amenity": "bicycle_rental",
        "operator": "NYC Bike Share"
      }
    },
    {
      "displayName": "OV-fiets",
      "id": "ovfiets-b6d7bb",
      "locationSet": {"include": ["nl"]},
      "tags": {
        "amenity": "bicycle_rental",
        "brand": "OV-fiets",
        "brand:wikidata": "Q2629982",
        "brand:wikipedia": "en:OV-fiets",
        "name": "OV-fiets",
        "operator": "OV-fiets",
        "operator:wikidata": "Q2629982",
        "operator:wikipedia": "en:OV-fiets"
      }
    },
    {
      "displayName": "PikeRide",
      "id": "pikeride-6c5ffb",
      "locationSet": {"include": ["001"]},
      "tags": {
        "amenity": "bicycle_rental",
        "operator": "PikeRide"
      }
    },
    {
      "displayName": "PMV",
      "id": "pmv-6c5ffb",
      "locationSet": {"include": ["001"]},
      "tags": {
        "amenity": "bicycle_rental",
        "operator": "PMV"
      }
    },
    {
      "displayName": "Prefeitura Municipal de Fortaleza",
      "id": "prefeituramunicipaldefortaleza-6c5ffb",
      "locationSet": {"include": ["001"]},
      "tags": {
        "amenity": "bicycle_rental",
        "operator": "Prefeitura Municipal de Fortaleza"
      }
    },
    {
      "displayName": "Primaria Municipiul Cluj-Napoca",
      "id": "primariamunicipiulclujnapoca-6c5ffb",
      "locationSet": {"include": ["001"]},
      "tags": {
        "amenity": "bicycle_rental",
        "operator": "Primaria Municipiul Cluj-Napoca"
      }
    },
    {
      "displayName": "Provincia Autonoma di Trento",
      "id": "provinciaautonomaditrento-6c5ffb",
      "locationSet": {"include": ["001"]},
      "matchNames": ["provincia di trento"],
      "tags": {
        "amenity": "bicycle_rental",
        "operator": "Provincia Autonoma di Trento"
      }
    },
    {
      "displayName": "PubliBike",
      "id": "publibike-6c5ffb",
      "locationSet": {"include": ["001"]},
      "tags": {
        "amenity": "bicycle_rental",
        "operator": "PubliBike"
      }
    },
    {
      "displayName": "R.A.T.T.",
      "id": "ratt-6c5ffb",
      "locationSet": {"include": ["001"]},
      "tags": {
        "amenity": "bicycle_rental",
        "operator": "R.A.T.T."
      }
    },
    {
      "displayName": "RACV",
      "id": "racv-6c5ffb",
      "locationSet": {"include": ["001"]},
      "tags": {
        "amenity": "bicycle_rental",
        "operator": "RACV"
      }
    },
    {
      "displayName": "Red Bike",
      "id": "redbike-6c5ffb",
      "locationSet": {"include": ["001"]},
      "tags": {
        "amenity": "bicycle_rental",
        "operator": "Red Bike"
      }
    },
    {
      "displayName": "RegioRad Stuttgart",
      "id": "regioradstuttgart-6c5ffb",
      "locationSet": {"include": ["001"]},
      "tags": {
        "amenity": "bicycle_rental",
        "operator": "RegioRad Stuttgart"
      }
    },
    {
      "displayName": "RIDE Solutions",
      "id": "ridesolutions-6c5ffb",
      "locationSet": {"include": ["001"]},
      "tags": {
        "amenity": "bicycle_rental",
        "operator": "RIDE Solutions"
      }
    },
    {
      "displayName": "Roove",
      "id": "roove-6c5ffb",
      "locationSet": {"include": ["001"]},
      "tags": {
        "amenity": "bicycle_rental",
        "operator": "Roove"
      }
    },
    {
      "displayName": "Roovee",
      "id": "roovee-6c5ffb",
      "locationSet": {"include": ["001"]},
      "tags": {
        "amenity": "bicycle_rental",
        "operator": "Roovee"
      }
    },
    {
      "displayName": "RTC of Southern Nevada",
      "id": "rtcofsouthernnevada-6c5ffb",
      "locationSet": {"include": ["001"]},
      "tags": {
        "amenity": "bicycle_rental",
        "operator": "RTC of Southern Nevada"
      }
    },
    {
      "displayName": "RTCR",
      "id": "rtcr-6c5ffb",
      "locationSet": {"include": ["001"]},
      "tags": {
        "amenity": "bicycle_rental",
        "operator": "RTCR"
      }
    },
    {
      "displayName": "RTTB",
      "id": "rttb-6c5ffb",
      "locationSet": {"include": ["001"]},
      "tags": {
        "amenity": "bicycle_rental",
        "operator": "RTTB"
      }
    },
    {
      "displayName": "Saint-Étienne Métropole",
      "id": "saintetiennemetropole-6c5ffb",
      "locationSet": {"include": ["001"]},
      "tags": {
        "amenity": "bicycle_rental",
        "operator": "Saint-Étienne Métropole"
      }
    },
    {
      "displayName": "Samba Transportes Sustentáveis",
      "id": "sambatransportessustentaveis-6c5ffb",
      "locationSet": {"include": ["001"]},
      "tags": {
        "amenity": "bicycle_rental",
        "operator": "Samba Transportes Sustentáveis"
      }
    },
    {
      "displayName": "Santander Cycles",
      "id": "serco-a7b740",
      "locationSet": {"include": ["gb"]},
      "matchNames": [
        "barclays bikes",
        "barclays cycle hire",
        "boris bike",
        "boris bikes",
        "santander cycles mk"
      ],
      "tags": {
        "amenity": "bicycle_rental",
        "brand": "Santander Cycles",
        "brand:wikidata": "Q807961",
        "brand:wikipedia": "en:Santander Cycles",
        "network": "tfl_cycle_hire",
        "operator": "Serco",
        "operator:wikidata": "Q807961",
        "operator:wikipedia": "en:Santander Cycles"
      }
    },
    {
      "displayName": "Semitag",
      "id": "semitag-6c5ffb",
      "locationSet": {"include": ["001"]},
      "tags": {
        "amenity": "bicycle_rental",
        "operator": "Semitag"
      }
    },
    {
      "displayName": "Serttel",
      "id": "serttel-6c5ffb",
      "locationSet": {"include": ["001"]},
      "tags": {
        "amenity": "bicycle_rental",
        "operator": "Serttel"
      }
    },
    {
      "displayName": "servici",
      "id": "servici-6c5ffb",
      "locationSet": {"include": ["001"]},
      "tags": {
        "amenity": "bicycle_rental",
        "operator": "servici"
      }
    },
    {
      "displayName": "SITAC",
      "id": "sitac-6c5ffb",
      "locationSet": {"include": ["001"]},
      "tags": {
        "amenity": "bicycle_rental",
        "operator": "SITAC"
      }
    },
    {
      "displayName": "Slovnaft Mobility Services, s.r.o.",
      "id": "slovnaftmobilityservicessro-6c5ffb",
      "locationSet": {"include": ["001"]},
      "tags": {
        "amenity": "bicycle_rental",
        "operator": "Slovnaft Mobility Services, s.r.o."
      }
    },
    {
      "displayName": "Smovengo",
      "id": "smovengo-6c5ffb",
      "locationSet": {"include": ["001"]},
      "tags": {
        "amenity": "bicycle_rental",
        "operator": "Smovengo"
      }
    },
    {
      "displayName": "Social Bicycles Inc.",
      "id": "socialbicyclesinc-6c5ffb",
      "locationSet": {"include": ["001"]},
      "tags": {
        "amenity": "bicycle_rental",
        "operator": "Social Bicycles Inc."
      }
    },
    {
      "displayName": "SOMOS movilidad",
      "id": "somosmovilidad-6c5ffb",
      "locationSet": {"include": ["001"]},
      "tags": {
        "amenity": "bicycle_rental",
        "operator": "SOMOS movilidad"
      }
    },
    {
      "displayName": "SSM & Comune di Udine",
      "id": "ssmandcomunediudine-6c5ffb",
      "locationSet": {"include": ["001"]},
      "tags": {
        "amenity": "bicycle_rental",
        "operator": "SSM & Comune di Udine"
      }
    },
    {
      "displayName": "Stadtrad Hamburg",
      "id": "stadtradhamburg-012211",
      "locationSet": {"include": ["de"]},
      "tags": {
        "amenity": "bicycle_rental",
        "brand": "Stadtrad Hamburg",
        "brand:wikidata": "Q2326366",
        "brand:wikipedia": "de:StadtRAD Hamburg",
        "name": "Stadtrad Hamburg",
        "operator": "Stadtrad Hamburg",
        "operator:wikidata": "Q2326366",
        "operator:wikipedia": "de:StadtRAD Hamburg"
      }
    },
    {
      "displayName": "Stadtwerke Konstanz",
      "id": "stadtwerkekonstanz-6c5ffb",
      "locationSet": {"include": ["001"]},
      "tags": {
        "amenity": "bicycle_rental",
        "operator": "Stadtwerke Konstanz"
      }
    },
    {
      "displayName": "STDE",
      "id": "stde-6c5ffb",
      "locationSet": {"include": ["001"]},
      "tags": {
        "amenity": "bicycle_rental",
        "operator": "STDE"
      }
    },
    {
      "displayName": "Südtirol Rad",
      "id": "sudtirolrad-6c5ffb",
      "locationSet": {"include": ["001"]},
      "tags": {
        "amenity": "bicycle_rental",
        "operator": "Südtirol Rad"
      }
    },
    {
      "displayName": "Swapfiets",
      "id": "swapfiets-bced9e",
      "locationSet": {
        "include": ["be", "de", "dk", "nl"]
      },
      "tags": {
        "amenity": "bicycle_rental",
        "brand": "Swapfiets",
        "brand:wikidata": "Q62104374",
        "name": "Swapfiets",
        "operator": "Swapfiets",
        "operator:wikidata": "Q62104374"
      }
    },
    {
      "displayName": "Taipei City Government",
      "id": "taipeicitygovernment-6c5ffb",
      "locationSet": {"include": ["001"]},
      "tags": {
        "amenity": "bicycle_rental",
        "operator": "Taipei City Government"
      }
    },
    {
      "displayName": "Tembici",
      "id": "tembici-6c5ffb",
      "locationSet": {"include": ["001"]},
      "tags": {
        "amenity": "bicycle_rental",
        "operator": "Tembici"
      }
    },
    {
      "displayName": "Toronto Bike Share",
      "id": "torontobikeshare-6c5ffb",
      "locationSet": {"include": ["001"]},
      "tags": {
        "amenity": "bicycle_rental",
        "operator": "Toronto Bike Share"
      }
    },
    {
      "displayName": "Transports de l'agglomération de Montpellier",
      "id": "transportsdelagglomerationdemontpellier-6c5ffb",
      "locationSet": {"include": ["001"]},
      "tags": {
        "amenity": "bicycle_rental",
        "operator": "Transports de l'agglomération de Montpellier"
      }
    },
    {
      "displayName": "Twisto",
      "id": "twisto-6c5ffb",
      "locationSet": {"include": ["001"]},
      "tags": {
        "amenity": "bicycle_rental",
        "operator": "Twisto"
      }
    },
    {
      "displayName": "TWS",
      "id": "tws-6c5ffb",
      "locationSet": {"include": ["001"]},
      "tags": {
        "amenity": "bicycle_rental",
        "operator": "TWS"
      }
    },
    {
      "displayName": "Txik Txak",
      "id": "txiktxak-6c5ffb",
      "locationSet": {"include": ["001"]},
      "tags": {
        "amenity": "bicycle_rental",
        "operator": "Txik Txak"
      }
    },
    {
      "displayName": "UFSM",
      "id": "ufsm-6c5ffb",
      "locationSet": {"include": ["001"]},
      "tags": {
        "amenity": "bicycle_rental",
        "operator": "UFSM"
      }
    },
    {
      "displayName": "UIP Trondheim Bysykkel AS",
      "id": "uiptrondheimbysykkelas-6c5ffb",
      "locationSet": {"include": ["001"]},
      "tags": {
        "amenity": "bicycle_rental",
        "operator": "UIP Trondheim Bysykkel AS"
      }
    },
    {
      "displayName": "Urban Infrastructure Partner AS",
      "id": "urbaninfrastructurepartneras-6c5ffb",
      "locationSet": {"include": ["001"]},
      "tags": {
        "amenity": "bicycle_rental",
        "operator": "Urban Infrastructure Partner AS"
      }
    },
    {
      "displayName": "Usedom-Rad",
      "id": "usedomrad-6c5ffb",
      "locationSet": {"include": ["001"]},
      "tags": {
        "amenity": "bicycle_rental",
        "operator": "Usedom-Rad"
      }
    },
    {
      "displayName": "UTE MuyBici servicio público de transporte con bicicleta de Murcia",
      "id": "utemuybiciserviciopublicodetransporteconbicicletademurcia-6c5ffb",
      "locationSet": {"include": ["001"]},
      "tags": {
        "amenity": "bicycle_rental",
        "operator": "UTE MuyBici servicio público de transporte con bicicleta de Murcia"
      }
    },
    {
      "displayName": "VAG Rad",
      "id": "vagrad-6c5ffb",
      "locationSet": {"include": ["001"]},
      "tags": {
        "amenity": "bicycle_rental",
        "operator": "VAG Rad"
      }
    },
    {
      "displayName": "Velo",
      "id": "velo-6c5ffb",
      "locationSet": {"include": ["001"]},
      "tags": {
        "amenity": "bicycle_rental",
        "operator": "Velo"
      }
    },
    {
      "displayName": "Velocity Aachen GmbH",
      "id": "velocityaachengmbh-6c5ffb",
      "locationSet": {"include": ["001"]},
      "tags": {
        "amenity": "bicycle_rental",
        "operator": "Velocity Aachen GmbH"
      }
    },
    {
      "displayName": "Velogik",
      "id": "velogik-6c5ffb",
      "locationSet": {"include": ["001"]},
      "tags": {
        "amenity": "bicycle_rental",
        "operator": "Velogik"
      }
    },
    {
      "displayName": "veloh",
      "id": "veloh-6c5ffb",
      "locationSet": {"include": ["001"]},
      "tags": {
        "amenity": "bicycle_rental",
        "operator": "veloh"
      }
    },
    {
      "displayName": "Véolia",
      "id": "veolia-6c5ffb",
      "locationSet": {"include": ["001"]},
      "tags": {
        "amenity": "bicycle_rental",
        "operator": "Véolia"
      }
    },
    {
      "displayName": "Villo!",
      "id": "villo-6c5ffb",
      "locationSet": {"include": ["001"]},
      "tags": {
        "amenity": "bicycle_rental",
        "brand": "Villo!",
        "brand:wikidata": "Q2510744",
        "name": "Villo!",
        "operator": "Villo!",
        "operator:wikidata": "Q2510744"
      }
    },
    {
      "displayName": "VRNnextbike",
      "id": "vrnnextbike-012211",
      "locationSet": {"include": ["de"]},
      "tags": {
        "amenity": "bicycle_rental",
        "brand": "VRNnextbike",
        "brand:wikidata": "Q72064021",
        "name": "VRNnextbike",
        "operator": "VRNnextbike",
        "operator:wikidata": "Q72064021"
      }
    },
    {
      "displayName": "WhiteBikes",
      "id": "whitebikes-6c5ffb",
      "locationSet": {"include": ["001"]},
      "tags": {
        "amenity": "bicycle_rental",
        "operator": "WhiteBikes"
      }
    },
    {
      "displayName": "YouBike",
      "id": "youbike-96059d",
      "locationSet": {"include": ["tw"]},
      "tags": {
        "amenity": "bicycle_rental",
        "brand": "YouBike",
        "name": "YouBike",
        "operator": "YouBike"
      }
    },
    {
      "displayName": "Yulu",
      "id": "yulu-6c5ffb",
      "locationSet": {"include": ["001"]},
      "tags": {
        "amenity": "bicycle_rental",
        "operator": "Yulu"
      }
    },
    {
      "displayName": "Zagster",
      "id": "zagster-6c5ffb",
      "locationSet": {"include": ["001"]},
      "tags": {
        "amenity": "bicycle_rental",
        "operator": "Zagster"
      }
    },
    {
      "displayName": "АО «СитиБайк»",
      "id": "07aaae-6c5ffb",
      "locationSet": {"include": ["001"]},
      "tags": {
        "amenity": "bicycle_rental",
        "operator": "АО «СитиБайк»"
      }
    },
    {
      "displayName": "ТОВ \"Некстбайк Україна\"",
      "id": "8a7658-6c5ffb",
      "locationSet": {"include": ["001"]},
      "tags": {
        "amenity": "bicycle_rental",
        "operator": "ТОВ \"Некстбайк Україна\""
      }
    },
    {
      "displayName": "بیدود",
      "id": "498ea4-6c5ffb",
      "locationSet": {"include": ["001"]},
      "tags": {
        "amenity": "bicycle_rental",
        "operator": "بیدود"
      }
    },
    {
      "displayName": "거창군",
      "id": "95bc3b-6c5ffb",
      "locationSet": {"include": ["001"]},
      "tags": {
        "amenity": "bicycle_rental",
        "operator": "거창군",
        "operator:ko": "거창군"
      }
    },
    {
      "displayName": "서울자전거 따릉이 (Seoul Bike)",
      "id": "5243ae-6c5ffb",
      "locationSet": {"include": ["001"]},
      "tags": {
        "amenity": "bicycle_rental",
        "operator": "서울자전거 따릉이 (Seoul Bike)",
        "operator:ko": "서울자전거 따릉이 (Seoul Bike)"
      }
    },
    {
      "displayName": "세종도시교통공사",
      "id": "8e68a0-6c5ffb",
      "locationSet": {"include": ["001"]},
      "tags": {
        "amenity": "bicycle_rental",
        "operator": "세종도시교통공사",
        "operator:ko": "세종도시교통공사"
      }
    },
    {
      "displayName": "ちよくる",
      "id": "chiyocle-67140f",
      "locationSet": {"include": ["jp"]},
      "tags": {
        "amenity": "bicycle_rental",
        "brand": "ちよくる",
        "brand:en": "Chiyocle",
        "brand:ja": "ちよくる",
        "brand:wikidata": "Q91498542",
        "fee": "yes",
        "name": "ちよくる",
        "name:en": "Chiyocle",
        "name:ja": "ちよくる",
        "official_name": "千代田区コミュニティサイクル",
        "official_name:en": "Chiyoda City Bike Share",
        "official_name:ja": "千代田区コミュニティサイクル",
        "operator": "ちよくる",
        "operator:en": "Chiyocle",
        "operator:ja": "ちよくる",
        "operator:wikidata": "Q91498542"
      }
    },
    {
      "displayName": "ドコモ・バイクシェア",
      "id": "docomobikeshare-67140f",
      "locationSet": {"include": ["jp"]},
      "tags": {
        "amenity": "bicycle_rental",
        "brand": "ドコモ・バイクシェア",
        "brand:en": "Docomo Bike Share",
        "brand:ja": "ドコモ・バイクシェア",
        "brand:wikidata": "Q55533296",
        "brand:wikipedia": "ja:ドコモ・バイクシェア",
        "fee": "yes",
        "name": "ドコモ・バイクシェア",
        "name:en": "Docomo Bike Share",
        "name:ja": "ドコモ・バイクシェア",
        "operator": "ドコモ・バイクシェア",
        "operator:en": "Docomo Bike Share",
        "operator:ja": "ドコモ・バイクシェア",
        "operator:wikidata": "Q55533296",
        "operator:wikipedia": "ja:ドコモ・バイクシェア"
      }
    },
    {
      "displayName": "兰州市公共自行车服务发展有限公司",
      "id": "9e905a-6c5ffb",
      "locationSet": {"include": ["001"]},
      "tags": {
        "amenity": "bicycle_rental",
        "operator": "兰州市公共自行车服务发展有限公司"
      }
    },
    {
      "displayName": "北京中城永安环保科技有限公司",
      "id": "952e42-6c5ffb",
      "locationSet": {"include": ["001"]},
      "tags": {
        "amenity": "bicycle_rental",
        "operator": "北京中城永安环保科技有限公司"
      }
    },
    {
      "displayName": "千代田区",
      "id": "2baf2c-6c5ffb",
      "locationSet": {"include": ["001"]},
      "tags": {
        "amenity": "bicycle_rental",
        "operator": "千代田区"
      }
    },
    {
      "displayName": "南昌公交顺道公共自行车科技有限公司",
      "id": "27d899-6c5ffb",
      "locationSet": {"include": ["001"]},
      "tags": {
        "amenity": "bicycle_rental",
        "operator": "南昌公交顺道公共自行车科技有限公司"
      }
    },
    {
      "displayName": "南通永久公共自行车公司",
      "id": "947b11-6c5ffb",
      "locationSet": {"include": ["001"]},
      "tags": {
        "amenity": "bicycle_rental",
        "operator": "南通永久公共自行车公司"
      }
    },
    {
      "displayName": "南通永安公共自行车公司",
      "id": "290189-6c5ffb",
      "locationSet": {"include": ["001"]},
      "tags": {
        "amenity": "bicycle_rental",
        "operator": "南通永安公共自行车公司"
      }
    },
    {
      "displayName": "巨大機械工業(股)",
      "id": "1d2e94-6c5ffb",
      "locationSet": {"include": ["001"]},
      "tags": {
        "amenity": "bicycle_rental",
        "operator": "巨大機械工業(股)"
      }
    },
    {
      "displayName": "微笑單車股份有限公司",
      "id": "cca95e-6c5ffb",
      "locationSet": {"include": ["001"]},
      "tags": {
        "amenity": "bicycle_rental",
        "operator": "微笑單車股份有限公司"
      }
    },
    {
      "displayName": "新竹市政府",
      "id": "c3cef6-6c5ffb",
      "locationSet": {"include": ["001"]},
      "tags": {
        "amenity": "bicycle_rental",
        "operator": "新竹市政府"
      }
    },
    {
      "displayName": "株式会社 日本海コンサルタント",
      "id": "544898-6c5ffb",
      "locationSet": {"include": ["001"]},
      "tags": {
        "amenity": "bicycle_rental",
        "operator": "株式会社 日本海コンサルタント",
        "operator:ja": "株式会社 日本海コンサルタント"
      }
    },
    {
      "displayName": "株式会社ドコモバイクシェア",
      "id": "83422f-6c5ffb",
      "locationSet": {"include": ["001"]},
      "tags": {
        "amenity": "bicycle_rental",
        "operator": "株式会社ドコモバイクシェア",
        "operator:ja": "株式会社ドコモバイクシェア"
      }
    },
    {
      "displayName": "永安行",
      "id": "196a11-6c5ffb",
      "locationSet": {"include": ["001"]},
      "tags": {
        "amenity": "bicycle_rental",
        "operator": "永安行"
      }
    },
    {
      "displayName": "永安行科技股份有限公司昌邑分公司",
      "id": "3c28c4-6c5ffb",
      "locationSet": {"include": ["001"]},
      "tags": {
        "amenity": "bicycle_rental",
        "operator": "永安行科技股份有限公司昌邑分公司"
      }
    },
    {
      "displayName": "臺北市政府 Taipei City Government",
      "id": "38a820-6c5ffb",
      "locationSet": {"include": ["001"]},
      "tags": {
        "amenity": "bicycle_rental",
        "operator": "臺北市政府 Taipei City Government"
      }
    },
    {
      "displayName": "臺南市政府交通局",
      "id": "f525fd-6c5ffb",
      "locationSet": {"include": ["001"]},
      "tags": {
        "amenity": "bicycle_rental",
        "operator": "臺南市政府交通局"
      }
    },
    {
      "displayName": "苏州东大金点物联科技有限公司",
      "id": "e28ae7-6c5ffb",
      "locationSet": {"include": ["001"]},
      "tags": {
        "amenity": "bicycle_rental",
        "operator": "苏州东大金点物联科技有限公司"
      }
    },
    {
      "displayName": "金門縣政府",
      "id": "af5935-6c5ffb",
      "locationSet": {"include": ["001"]},
      "tags": {
        "amenity": "bicycle_rental",
        "operator": "金門縣政府"
      }
    },
    {
      "displayName": "高雄捷運股份有限公司",
      "id": "6f1ece-6c5ffb",
      "locationSet": {"include": ["001"]},
      "tags": {
        "amenity": "bicycle_rental",
        "operator": "高雄捷運股份有限公司"
      }
    }
  ]
}