{
  "operators/amenity/car_sharing": [
    {
      "displayName": "AutoCool",
      "id": "autocool-95fe74",
      "locationSet": {"include": ["fr"]},
      "tags": {
        "amenity": "car_sharing",
        "operator": "AutoCool"
      }
    },
    {
      "displayName": "Autolib'",
      "id": "autolib-95fe74",
      "locationSet": {"include": ["fr"]},
      "tags": {
        "amenity": "car_sharing",
        "operator": "Autolib'"
      }
    },
    {
      "displayName": "Autoshare",
      "id": "autoshare-2b1603",
      "locationSet": {"include": ["ca"]},
      "tags": {
        "amenity": "car_sharing",
        "operator": "Autoshare"
      }
    },
    {
      "displayName": "Avant2GO",
      "id": "avant2go-afeec2",
      "locationSet": {"include": ["si"]},
      "tags": {
        "amenity": "car_sharing",
        "operator": "Avant2GO"
      }
    },
    {
      "displayName": "Bildeleringen SA",
      "id": "bildeleringensa-4fd14a",
      "locationSet": {"include": ["no"]},
      "tags": {
        "amenity": "car_sharing",
        "operator": "Bildeleringen SA"
      }
    },
    {
      "displayName": "Bluely",
      "id": "bluely-95fe74",
      "locationSet": {"include": ["fr"]},
      "matchNames": ["station bluely"],
      "tags": {
        "amenity": "car_sharing",
        "brand": "Bluely",
        "brand:wikidata": "Q16039715",
        "brand:wikipedia": "fr:Bluely",
        "name": "Bluely",
        "operator": "Bluely",
        "operator:wikidata": "Q16039715",
        "operator:wikipedia": "fr:Bluely"
      }
    },
    {
      "displayName": "Bolloré",
      "id": "bollore-95fe74",
      "locationSet": {"include": ["fr"]},
      "tags": {
        "amenity": "car_sharing",
        "operator": "Bolloré"
      }
    },
    {
      "displayName": "book-n-drive",
      "id": "bookndrive-088af7",
      "locationSet": {"include": ["de"]},
      "tags": {
        "amenity": "car_sharing",
        "operator": "book-n-drive"
      }
    },
    {
      "displayName": "Cambio autodelen",
      "id": "cambioautodelen-0e1988",
      "locationSet": {"include": ["be"]},
      "tags": {
        "amenity": "car_sharing",
        "operator": "Cambio autodelen"
      }
    },
    {
      "displayName": "cambio CarSharing",
      "id": "cambiocarsharing-c92445",
      "locationSet": {"include": ["be", "de"]},
      "tags": {
        "amenity": "car_sharing",
        "brand": "cambio CarSharing",
        "brand:wikidata": "Q1028155",
        "brand:wikipedia": "de:Cambio CarSharing",
        "name": "cambio CarSharing",
        "operator": "cambio CarSharing",
        "operator:wikidata": "Q1028155",
        "operator:wikipedia": "de:Cambio CarSharing",
        "short_name": "Cambio"
      }
    },
    {
      "displayName": "Car Sharing Trentino",
      "id": "carsharingtrentino-4d7a0e",
      "locationSet": {"include": ["it"]},
      "tags": {
        "amenity": "car_sharing",
        "operator": "Car Sharing Trentino"
      }
    },
    {
      "displayName": "car2go black",
      "id": "car2goblack-088af7",
      "locationSet": {"include": ["de"]},
      "tags": {
        "amenity": "car_sharing",
        "operator": "car2go black"
      }
    },
    {
      "displayName": "Citélib",
      "id": "citelib-95fe74",
      "locationSet": {"include": ["fr"]},
      "tags": {
        "amenity": "car_sharing",
        "operator": "Citélib"
      }
    },
    {
      "displayName": "Citiz",
      "id": "citiz-95fe74",
      "locationSet": {"include": ["fr"]},
      "tags": {
        "amenity": "car_sharing",
        "operator": "Citiz"
      }
    },
    {
      "displayName": "Citiz Alpes-Loire",
      "id": "citizalpesloire-95fe74",
      "locationSet": {"include": ["fr"]},
      "tags": {
        "amenity": "car_sharing",
        "operator": "Citiz Alpes-Loire"
      }
    },
    {
      "displayName": "City CarShare",
      "id": "citycarshare-ed8a5d",
      "locationSet": {"include": ["us"]},
      "tags": {
        "amenity": "car_sharing",
        "operator": "City CarShare"
      }
    },
    {
      "displayName": "Communauto",
      "id": "communauto-6b11b0",
      "locationSet": {"include": ["ca", "fr"]},
      "tags": {
        "amenity": "car_sharing",
        "operator": "Communauto"
      }
    },
    {
      "displayName": "Conficars",
      "id": "conficars-088af7",
      "locationSet": {"include": ["de"]},
      "tags": {
        "amenity": "car_sharing",
        "operator": "Conficars"
      }
    },
    {
      "displayName": "DENZEL Mobility CarSharing",
      "id": "denzelmobilitycarsharing-a7a6ff",
      "locationSet": {"include": ["at"]},
      "tags": {
        "amenity": "car_sharing",
        "operator": "DENZEL Mobility CarSharing"
      }
    },
    {
      "displayName": "Deutsche Bahn Connect GmbH",
      "id": "deutschebahnconnectgmbh-088af7",
      "locationSet": {"include": ["de"]},
      "tags": {
        "amenity": "car_sharing",
        "operator": "Deutsche Bahn Connect GmbH"
      }
    },
    {
      "displayName": "Drive Carsharing",
      "id": "drivecarsharing-088af7",
      "locationSet": {"include": ["de"]},
      "tags": {
        "amenity": "car_sharing",
        "operator": "Drive Carsharing"
      }
    },
    {
      "displayName": "Drivemint",
      "id": "drivemint-ed8a5d",
      "locationSet": {"include": ["us"]},
      "tags": {
        "amenity": "car_sharing",
        "operator": "Drivemint"
      }
    },
    {
      "displayName": "e-vai",
      "id": "evai-4d7a0e",
      "locationSet": {"include": ["it"]},
      "tags": {
        "amenity": "car_sharing",
        "operator": "e-vai"
      }
    },
    {
      "displayName": "einfach mobil",
      "id": "einfachmobil-088af7",
      "locationSet": {"include": ["de"]},
      "tags": {
        "amenity": "car_sharing",
        "operator": "einfach mobil"
      }
    },
    {
      "displayName": "Enterprise Car Club",
      "id": "enterprisecarclub-398ebe",
      "locationSet": {"include": ["gb"]},
      "matchNames": ["city car club"],
      "tags": {
        "amenity": "car_sharing",
        "brand": "Enterprise Car Club",
        "brand:wikidata": "Q5123055",
        "brand:wikipedia": "en:Enterprise Car Club",
        "name": "Enterprise Car Club",
        "operator": "Enterprise Car Club",
        "operator:wikidata": "Q5123055",
        "operator:wikipedia": "en:Enterprise Car Club"
      }
    },
    {
      "displayName": "Enterprise CarShare",
      "id": "enterprisecarshare-8163ad",
      "locationSet": {"include": ["001"]},
      "tags": {
        "amenity": "car_sharing",
        "operator": "Enterprise CarShare"
      }
    },
    {
      "displayName": "Evo",
      "id": "evo-2b1603",
      "locationSet": {"include": ["ca"]},
      "tags": {
        "amenity": "car_sharing",
        "operator": "Evo"
      }
    },
    {
      "displayName": "Flinkster",
      "id": "flinkster-ad9787",
      "locationSet": {"include": ["at", "de"]},
      "tags": {
        "amenity": "car_sharing",
        "operator": "Flinkster"
      }
    },
    {
      "displayName": "Ford Carsharing",
      "id": "fordcarsharing-088af7",
      "locationSet": {"include": ["de"]},
      "tags": {
        "amenity": "car_sharing",
        "operator": "Ford Carsharing"
      }
    },
    {
      "displayName": "Genova Car Sharing",
      "id": "genovacarsharing-4d7a0e",
      "locationSet": {"include": ["it"]},
      "tags": {
        "amenity": "car_sharing",
        "operator": "Genova Car Sharing"
      }
    },
    {
      "displayName": "GoCar",
      "id": "gocar-084dbd",
      "locationSet": {"include": ["ie"]},
      "tags": {
        "amenity": "car_sharing",
        "operator": "GoCar"
      }
    },
    {
      "displayName": "GoGet",
      "id": "goget-d577f8",
      "locationSet": {"include": ["au"]},
      "tags": {
        "amenity": "car_sharing",
        "operator": "GoGet"
      }
    },
    {
      "displayName": "Greenwheels",
      "id": "greenwheels-96ec63",
      "locationSet": {"include": ["de", "nl"]},
      "tags": {
        "amenity": "car_sharing",
        "brand": "Greenwheels",
        "brand:wikidata": "Q316782",
        "brand:wikipedia": "en:Greenwheels",
        "name": "Greenwheels",
        "operator": "Greenwheels",
        "operator:wikidata": "Q316782",
        "operator:wikipedia": "en:Greenwheels"
      }
    },
    {
      "displayName": "Grüne Flotte",
      "id": "gruneflotte-088af7",
      "locationSet": {"include": ["de"]},
      "tags": {
        "amenity": "car_sharing",
        "operator": "Grüne Flotte"
      }
    },
    {
      "displayName": "Ithaca Carshare",
      "id": "ithacacarshare-ed8a5d",
      "locationSet": {"include": ["us"]},
      "tags": {
        "amenity": "car_sharing",
        "operator": "Ithaca Carshare"
      }
    },
    {
      "displayName": "IWV",
      "id": "iwv-088af7",
      "locationSet": {"include": ["de"]},
      "tags": {
        "amenity": "car_sharing",
        "operator": "IWV"
      }
    },
    {
      "displayName": "Lilas",
      "id": "lilas-95fe74",
      "locationSet": {"include": ["fr"]},
      "tags": {
        "amenity": "car_sharing",
        "operator": "Lilas"
      }
    },
    {
      "displayName": "Marguerite",
      "id": "marguerite-95fe74",
      "locationSet": {"include": ["fr"]},
      "tags": {
        "amenity": "car_sharing",
        "operator": "Marguerite"
      }
    },
    {
      "displayName": "Mobilib'",
      "id": "mobilib-95fe74",
      "locationSet": {"include": ["fr"]},
      "tags": {
        "amenity": "car_sharing",
        "operator": "Mobilib'"
      }
    },
    {
      "displayName": "Mobility",
      "id": "mobility-488f3c",
      "locationSet": {"include": ["ch"]},
      "tags": {
        "amenity": "car_sharing",
        "operator": "Mobility"
      }
    },
    {
      "displayName": "Mobility Center GmbH",
      "id": "mobilitycentergmbh-088af7",
      "locationSet": {"include": ["de"]},
      "tags": {
        "amenity": "car_sharing",
        "operator": "Mobility Center GmbH"
      }
    },
    {
      "displayName": "Mobility Genossenschaft",
      "id": "mobilitygenossenschaft-488f3c",
      "locationSet": {"include": ["ch"]},
      "tags": {
        "amenity": "car_sharing",
        "operator": "Mobility Genossenschaft"
      }
    },
    {
      "displayName": "Modo",
      "id": "modo-2b1603",
      "locationSet": {"include": ["ca"]},
      "tags": {
        "amenity": "car_sharing",
        "operator": "Modo"
      }
    },
    {
      "displayName": "Modulauto",
      "id": "modulauto-95fe74",
      "locationSet": {"include": ["fr"]},
      "tags": {
        "amenity": "car_sharing",
        "operator": "Modulauto"
      }
    },
    {
      "displayName": "Ökostadt Renningen e.V.",
      "id": "okostadtrenningenev-088af7",
      "locationSet": {"include": ["de"]},
      "tags": {
        "amenity": "car_sharing",
        "operator": "Ökostadt Renningen e.V."
      }
    },
    {
      "displayName": "Ökostadt Tübingen e.V.",
      "id": "okostadttubingenev-088af7",
      "locationSet": {"include": ["de"]},
      "tags": {
        "amenity": "car_sharing",
        "operator": "Ökostadt Tübingen e.V."
      }
    },
    {
      "displayName": "PhillyCarShare",
      "id": "phillycarshare-ed8a5d",
      "locationSet": {"include": ["us"]},
      "tags": {
        "amenity": "car_sharing",
        "operator": "PhillyCarShare"
      }
    },
    {
      "displayName": "Roma Servizi per la Mobilità",
      "id": "romaserviziperlamobilita-4d7a0e",
      "locationSet": {"include": ["it"]},
      "tags": {
        "amenity": "car_sharing",
        "operator": "Roma Servizi per la Mobilità"
      }
    },
    {
      "displayName": "RTTB",
      "id": "rttb-95fe74",
      "locationSet": {"include": ["fr"]},
      "tags": {
        "amenity": "car_sharing",
        "operator": "RTTB"
      }
    },
    {
      "displayName": "Scouter",
      "id": "scouter-088af7",
      "locationSet": {"include": ["de"]},
      "tags": {
        "amenity": "car_sharing",
        "operator": "Scouter"
      }
    },
    {
      "displayName": "Spectrum Mobil GmbH",
      "id": "spectrummobilgmbh-088af7",
      "locationSet": {"include": ["de"]},
      "tags": {
        "amenity": "car_sharing",
        "operator": "Spectrum Mobil GmbH"
      }
    },
    {
      "displayName": "StadtAuto Bremen CarSharing GmbH",
      "id": "stadtautobremencarsharinggmbh-088af7",
      "locationSet": {"include": ["de"]},
      "tags": {
        "amenity": "car_sharing",
        "operator": "StadtAuto Bremen CarSharing GmbH"
      }
    },
    {
      "displayName": "Stadtauto carsharing",
      "id": "stadtautocarsharing-a7a6ff",
      "locationSet": {"include": ["at"]},
      "tags": {
        "amenity": "car_sharing",
        "operator": "Stadtauto carsharing"
      }
    },
    {
      "displayName": "stadtmobil",
      "id": "stadtmobil-088af7",
      "locationSet": {"include": ["de"]},
      "matchNames": [
        "stadtmobil carsharing gmbh & co. kg",
        "stadtmobil carsharing-station",
        "stadtmobil rhein-neckar ag",
        "stadtmobil rhein-ruhr gmbh",
        "stadtmobil stuttgart",
        "stadtmobil südbaden"
      ],
      "tags": {
        "amenity": "car_sharing",
        "brand": "stadtmobil",
        "brand:wikidata": "Q2327629",
        "brand:wikipedia": "en:Stadtmobil",
        "name": "stadtmobil",
        "operator": "stadtmobil",
        "operator:wikidata": "Q2327629",
        "operator:wikipedia": "en:Stadtmobil"
      }
    },
    {
      "displayName": "StadtTeilAuto",
      "id": "stadtteilauto-088af7",
      "locationSet": {"include": ["de"]},
      "tags": {
        "amenity": "car_sharing",
        "operator": "StadtTeilAuto"
      }
    },
    {
      "displayName": "Stadtteilauto Carsharing Münster GmbH",
      "id": "stadtteilautocarsharingmunstergmbh-088af7",
      "locationSet": {"include": ["de"]},
      "tags": {
        "amenity": "car_sharing",
        "operator": "Stadtteilauto Carsharing Münster GmbH"
      }
    },
    {
      "displayName": "Stadtwerke Augsburg",
      "id": "stadtwerkeaugsburg-088af7",
      "locationSet": {"include": ["de"]},
      "matchNames": [
        "stadtwerke augsburg carsharing gmbh"
      ],
      "tags": {
        "amenity": "car_sharing",
        "operator": "Stadtwerke Augsburg"
      }
    },
    {
      "displayName": "StattAuto eG",
      "id": "stattautoeg-088af7",
      "locationSet": {"include": ["de"]},
      "tags": {
        "amenity": "car_sharing",
        "operator": "StattAuto eG"
      }
    },
    {
      "displayName": "Streetcar",
      "id": "streetcar-8ed6b7",
      "locationSet": {"include": ["gb-eng"]},
      "tags": {
        "amenity": "car_sharing",
        "operator": "Streetcar"
      }
    },
    {
      "displayName": "Sunfleet",
      "id": "sunfleet-cd4862",
      "locationSet": {"include": ["se"]},
      "tags": {
        "amenity": "car_sharing",
        "operator": "Sunfleet"
      }
    },
    {
      "displayName": "teilAuto",
      "id": "teilauto-088af7",
      "locationSet": {"include": ["de"]},
      "tags": {
        "amenity": "car_sharing",
        "brand": "teilAuto",
        "brand:wikidata": "Q2400658",
        "brand:wikipedia": "de:TeilAuto",
        "name": "teilAuto",
        "operator": "teilAuto",
        "operator:wikidata": "Q2400658",
        "operator:wikipedia": "de:TeilAuto"
      }
    },
    {
      "displayName": "Vaterstettener Auto-Teiler e.V.",
      "id": "vaterstettenerautoteilerev-088af7",
      "locationSet": {"include": ["de"]},
      "tags": {
        "amenity": "car_sharing",
        "operator": "Vaterstettener Auto-Teiler e.V."
      }
    },
    {
      "displayName": "Vrtucar",
      "id": "vrtucar-2b1603",
      "locationSet": {"include": ["ca"]},
      "tags": {
        "amenity": "car_sharing",
        "operator": "Vrtucar"
      }
    },
    {
      "displayName": "Zipcar",
      "id": "zipcar-aa2ec2",
      "locationSet": {
        "include": [
          "ca",
          "cr",
          "gb",
          "is",
          "tr",
          "tw",
          "us"
        ]
      },
      "tags": {
        "amenity": "car_sharing",
        "brand": "Zipcar",
        "brand:wikidata": "Q1069924",
        "brand:wikipedia": "en:Zipcar",
        "name": "Zipcar",
        "operator": "Zipcar",
        "operator:wikidata": "Q1069924",
        "operator:wikipedia": "en:Zipcar"
      }
    },
    {
      "displayName": "タイムズ24",
      "id": "d1ffdb-4854ed",
      "locationSet": {"include": ["jp"]},
      "tags": {
        "amenity": "car_sharing",
        "operator": "タイムズ24",
        "operator:ja": "タイムズ24"
      }
    },
    {
      "displayName": "タイムズカーシェア",
      "id": "timescarshare-4854ed",
      "locationSet": {"include": ["jp"]},
      "tags": {
        "amenity": "car_sharing",
        "brand": "タイムズカーシェア",
        "brand:en": "Times Car Share",
        "brand:ja": "タイムズカーシェア",
        "brand:wikidata": "Q17987881",
        "brand:wikipedia": "ja:タイムズカーシェア",
        "name": "タイムズカーシェア",
        "name:en": "Times Car Share",
        "name:ja": "タイムズカーシェア",
        "operator": "タイムズカーシェア",
        "operator:en": "Times Car Share",
        "operator:ja": "タイムズカーシェア",
        "operator:wikidata": "Q17987881",
        "operator:wikipedia": "ja:タイムズカーシェア"
      }
    }
  ]
}