{
  "operators/amenity/charging_station": [
    {
      "displayName": "a2a",
      "id": "a2a-c22d3a",
      "locationSet": {"include": ["it"]},
      "tags": {
        "amenity": "charging_station",
        "operator": "a2a"
      }
    },
    {
      "displayName": "ABB",
      "id": "abb-c22d3a",
      "locationSet": {"include": ["001"]},
      "tags": {
        "amenity": "charging_station",
        "operator": "ABB"
      }
    },
    {
      "displayName": "ADAC",
      "id": "adac-c22d3a",
      "locationSet": {"include": ["de"]},
      "tags": {
        "amenity": "charging_station",
        "operator": "ADAC"
      }
    },
    {
      "displayName": "Agsm Verona Spa",
      "id": "agsmveronaspa-c22d3a",
      "locationSet": {"include": ["it"]},
      "tags": {
        "amenity": "charging_station",
        "operator": "Agsm Verona Spa"
      }
    },
    {
      "displayName": "Aldi",
      "id": "aldi-c22d3a",
      "locationSet": {"include": ["001"]},
      "tags": {
        "amenity": "charging_station",
        "operator": "Aldi"
      }
    },
    {
      "displayName": "Aldi Süd",
      "id": "aldisud-c22d3a",
      "locationSet": {"include": ["de"]},
      "tags": {
        "amenity": "charging_station",
        "operator": "Aldi Süd"
      }
    },
    {
      "displayName": "Allego",
      "id": "allego-c22d3a",
      "locationSet": {"include": ["be", "de", "gb", "nl"]},
      "matchNames": ["allego gmbh"],
      "tags": {
        "amenity": "charging_station",
        "operator": "Allego"
      }
    },
    {
      "displayName": "Allegro",
      "id": "allegro-c22d3a",
      "locationSet": {"include": ["be", "de", "nl"]},
      "tags": {
        "amenity": "charging_station",
        "operator": "Allegro"
      }
    },
    {
      "displayName": "Alperia",
      "id": "alperia-c22d3a",
      "locationSet": {"include": ["it"]},
      "matchNames": ["alperia smart mobility"],
      "tags": {
        "amenity": "charging_station",
        "operator": "Alperia"
      }
    },
    {
      "displayName": "Auchan",
      "id": "auchan-c22d3a",
      "locationSet": {"include": ["fr"]},
      "tags": {
        "amenity": "charging_station",
        "operator": "Auchan"
      }
    },
    {
      "displayName": "Audi AG",
      "id": "audiag-c22d3a",
      "locationSet": {"include": ["de"]},
      "tags": {
        "amenity": "charging_station",
        "operator": "Audi AG"
      }
    },
    {
      "displayName": "Austin Energy",
      "id": "austinenergy-c22d3a",
      "locationSet": {"include": ["us"]},
      "tags": {
        "amenity": "charging_station",
        "operator": "Austin Energy"
      }
    },
    {
      "displayName": "Autolib'",
      "id": "autolib-c22d3a",
      "locationSet": {"include": ["fr"]},
      "tags": {
        "amenity": "charging_station",
        "operator": "Autolib'"
      }
    },
    {
      "displayName": "Bauhaus",
      "id": "bauhaus-c22d3a",
      "locationSet": {"include": ["at", "de"]},
      "tags": {
        "amenity": "charging_station",
        "operator": "Bauhaus"
      }
    },
    {
      "displayName": "Bayernwerk",
      "id": "bayernwerk-c22d3a",
      "locationSet": {"include": ["de"]},
      "matchNames": ["bayernwerk ag"],
      "tags": {
        "amenity": "charging_station",
        "operator": "Bayernwerk"
      }
    },
    {
      "displayName": "be emobil",
      "id": "beemobil-c22d3a",
      "locationSet": {"include": ["de"]},
      "tags": {
        "amenity": "charging_station",
        "operator": "be emobil"
      }
    },
    {
      "displayName": "Bee",
      "id": "bee-c22d3a",
      "locationSet": {"include": ["se"]},
      "tags": {
        "amenity": "charging_station",
        "operator": "Bee"
      }
    },
    {
      "displayName": "BEW",
      "id": "bew-c22d3a",
      "locationSet": {"include": ["de"]},
      "tags": {
        "amenity": "charging_station",
        "operator": "BEW"
      }
    },
    {
      "displayName": "bike-energy",
      "id": "bikeenergy-9f519a",
      "locationSet": {
        "include": [
          "at",
          "ch",
          "de",
          "fr",
          "it",
          "lu"
        ]
      },
      "matchNames": ["bike-energy ladestation"],
      "tags": {
        "amenity": "charging_station",
        "brand": "bike-energy",
        "brand:wikidata": "Q67770877",
        "name": "bike-energy",
        "operator": "bike-energy",
        "operator:wikidata": "Q67770877"
      }
    },
    {
      "displayName": "Birmingham City Council",
      "id": "birminghamcitycouncil-c22d3a",
      "locationSet": {"include": ["gb-eng"]},
      "tags": {
        "amenity": "charging_station",
        "operator": "Birmingham City Council"
      }
    },
    {
      "displayName": "BKK",
      "id": "bkk-c22d3a",
      "locationSet": {"include": ["no"]},
      "tags": {
        "amenity": "charging_station",
        "brand": "BKK",
        "name": "BKK",
        "operator": "BKK"
      }
    },
    {
      "displayName": "BKK Nett AS for Hordaland fylkeskommune",
      "id": "bkknettasforhordalandfylkeskommune-c22d3a",
      "locationSet": {"include": ["no"]},
      "tags": {
        "amenity": "charging_station",
        "operator": "BKK Nett AS for Hordaland fylkeskommune"
      }
    },
    {
      "displayName": "Blink",
      "id": "blink-994ed4",
      "locationSet": {"include": ["us"]},
      "tags": {
        "amenity": "charging_station",
        "brand": "Blink",
        "brand:wikidata": "Q62065645",
        "name": "Blink",
        "operator": "Blink",
        "operator:wikidata": "Q62065645"
      }
    },
    {
      "displayName": "Blue Corner",
      "id": "bluecorner-c22d3a",
      "locationSet": {"include": ["be"]},
      "tags": {
        "amenity": "charging_station",
        "operator": "Blue Corner"
      }
    },
    {
      "displayName": "BMW",
      "id": "bmw-c22d3a",
      "locationSet": {"include": ["001"]},
      "tags": {
        "amenity": "charging_station",
        "operator": "BMW"
      }
    },
    {
      "displayName": "Booths",
      "id": "booths-c22d3a",
      "locationSet": {"include": ["gb"]},
      "tags": {
        "amenity": "charging_station",
        "operator": "Booths"
      }
    },
    {
      "displayName": "Bosch eBike Systems",
      "id": "boschebikesystems-c22d3a",
      "locationSet": {"include": ["001"]},
      "tags": {
        "amenity": "charging_station",
        "brand": "Bosch eBike Systems",
        "name": "Bosch eBike Systems",
        "operator": "Bosch eBike Systems"
      }
    },
    {
      "displayName": "Bouygues Énergies et Services",
      "id": "bouyguesenergiesetservices-c22d3a",
      "locationSet": {"include": ["fr"]},
      "tags": {
        "amenity": "charging_station",
        "operator": "Bouygues Énergies et Services"
      }
    },
    {
      "displayName": "Brighton and Hove City Council",
      "id": "brightonandhovecitycouncil-c22d3a",
      "locationSet": {"include": ["gb-eng"]},
      "tags": {
        "amenity": "charging_station",
        "operator": "Brighton and Hove City Council"
      }
    },
    {
      "displayName": "ČEZ",
      "id": "cez-c22d3a",
      "locationSet": {"include": ["cz"]},
      "matchNames": [
        "čez (ccs/chademo/mennekes type2)"
      ],
      "tags": {
        "amenity": "charging_station",
        "operator": "ČEZ"
      }
    },
    {
      "displayName": "Charge Your Car",
      "id": "chargeyourcar-c22d3a",
      "locationSet": {"include": ["gb"]},
      "tags": {
        "amenity": "charging_station",
        "operator": "Charge Your Car"
      }
    },
    {
      "displayName": "Charge365",
      "id": "charge365-c22d3a",
      "locationSet": {"include": ["no"]},
      "tags": {
        "amenity": "charging_station",
        "operator": "Charge365"
      }
    },
    {
      "displayName": "Chargefox",
      "id": "chargefox-c22d3a",
      "locationSet": {"include": ["au"]},
      "tags": {
        "amenity": "charging_station",
        "operator": "Chargefox"
      }
    },
    {
      "displayName": "Chargemaster",
      "id": "chargemaster-c22d3a",
      "locationSet": {"include": ["gb"]},
      "tags": {
        "amenity": "charging_station",
        "operator": "Chargemaster"
      }
    },
    {
      "displayName": "ChargeNet NZ",
      "id": "chargenetnz-c22d3a",
      "locationSet": {"include": ["nz"]},
      "tags": {
        "amenity": "charging_station",
        "operator": "ChargeNet NZ"
      }
    },
    {
      "displayName": "ChargePlace Scotland",
      "id": "chargeplacescotland-c22d3a",
      "locationSet": {"include": ["gb-sco"]},
      "tags": {
        "amenity": "charging_station",
        "operator": "ChargePlace Scotland"
      }
    },
    {
      "displayName": "ChargePoint",
      "id": "chargepoint-c22d3a",
      "locationSet": {"include": ["001"]},
      "tags": {
        "amenity": "charging_station",
        "brand": "ChargePoint",
        "brand:wikidata": "Q5176149",
        "brand:wikipedia": "en:ChargePoint",
        "name": "ChargePoint",
        "operator": "ChargePoint",
        "operator:wikidata": "Q5176149",
        "operator:wikipedia": "en:ChargePoint"
      }
    },
    {
      "displayName": "Chargy",
      "id": "chargy-026cfa",
      "locationSet": {"include": ["lu"]},
      "tags": {
        "amenity": "charging_station",
        "brand": "Chargy",
        "brand:wikidata": "Q62702950",
        "brand:wikipedia": "lb:Chargy",
        "name": "Chargy",
        "operator": "Chargy",
        "operator:wikidata": "Q62702950",
        "operator:wikipedia": "lb:Chargy"
      }
    },
    {
      "displayName": "Circuit électrique",
      "id": "circuitelectrique-67089a",
      "locationSet": {"include": ["ca"]},
      "tags": {
        "amenity": "charging_station",
        "brand": "Circuit électrique",
        "brand:en": "Electric Circuit",
        "brand:fr": "Circuit électrique",
        "brand:wikidata": "Q24934590",
        "brand:wikipedia": "fr:Le Circuit électrique",
        "name": "Circuit électrique",
        "name:en": "Electric Circuit",
        "name:fr": "Circuit électrique",
        "operator": "Circuit électrique",
        "operator:en": "Electric Circuit",
        "operator:fr": "Circuit électrique",
        "operator:wikidata": "Q24934590",
        "operator:wikipedia": "fr:Le Circuit électrique"
      }
    },
    {
      "displayName": "Clem",
      "id": "clem-c22d3a",
      "locationSet": {"include": ["fr"]},
      "tags": {
        "amenity": "charging_station",
        "operator": "Clem"
      }
    },
    {
      "displayName": "Clever",
      "id": "clever-c22d3a",
      "locationSet": {"include": ["de", "dk", "se"]},
      "tags": {
        "amenity": "charging_station",
        "operator": "Clever"
      }
    },
    {
      "displayName": "Copec",
      "id": "copec-c22d3a",
      "locationSet": {"include": ["cl"]},
      "tags": {
        "amenity": "charging_station",
        "operator": "Copec"
      }
    },
    {
      "displayName": "CYC",
      "id": "cyc-c22d3a",
      "locationSet": {"include": ["gb-sco"]},
      "tags": {
        "amenity": "charging_station",
        "operator": "CYC"
      }
    },
    {
      "displayName": "DBT",
      "id": "dbt-c22d3a",
      "locationSet": {"include": ["001"]},
      "tags": {
        "amenity": "charging_station",
        "operator": "DBT"
      }
    },
    {
      "displayName": "DREWAG",
      "id": "drewag-c22d3a",
      "locationSet": {"include": ["de"]},
      "tags": {
        "amenity": "charging_station",
        "operator": "DREWAG"
      }
    },
    {
      "displayName": "DREWAG - Stadtwerke Dresden",
      "id": "drewagstadtwerkedresden-c22d3a",
      "locationSet": {"include": ["de"]},
      "tags": {
        "amenity": "charging_station",
        "operator": "DREWAG - Stadtwerke Dresden"
      }
    },
    {
      "displayName": "DREWAG - Stadtwerke Dresden GmbH",
      "id": "drewagstadtwerkedresdengmbh-c22d3a",
      "locationSet": {"include": ["de"]},
      "tags": {
        "amenity": "charging_station",
        "operator": "DREWAG - Stadtwerke Dresden GmbH"
      }
    },
    {
      "displayName": "e-Mobi",
      "id": "emobi-c22d3a",
      "locationSet": {"include": ["hu"]},
      "tags": {
        "amenity": "charging_station",
        "operator": "e-Mobi"
      }
    },
    {
      "displayName": "E-On",
      "id": "eon-c22d3a",
      "locationSet": {"include": ["001"]},
      "matchNames": ["e-on drive"],
      "tags": {
        "amenity": "charging_station",
        "operator": "E-On"
      }
    },
    {
      "displayName": "e-regio GmbH & Co. KG",
      "id": "eregiogmbhandcokg-c22d3a",
      "locationSet": {"include": ["de"]},
      "tags": {
        "amenity": "charging_station",
        "operator": "e-regio GmbH & Co. KG"
      }
    },
    {
      "displayName": "E-WALD",
      "id": "ewald-1299a8",
      "locationSet": {"include": ["de"]},
      "matchNames": [
        "e-wald gmbh",
        "e-wald ladestation"
      ],
      "tags": {
        "amenity": "charging_station",
        "brand": "E-WALD",
        "brand:wikidata": "Q61804335",
        "name": "E-WALD",
        "operator": "E-WALD",
        "operator:wikidata": "Q61804335"
      }
    },
    {
      "displayName": "E-Werk Mittelbaden",
      "id": "ewerkmittelbaden-c22d3a",
      "locationSet": {"include": ["de"]},
      "tags": {
        "amenity": "charging_station",
        "operator": "E-Werk Mittelbaden"
      }
    },
    {
      "displayName": "EB Elbil AS",
      "id": "ebelbilas-c22d3a",
      "locationSet": {"include": ["no"]},
      "tags": {
        "amenity": "charging_station",
        "operator": "EB Elbil AS"
      }
    },
    {
      "displayName": "Ecotap",
      "id": "ecotap-c22d3a",
      "locationSet": {"include": ["nl", "pl"]},
      "tags": {
        "amenity": "charging_station",
        "operator": "Ecotap"
      }
    },
    {
      "displayName": "Ecotricity",
      "id": "ecotricity-c22d3a",
      "locationSet": {"include": ["gb"]},
      "tags": {
        "amenity": "charging_station",
        "operator": "Ecotricity"
      }
    },
    {
      "displayName": "Edeka",
      "id": "edeka-c22d3a",
      "locationSet": {"include": ["de"]},
      "tags": {
        "amenity": "charging_station",
        "operator": "Edeka"
      }
    },
    {
      "displayName": "EDP",
      "id": "edp-c22d3a",
      "locationSet": {"include": ["001"]},
      "matchNames": ["edp comercial"],
      "tags": {
        "amenity": "charging_station",
        "operator": "EDP"
      }
    },
    {
      "displayName": "eE4mobile eG",
      "id": "ee4mobileeg-c22d3a",
      "locationSet": {"include": ["de", "dk"]},
      "tags": {
        "amenity": "charging_station",
        "operator": "eE4mobile eG"
      }
    },
    {
      "displayName": "Effia",
      "id": "effia-c22d3a",
      "locationSet": {"include": ["fr"]},
      "tags": {
        "amenity": "charging_station",
        "operator": "Effia"
      }
    },
    {
      "displayName": "eins energie in sachsen",
      "id": "einsenergieinsachsen-c22d3a",
      "locationSet": {"include": ["de"]},
      "tags": {
        "amenity": "charging_station",
        "operator": "eins energie in sachsen"
      }
    },
    {
      "displayName": "ejoin",
      "id": "ejoin-c22d3a",
      "locationSet": {"include": ["sk"]},
      "tags": {
        "amenity": "charging_station",
        "operator": "ejoin"
      }
    },
    {
      "displayName": "Electric 55 Charging",
      "id": "electric55charging-c22d3a",
      "locationSet": {"include": ["fr"]},
      "tags": {
        "amenity": "charging_station",
        "operator": "Electric 55 Charging"
      }
    },
    {
      "displayName": "Electrify America",
      "id": "electrifyamerica-c22d3a",
      "locationSet": {"include": ["us"]},
      "tags": {
        "amenity": "charging_station",
        "operator": "Electrify America"
      }
    },
    {
      "displayName": "ELEN",
      "id": "elen-c22d3a",
      "locationSet": {"include": ["hr"]},
      "tags": {
        "amenity": "charging_station",
        "operator": "ELEN"
      }
    },
    {
      "displayName": "ELMŰ",
      "id": "elmu-c22d3a",
      "locationSet": {"include": ["hu"]},
      "tags": {
        "amenity": "charging_station",
        "operator": "ELMŰ"
      }
    },
    {
      "displayName": "EnBW",
      "id": "enbw-c22d3a",
      "locationSet": {"include": ["de"]},
      "tags": {
        "amenity": "charging_station",
        "operator": "EnBW"
      }
    },
    {
      "displayName": "EnBW Energie Baden-Württemberg AG",
      "id": "enbwenergiebadenwurttembergag-c22d3a",
      "locationSet": {"include": ["de"]},
      "tags": {
        "amenity": "charging_station",
        "operator": "EnBW Energie Baden-Württemberg AG"
      }
    },
    {
      "displayName": "Enel",
      "id": "enel-2c5517",
      "locationSet": {"include": ["it"]},
      "matchNames": [
        "enel - stazione di ricarica"
      ],
      "tags": {
        "amenity": "charging_station",
        "brand": "Enel",
        "brand:wikidata": "Q651222",
        "brand:wikipedia": "en:Enel",
        "name": "Enel",
        "operator": "Enel",
        "operator:wikidata": "Q651222",
        "operator:wikipedia": "en:Enel"
      }
    },
    {
      "displayName": "Enel X",
      "id": "enelx-7667bf",
      "locationSet": {"include": ["cl", "it"]},
      "matchNames": ["enel x metbus"],
      "tags": {
        "amenity": "charging_station",
        "brand": "Enel X",
        "brand:wikidata": "Q5376815",
        "brand:wikipedia": "en:Enel X",
        "name": "Enel X",
        "operator": "Enel X",
        "operator:wikidata": "Q5376815",
        "operator:wikipedia": "en:Enel X"
      }
    },
    {
      "displayName": "Energie AG",
      "id": "energieag-c22d3a",
      "locationSet": {"include": ["at"]},
      "tags": {
        "amenity": "charging_station",
        "operator": "Energie AG"
      }
    },
    {
      "displayName": "Energie Baden-Württemberg AG",
      "id": "energiebadenwurttembergag-c22d3a",
      "locationSet": {"include": ["de"]},
      "tags": {
        "amenity": "charging_station",
        "operator": "Energie Baden-Württemberg AG"
      }
    },
    {
      "displayName": "Energie Steiermark",
      "id": "energiesteiermark-c22d3a",
      "locationSet": {"include": ["at"]},
      "tags": {
        "amenity": "charging_station",
        "operator": "Energie Steiermark"
      }
    },
    {
      "displayName": "Energie und Wasser Potsdam GmbH",
      "id": "energieundwasserpotsdamgmbh-c22d3a",
      "locationSet": {"include": ["de"]},
      "tags": {
        "amenity": "charging_station",
        "operator": "Energie und Wasser Potsdam GmbH"
      }
    },
    {
      "displayName": "Energie- und Wasserversorgung Bonn/Rhein-Sieg GmbH",
      "id": "energieundwasserversorgungbonnrheinsieggmbh-c22d3a",
      "locationSet": {"include": ["de"]},
      "tags": {
        "amenity": "charging_station",
        "operator": "Energie- und Wasserversorgung Bonn/Rhein-Sieg GmbH"
      }
    },
    {
      "displayName": "Energie- und Wasserversorgung Bruchsal GmbH",
      "id": "energieundwasserversorgungbruchsalgmbh-c22d3a",
      "locationSet": {"include": ["de"]},
      "tags": {
        "amenity": "charging_station",
        "operator": "Energie- und Wasserversorgung Bruchsal GmbH"
      }
    },
    {
      "displayName": "Energieversorgung Rodau GmbH",
      "id": "energieversorgungrodaugmbh-c22d3a",
      "locationSet": {"include": ["de"]},
      "tags": {
        "amenity": "charging_station",
        "operator": "Energieversorgung Rodau GmbH"
      }
    },
    {
      "displayName": "EneRSIEIL",
      "id": "enersieil-c22d3a",
      "locationSet": {"include": ["fr"]},
      "tags": {
        "amenity": "charging_station",
        "operator": "EneRSIEIL"
      }
    },
    {
      "displayName": "ENSO Energie Sachsen Ost AG",
      "id": "ensoenergiesachsenostag-c22d3a",
      "locationSet": {"include": ["de"]},
      "tags": {
        "amenity": "charging_station",
        "operator": "ENSO Energie Sachsen Ost AG"
      }
    },
    {
      "displayName": "Entega",
      "id": "entega-c22d3a",
      "locationSet": {"include": ["de"]},
      "matchNames": ["entega energie gmbh"],
      "tags": {
        "amenity": "charging_station",
        "operator": "Entega"
      }
    },
    {
      "displayName": "enviaM",
      "id": "enviam-c22d3a",
      "locationSet": {"include": ["de"]},
      "tags": {
        "amenity": "charging_station",
        "operator": "enviaM"
      }
    },
    {
      "displayName": "ESB ecars",
      "id": "esbecars-c22d3a",
      "locationSet": {"include": ["ie"]},
      "tags": {
        "amenity": "charging_station",
        "operator": "ESB ecars"
      }
    },
    {
      "displayName": "EuroPark AS",
      "id": "europarkas-c22d3a",
      "locationSet": {"include": ["no"]},
      "tags": {
        "amenity": "charging_station",
        "operator": "EuroPark AS"
      }
    },
    {
      "displayName": "EV Power",
      "id": "evpower-c22d3a",
      "locationSet": {"include": ["pt"]},
      "tags": {
        "amenity": "charging_station",
        "operator": "EV Power"
      }
    },
    {
      "displayName": "EVBOX",
      "id": "evbox-c22d3a",
      "locationSet": {"include": ["001"]},
      "tags": {
        "amenity": "charging_station",
        "operator": "EVBOX"
      }
    },
    {
      "displayName": "eVgo",
      "id": "evgo-994ed4",
      "locationSet": {"include": ["us"]},
      "tags": {
        "amenity": "charging_station",
        "brand": "eVgo",
        "brand:wikidata": "Q61803820",
        "name": "eVgo",
        "operator": "eVgo",
        "operator:wikidata": "Q61803820"
      }
    },
    {
      "displayName": "EVMAPA",
      "id": "evmapa-c22d3a",
      "locationSet": {"include": ["cz"]},
      "tags": {
        "amenity": "charging_station",
        "operator": "EVMAPA"
      }
    },
    {
      "displayName": "EVN",
      "id": "evn-c22d3a",
      "locationSet": {"include": ["001"]},
      "tags": {
        "amenity": "charging_station",
        "operator": "EVN"
      }
    },
    {
      "displayName": "EVnetNL",
      "id": "evnetnl-c22d3a",
      "locationSet": {"include": ["nl"]},
      "tags": {
        "amenity": "charging_station",
        "operator": "EVnetNL"
      }
    },
    {
      "displayName": "evolt",
      "id": "evolt-c22d3a",
      "locationSet": {"include": ["gb"]},
      "tags": {
        "amenity": "charging_station",
        "operator": "evolt"
      }
    },
    {
      "displayName": "Evway",
      "id": "evway-c22d3a",
      "locationSet": {"include": ["it"]},
      "tags": {
        "amenity": "charging_station",
        "operator": "Evway"
      }
    },
    {
      "displayName": "EWE",
      "id": "ewe-c22d3a",
      "locationSet": {"include": ["de"]},
      "tags": {
        "amenity": "charging_station",
        "operator": "EWE"
      }
    },
    {
      "displayName": "EWE Vertrieb GmbH",
      "id": "ewevertriebgmbh-c22d3a",
      "locationSet": {"include": ["de"]},
      "tags": {
        "amenity": "charging_station",
        "operator": "EWE Vertrieb GmbH"
      }
    },
    {
      "displayName": "EWR",
      "id": "ewr-c22d3a",
      "locationSet": {"include": ["de"]},
      "tags": {
        "amenity": "charging_station",
        "operator": "EWR"
      }
    },
    {
      "displayName": "EWV",
      "id": "ewv-c22d3a",
      "locationSet": {"include": ["de"]},
      "tags": {
        "amenity": "charging_station",
        "operator": "EWV"
      }
    },
    {
      "displayName": "FairEnergie GmbH",
      "id": "fairenergiegmbh-c22d3a",
      "locationSet": {"include": ["de"]},
      "tags": {
        "amenity": "charging_station",
        "operator": "FairEnergie GmbH"
      }
    },
    {
      "displayName": "Fastned",
      "id": "fastned-c22d3a",
      "locationSet": {"include": ["be", "de", "gb", "nl"]},
      "tags": {
        "amenity": "charging_station",
        "operator": "Fastned"
      }
    },
    {
      "displayName": "FLO",
      "id": "flo-78626b",
      "locationSet": {"include": ["ca", "us"]},
      "tags": {
        "amenity": "charging_station",
        "brand": "FLO",
        "brand:wikidata": "Q64971203",
        "name": "FLO",
        "operator": "FLO",
        "operator:wikidata": "Q64971203"
      }
    },
    {
      "displayName": "Fortum",
      "id": "fortum-c22d3a",
      "locationSet": {"include": ["fi", "no", "se"]},
      "matchNames": ["fortum charge & drive"],
      "tags": {
        "amenity": "charging_station",
        "brand": "Fortum",
        "brand:wikidata": "Q1439075",
        "brand:wikipedia": "en:Fortum",
        "name": "Fortum",
        "operator": "Fortum",
        "operator:wikidata": "Q1439075",
        "operator:wikipedia": "en:Fortum"
      }
    },
    {
      "displayName": "Freshmile",
      "id": "freshmile-c22d3a",
      "locationSet": {"include": ["fr"]},
      "tags": {
        "amenity": "charging_station",
        "operator": "Freshmile"
      }
    },
    {
      "displayName": "Galp Geste",
      "id": "galpgeste-c22d3a",
      "locationSet": {"include": ["pt"]},
      "tags": {
        "amenity": "charging_station",
        "operator": "Galp Geste"
      }
    },
    {
      "displayName": "Galp Power",
      "id": "galppower-c22d3a",
      "locationSet": {"include": ["pt"]},
      "tags": {
        "amenity": "charging_station",
        "operator": "Galp Power"
      }
    },
    {
      "displayName": "Gemeente Rotterdam",
      "id": "gemeenterotterdam-c22d3a",
      "locationSet": {"include": ["nl"]},
      "tags": {
        "amenity": "charging_station",
        "operator": "Gemeente Rotterdam"
      }
    },
    {
      "displayName": "GeniePoint",
      "id": "geniepoint-c22d3a",
      "locationSet": {"include": ["gb"]},
      "tags": {
        "amenity": "charging_station",
        "operator": "GeniePoint"
      }
    },
    {
      "displayName": "GIC",
      "id": "gic-c22d3a",
      "locationSet": {"include": ["es"]},
      "tags": {
        "amenity": "charging_station",
        "operator": "GIC"
      }
    },
    {
      "displayName": "Gogoro 電池交換站",
      "id": "62c656-c22d3a",
      "locationSet": {"include": ["001"]},
      "tags": {
        "amenity": "charging_station",
        "brand": "Gogoro 電池交換站",
        "brand:wikidata": "Q19880591",
        "brand:wikipedia": "zh:Gogoro",
        "name": "Gogoro 電池交換站",
        "operator": "Gogoro 電池交換站",
        "operator:wikidata": "Q19880591",
        "operator:wikipedia": "zh:Gogoro"
      }
    },
    {
      "displayName": "Greenlots",
      "id": "greenlots-c22d3a",
      "locationSet": {"include": ["001"]},
      "tags": {
        "amenity": "charging_station",
        "operator": "Greenlots"
      }
    },
    {
      "displayName": "GreenWay",
      "id": "greenway-c22d3a",
      "locationSet": {"include": ["pl", "sk"]},
      "tags": {
        "amenity": "charging_station",
        "operator": "GreenWay"
      }
    },
    {
      "displayName": "Grønn kontakt",
      "id": "gronnkontakt-c454f0",
      "locationSet": {"include": ["no", "se"]},
      "tags": {
        "amenity": "charging_station",
        "brand": "Grønn kontakt",
        "brand:wikidata": "Q100821564",
        "name": "Grønn kontakt",
        "operator": "Grønn kontakt",
        "operator:wikidata": "Q100821564"
      }
    },
    {
      "displayName": "Iberdrola",
      "id": "iberdrola-c22d3a",
      "locationSet": {"include": ["es"]},
      "tags": {
        "amenity": "charging_station",
        "operator": "Iberdrola"
      }
    },
    {
      "displayName": "IBIL",
      "id": "ibil-c22d3a",
      "locationSet": {"include": ["es"]},
      "tags": {
        "amenity": "charging_station",
        "operator": "IBIL"
      }
    },
    {
      "displayName": "IKEA",
      "id": "ikea-c22d3a",
      "locationSet": {"include": ["001"]},
      "tags": {
        "amenity": "charging_station",
        "operator": "IKEA"
      }
    },
    {
      "displayName": "InCharge",
      "id": "incharge-c22d3a",
      "locationSet": {"include": ["gb", "se"]},
      "matchNames": ["vattenfall"],
      "tags": {
        "amenity": "charging_station",
        "brand": "InCharge",
        "brand:wikidata": "Q71041027",
        "name": "InCharge",
        "operator": "InCharge",
        "operator:wikidata": "Q71041027"
      }
    },
    {
      "displayName": "InEnergies",
      "id": "inenergies-c22d3a",
      "locationSet": {"include": ["fr"]},
      "tags": {
        "amenity": "charging_station",
        "operator": "InEnergies"
      }
    },
    {
      "displayName": "Innogy",
      "id": "innogy-1299a8",
      "locationSet": {"include": ["de"]},
      "matchNames": [
        "innogy emobility solutions gmbh",
        "innogy se",
        "rwe"
      ],
      "tags": {
        "amenity": "charging_station",
        "brand": "Innogy",
        "brand:wikidata": "Q2124721",
        "brand:wikipedia": "de:Innogy",
        "name": "Innogy",
        "operator": "Innogy",
        "operator:wikidata": "Q2124721",
        "operator:wikipedia": "de:Innogy"
      }
    },
    {
      "displayName": "InstaVolt",
      "id": "instavolt-c22d3a",
      "locationSet": {"include": ["gb"]},
      "tags": {
        "amenity": "charging_station",
        "operator": "InstaVolt"
      }
    },
    {
      "displayName": "Intel Corporation",
      "id": "intelcorporation-c22d3a",
      "locationSet": {"include": ["us"]},
      "tags": {
        "amenity": "charging_station",
        "operator": "Intel Corporation"
      }
    },
    {
      "displayName": "Ionity",
      "id": "ionity-c22d3a",
      "locationSet": {"include": ["001"]},
      "matchNames": ["ionity gmbh"],
      "tags": {
        "amenity": "charging_station",
        "operator": "Ionity"
      }
    },
    {
      "displayName": "IWB",
      "id": "iwb-c22d3a",
      "locationSet": {"include": ["ch"]},
      "tags": {
        "amenity": "charging_station",
        "operator": "IWB"
      }
    },
    {
      "displayName": "Izivia",
      "id": "izivia-c22d3a",
      "locationSet": {"include": ["fr"]},
      "tags": {
        "amenity": "charging_station",
        "operator": "Izivia"
      }
    },
    {
      "displayName": "Jernbaneverket",
      "id": "jernbaneverket-c22d3a",
      "locationSet": {"include": ["no"]},
      "tags": {
        "amenity": "charging_station",
        "operator": "Jernbaneverket"
      }
    },
    {
      "displayName": "Kaufland",
      "id": "kaufland-c22d3a",
      "locationSet": {"include": ["de"]},
      "tags": {
        "amenity": "charging_station",
        "operator": "Kaufland"
      }
    },
    {
      "displayName": "Kelag",
      "id": "kelag-c22d3a",
      "locationSet": {"include": ["at"]},
      "tags": {
        "amenity": "charging_station",
        "operator": "Kelag"
      }
    },
    {
      "displayName": "KLC",
      "id": "klc-c22d3a",
      "locationSet": {"include": ["pt"]},
      "tags": {
        "amenity": "charging_station",
        "operator": "KLC"
      }
    },
    {
      "displayName": "Kreis Paderborn",
      "id": "kreispaderborn-c22d3a",
      "locationSet": {"include": ["de"]},
      "tags": {
        "amenity": "charging_station",
        "operator": "Kreis Paderborn"
      }
    },
    {
      "displayName": "Kreiswerke Main-Kinzig GmbH",
      "id": "kreiswerkemainkinziggmbh-c22d3a",
      "locationSet": {"include": ["de"]},
      "tags": {
        "amenity": "charging_station",
        "operator": "Kreiswerke Main-Kinzig GmbH"
      }
    },
    {
      "displayName": "ladenetz.de",
      "id": "ladenetzde-c22d3a",
      "locationSet": {"include": ["de"]},
      "tags": {
        "amenity": "charging_station",
        "operator": "ladenetz.de"
      }
    },
    {
      "displayName": "Lancaster City Council",
      "id": "lancastercitycouncil-c22d3a",
      "locationSet": {"include": ["gb"]},
      "tags": {
        "amenity": "charging_station",
        "operator": "Lancaster City Council"
      }
    },
    {
      "displayName": "Lancaster University",
      "id": "lancasteruniversity-c22d3a",
      "locationSet": {"include": ["gb"]},
      "tags": {
        "amenity": "charging_station",
        "operator": "Lancaster University"
      }
    },
    {
      "displayName": "Le Circuit Électrique",
      "id": "lecircuitelectrique-c22d3a",
      "locationSet": {"include": ["ca"]},
      "tags": {
        "amenity": "charging_station",
        "operator": "Le Circuit Électrique"
      }
    },
    {
      "displayName": "Lech Elektrizitätswerke Augsburg",
      "id": "lechelektrizitatswerkeaugsburg-c22d3a",
      "locationSet": {"include": ["de"]},
      "tags": {
        "amenity": "charging_station",
        "operator": "Lech Elektrizitätswerke Augsburg"
      }
    },
    {
      "displayName": "Lechwerke AG",
      "id": "lechwerkeag-c22d3a",
      "locationSet": {"include": ["de"]},
      "tags": {
        "amenity": "charging_station",
        "operator": "Lechwerke AG"
      }
    },
    {
      "displayName": "LEW",
      "id": "lew-c22d3a",
      "locationSet": {"include": ["de"]},
      "tags": {
        "amenity": "charging_station",
        "operator": "LEW"
      }
    },
    {
      "displayName": "Lidl",
      "id": "lidl-c22d3a",
      "locationSet": {"include": ["001"]},
      "tags": {
        "amenity": "charging_station",
        "operator": "Lidl"
      }
    },
    {
      "displayName": "Linz AG",
      "id": "linzag-c22d3a",
      "locationSet": {"include": ["at"]},
      "tags": {
        "amenity": "charging_station",
        "operator": "Linz AG"
      }
    },
    {
      "displayName": "Mainova",
      "id": "mainova-c22d3a",
      "locationSet": {"include": ["de"]},
      "tags": {
        "amenity": "charging_station",
        "operator": "Mainova"
      }
    },
    {
      "displayName": "Mainzer Stadtwerke",
      "id": "mainzerstadtwerke-c22d3a",
      "locationSet": {"include": ["de"]},
      "tags": {
        "amenity": "charging_station",
        "operator": "Mainzer Stadtwerke"
      }
    },
    {
      "displayName": "Michigan State University",
      "id": "michiganstateuniversity-c22d3a",
      "locationSet": {"include": ["us"]},
      "tags": {
        "amenity": "charging_station",
        "operator": "Michigan State University"
      }
    },
    {
      "displayName": "MOBI.E",
      "id": "mobie-c22d3a",
      "locationSet": {"include": ["pt"]},
      "tags": {
        "amenity": "charging_station",
        "operator": "MOBI.E"
      }
    },
    {
      "displayName": "Mobiliti",
      "id": "mobiliti-27e906",
      "locationSet": {"include": ["hu"]},
      "tags": {
        "amenity": "charging_station",
        "brand": "Mobiliti",
        "name": "Mobiliti",
        "operator": "Mobiliti"
      }
    },
    {
      "displayName": "MobiSDEC",
      "id": "mobisdec-c22d3a",
      "locationSet": {"include": ["fr"]},
      "tags": {
        "amenity": "charging_station",
        "operator": "MobiSDEC"
      }
    },
    {
      "displayName": "Mobive",
      "id": "mobive-c22d3a",
      "locationSet": {"include": ["fr"]},
      "tags": {
        "amenity": "charging_station",
        "operator": "Mobive"
      }
    },
    {
      "displayName": "MOL Nyrt.",
      "id": "molnyrt-c22d3a",
      "locationSet": {"include": ["hu"]},
      "tags": {
        "amenity": "charging_station",
        "operator": "MOL Nyrt."
      }
    },
    {
      "displayName": "Morbihan énergies",
      "id": "morbihanenergies-c22d3a",
      "locationSet": {"include": ["fr"]},
      "tags": {
        "amenity": "charging_station",
        "operator": "Morbihan énergies"
      }
    },
    {
      "displayName": "Mota",
      "id": "mota-c22d3a",
      "locationSet": {"include": ["fr"]},
      "tags": {
        "amenity": "charging_station",
        "operator": "Mota"
      }
    },
    {
      "displayName": "Mouv Élec Var",
      "id": "mouvelecvar-c22d3a",
      "locationSet": {"include": ["fr"]},
      "tags": {
        "amenity": "charging_station",
        "operator": "Mouv Élec Var"
      }
    },
    {
      "displayName": "N-Ergie",
      "id": "nergie-c22d3a",
      "locationSet": {"include": ["de"]},
      "matchNames": [
        "n-ergie aktiengesellschaft"
      ],
      "tags": {
        "amenity": "charging_station",
        "operator": "N-Ergie"
      }
    },
    {
      "displayName": "NEW",
      "id": "new-c22d3a",
      "locationSet": {"include": ["de"]},
      "tags": {
        "amenity": "charging_station",
        "operator": "NEW"
      }
    },
    {
      "displayName": "NewMotion",
      "id": "newmotion-c22d3a",
      "locationSet": {"include": ["de", "gb", "nl"]},
      "tags": {
        "amenity": "charging_station",
        "operator": "NewMotion"
      }
    },
    {
      "displayName": "Nissan",
      "id": "nissan-c22d3a",
      "locationSet": {"include": ["001"]},
      "tags": {
        "amenity": "charging_station",
        "operator": "Nissan"
      }
    },
    {
      "displayName": "NKM Mobilitás Kft.",
      "id": "nkmmobilitaskft-c22d3a",
      "locationSet": {"include": ["hu"]},
      "tags": {
        "amenity": "charging_station",
        "operator": "NKM Mobilitás Kft."
      }
    },
    {
      "displayName": "NRG Energy",
      "id": "nrgenergy-c22d3a",
      "locationSet": {"include": ["us"]},
      "tags": {
        "amenity": "charging_station",
        "operator": "NRG Energy"
      }
    },
    {
      "displayName": "NRMA",
      "id": "nrma-c22d3a",
      "locationSet": {"include": ["au"]},
      "tags": {
        "amenity": "charging_station",
        "operator": "NRMA"
      }
    },
    {
      "displayName": "NUON",
      "id": "nuon-c22d3a",
      "locationSet": {"include": ["nl"]},
      "tags": {
        "amenity": "charging_station",
        "operator": "NUON"
      }
    },
    {
      "displayName": "Oppegård kommune",
      "id": "oppegardkommune-c22d3a",
      "locationSet": {"include": ["no"]},
      "tags": {
        "amenity": "charging_station",
        "operator": "Oppegård kommune"
      }
    },
    {
      "displayName": "Orka náttúrunnar",
      "id": "orkanatturunnar-c22d3a",
      "locationSet": {"include": ["is"]},
      "tags": {
        "amenity": "charging_station",
        "operator": "Orka náttúrunnar"
      }
    },
    {
      "displayName": "Oslo kommune",
      "id": "oslokommune-c22d3a",
      "locationSet": {"include": ["no"]},
      "tags": {
        "amenity": "charging_station",
        "operator": "Oslo kommune"
      }
    },
    {
      "displayName": "OVAG",
      "id": "ovag-c22d3a",
      "locationSet": {"include": ["de"]},
      "tags": {
        "amenity": "charging_station",
        "operator": "OVAG"
      }
    },
    {
      "displayName": "Pfalzwerke",
      "id": "pfalzwerke-c22d3a",
      "locationSet": {"include": ["de"]},
      "tags": {
        "amenity": "charging_station",
        "operator": "Pfalzwerke"
      }
    },
    {
      "displayName": "PitPoint",
      "id": "pitpoint-c22d3a",
      "locationSet": {"include": ["be", "nl"]},
      "tags": {
        "amenity": "charging_station",
        "operator": "PitPoint"
      }
    },
    {
      "displayName": "Plus de Bornes",
      "id": "plusdebornes-c22d3a",
      "locationSet": {"include": ["fr"]},
      "tags": {
        "amenity": "charging_station",
        "operator": "Plus de Bornes"
      }
    },
    {
      "displayName": "Pod Point",
      "id": "podpoint-c22d3a",
      "locationSet": {"include": ["gb"]},
      "tags": {
        "amenity": "charging_station",
        "operator": "Pod Point"
      }
    },
    {
      "displayName": "Polar",
      "id": "polar-c22d3a",
      "locationSet": {"include": ["gb"]},
      "tags": {
        "amenity": "charging_station",
        "operator": "Polar"
      }
    },
    {
      "displayName": "Porsche",
      "id": "porsche-c22d3a",
      "locationSet": {"include": ["001"]},
      "tags": {
        "amenity": "charging_station",
        "operator": "Porsche"
      }
    },
    {
      "displayName": "PRE",
      "id": "pre-c22d3a",
      "locationSet": {"include": ["cz"]},
      "tags": {
        "amenity": "charging_station",
        "operator": "PRE"
      }
    },
    {
      "displayName": "Prio.E",
      "id": "prioe-c22d3a",
      "locationSet": {"include": ["pt"]},
      "tags": {
        "amenity": "charging_station",
        "operator": "Prio.E"
      }
    },
    {
      "displayName": "Q-Park",
      "id": "qpark-c22d3a",
      "locationSet": {"include": ["001"]},
      "tags": {
        "amenity": "charging_station",
        "operator": "Q-Park"
      }
    },
    {
      "displayName": "Qbuzz",
      "id": "qbuzz-c22d3a",
      "locationSet": {"include": ["nl"]},
      "tags": {
        "amenity": "charging_station",
        "operator": "Qbuzz"
      }
    },
    {
      "displayName": "Rede Piloto",
      "id": "redepiloto-c22d3a",
      "locationSet": {"include": ["pt"]},
      "tags": {
        "amenity": "charging_station",
        "operator": "Rede Piloto"
      }
    },
    {
      "displayName": "Regensburger Energie- und Wasserversorgung AG & Co KG",
      "id": "regensburgerenergieundwasserversorgungagandcokg-c22d3a",
      "locationSet": {"include": ["de"]},
      "tags": {
        "amenity": "charging_station",
        "operator": "Regensburger Energie- und Wasserversorgung AG & Co KG"
      }
    },
    {
      "displayName": "Renault",
      "id": "renault-c22d3a",
      "locationSet": {"include": ["001"]},
      "tags": {
        "amenity": "charging_station",
        "operator": "Renault"
      }
    },
    {
      "displayName": "Repower AG",
      "id": "repowerag-c22d3a",
      "locationSet": {"include": ["ch"]},
      "tags": {
        "amenity": "charging_station",
        "operator": "Repower AG"
      }
    },
    {
      "displayName": "RheinEnergie",
      "id": "rheinenergie-c22d3a",
      "locationSet": {"include": ["de"]},
      "tags": {
        "amenity": "charging_station",
        "operator": "RheinEnergie"
      }
    },
    {
      "displayName": "Ringeriks-kraft AS",
      "id": "ringerikskraftas-c22d3a",
      "locationSet": {"include": ["no"]},
      "tags": {
        "amenity": "charging_station",
        "operator": "Ringeriks-kraft AS"
      }
    },
    {
      "displayName": "Rotterdam Elektrisch",
      "id": "rotterdamelektrisch-c22d3a",
      "locationSet": {"include": ["nl"]},
      "tags": {
        "amenity": "charging_station",
        "operator": "Rotterdam Elektrisch"
      }
    },
    {
      "displayName": "RSE",
      "id": "rse-c22d3a",
      "locationSet": {"include": ["fr"]},
      "tags": {
        "amenity": "charging_station",
        "operator": "RSE"
      }
    },
    {
      "displayName": "RWE-Effizienz",
      "id": "rweeffizienz-c22d3a",
      "locationSet": {"include": ["de"]},
      "tags": {
        "amenity": "charging_station",
        "operator": "RWE-Effizienz"
      }
    },
    {
      "displayName": "Saint-Louis",
      "id": "saintlouis-c22d3a",
      "locationSet": {"include": ["fr"]},
      "tags": {
        "amenity": "charging_station",
        "operator": "Saint-Louis"
      }
    },
    {
      "displayName": "Salzburg AG",
      "id": "salzburgag-c22d3a",
      "locationSet": {"include": ["at"]},
      "tags": {
        "amenity": "charging_station",
        "operator": "Salzburg AG"
      }
    },
    {
      "displayName": "SDE04",
      "id": "sde04-c22d3a",
      "locationSet": {"include": ["fr"]},
      "tags": {
        "amenity": "charging_station",
        "operator": "SDE04"
      }
    },
    {
      "displayName": "SDE07",
      "id": "sde07-c22d3a",
      "locationSet": {"include": ["fr"]},
      "tags": {
        "amenity": "charging_station",
        "operator": "SDE07"
      }
    },
    {
      "displayName": "SDE35",
      "id": "sde35-c22d3a",
      "locationSet": {"include": ["fr"]},
      "tags": {
        "amenity": "charging_station",
        "operator": "SDE35"
      }
    },
    {
      "displayName": "SDED",
      "id": "sded-c22d3a",
      "locationSet": {"include": ["fr"]},
      "tags": {
        "amenity": "charging_station",
        "operator": "SDED"
      }
    },
    {
      "displayName": "SDEY",
      "id": "sdey-c22d3a",
      "locationSet": {"include": ["fr"]},
      "tags": {
        "amenity": "charging_station",
        "operator": "SDEY"
      }
    },
    {
      "displayName": "SEDI",
      "id": "sedi-c22d3a",
      "locationSet": {"include": ["fr"]},
      "tags": {
        "amenity": "charging_station",
        "operator": "SEDI"
      }
    },
    {
      "displayName": "SemaConnect",
      "id": "semaconnect-c22d3a",
      "locationSet": {"include": ["us"]},
      "tags": {
        "amenity": "charging_station",
        "operator": "SemaConnect"
      }
    },
    {
      "displayName": "Séolis",
      "id": "seolis-c22d3a",
      "locationSet": {"include": ["fr"]},
      "tags": {
        "amenity": "charging_station",
        "operator": "Séolis"
      }
    },
    {
      "displayName": "SEY 78",
      "id": "sey78-c22d3a",
      "locationSet": {"include": ["fr"]},
      "tags": {
        "amenity": "charging_station",
        "operator": "SEY 78"
      }
    },
    {
      "displayName": "SHARZ",
      "id": "sharz-c22d3a",
      "locationSet": {"include": ["tr"]},
      "tags": {
        "amenity": "charging_station",
        "operator": "SHARZ"
      }
    },
    {
      "displayName": "Shell",
      "id": "shell-c22d3a",
      "locationSet": {"include": ["001"]},
      "tags": {
        "amenity": "charging_station",
        "operator": "Shell"
      }
    },
    {
      "displayName": "SIEGE 27",
      "id": "siege27-c22d3a",
      "locationSet": {"include": ["fr"]},
      "tags": {
        "amenity": "charging_station",
        "operator": "SIEGE 27"
      }
    },
    {
      "displayName": "SIEL42",
      "id": "siel42-c22d3a",
      "locationSet": {"include": ["fr"]},
      "tags": {
        "amenity": "charging_station",
        "operator": "SIEL42"
      }
    },
    {
      "displayName": "SIPLEC",
      "id": "siplec-c22d3a",
      "locationSet": {"include": ["fr"]},
      "tags": {
        "amenity": "charging_station",
        "operator": "SIPLEC"
      }
    },
    {
      "displayName": "SMATRICS",
      "id": "smatrics-c22d3a",
      "locationSet": {"include": ["at"]},
      "tags": {
        "amenity": "charging_station",
        "operator": "SMATRICS"
      }
    },
    {
      "displayName": "Sodetrel",
      "id": "sodetrel-c22d3a",
      "locationSet": {"include": ["fr"]},
      "matchNames": ["sodetrel mobilité"],
      "tags": {
        "amenity": "charging_station",
        "operator": "Sodetrel"
      }
    },
    {
      "displayName": "SODO",
      "id": "sodo-c22d3a",
      "locationSet": {"include": ["si"]},
      "tags": {
        "amenity": "charging_station",
        "operator": "SODO"
      }
    },
    {
      "displayName": "Sorégies",
      "id": "soregies-c22d3a",
      "locationSet": {"include": ["fr"]},
      "tags": {
        "amenity": "charging_station",
        "operator": "Sorégies"
      }
    },
    {
      "displayName": "Source London",
      "id": "sourcelondon-0793ce",
      "locationSet": {"include": ["gb"]},
      "tags": {
        "amenity": "charging_station",
        "brand": "Source London",
        "brand:wikidata": "Q7565133",
        "brand:wikipedia": "en:Source London",
        "name": "Source London",
        "operator": "Source London",
        "operator:wikidata": "Q7565133",
        "operator:wikipedia": "en:Source London"
      }
    },
    {
      "displayName": "Stadtwerke Augsburg",
      "id": "stadtwerkeaugsburg-c22d3a",
      "locationSet": {"include": ["de"]},
      "tags": {
        "amenity": "charging_station",
        "operator": "Stadtwerke Augsburg"
      }
    },
    {
      "displayName": "Stadtwerke Bielefeld",
      "id": "stadtwerkebielefeld-c22d3a",
      "locationSet": {"include": ["de"]},
      "tags": {
        "amenity": "charging_station",
        "operator": "Stadtwerke Bielefeld"
      }
    },
    {
      "displayName": "Stadtwerke Bochum",
      "id": "stadtwerkebochum-c22d3a",
      "locationSet": {"include": ["de"]},
      "tags": {
        "amenity": "charging_station",
        "operator": "Stadtwerke Bochum"
      }
    },
    {
      "displayName": "Stadtwerke Düsseldorf",
      "id": "stadtwerkedusseldorf-c22d3a",
      "locationSet": {"include": ["de"]},
      "tags": {
        "amenity": "charging_station",
        "operator": "Stadtwerke Düsseldorf"
      }
    },
    {
      "displayName": "Stadtwerke Heide",
      "id": "stadtwerkeheide-c22d3a",
      "locationSet": {"include": ["de"]},
      "tags": {
        "amenity": "charging_station",
        "operator": "Stadtwerke Heide"
      }
    },
    {
      "displayName": "Stadtwerke Iserlohn - Heimatversorger",
      "id": "stadtwerkeiserlohnheimatversorger-c22d3a",
      "locationSet": {"include": ["de"]},
      "tags": {
        "amenity": "charging_station",
        "operator": "Stadtwerke Iserlohn - Heimatversorger"
      }
    },
    {
      "displayName": "Stadtwerke Leipzig",
      "id": "stadtwerkeleipzig-c22d3a",
      "locationSet": {"include": ["de"]},
      "tags": {
        "amenity": "charging_station",
        "operator": "Stadtwerke Leipzig"
      }
    },
    {
      "displayName": "Stadtwerke Marburg",
      "id": "stadtwerkemarburg-c22d3a",
      "locationSet": {"include": ["de"]},
      "tags": {
        "amenity": "charging_station",
        "operator": "Stadtwerke Marburg"
      }
    },
    {
      "displayName": "Stadtwerke Meerbusch GmbH",
      "id": "stadtwerkemeerbuschgmbh-c22d3a",
      "locationSet": {"include": ["de"]},
      "tags": {
        "amenity": "charging_station",
        "operator": "Stadtwerke Meerbusch GmbH"
      }
    },
    {
      "displayName": "Stadtwerke München",
      "id": "stadtwerkemunchen-c22d3a",
      "locationSet": {"include": ["de"]},
      "tags": {
        "amenity": "charging_station",
        "operator": "Stadtwerke München"
      }
    },
    {
      "displayName": "Stadtwerke Norderstedt",
      "id": "stadtwerkenorderstedt-c22d3a",
      "locationSet": {"include": ["de"]},
      "tags": {
        "amenity": "charging_station",
        "operator": "Stadtwerke Norderstedt"
      }
    },
    {
      "displayName": "Stadtwerke Osnabrück",
      "id": "stadtwerkeosnabruck-c22d3a",
      "locationSet": {"include": ["de"]},
      "tags": {
        "amenity": "charging_station",
        "operator": "Stadtwerke Osnabrück"
      }
    },
    {
      "displayName": "Stadtwerke Pforzheim",
      "id": "stadtwerkepforzheim-c22d3a",
      "locationSet": {"include": ["de"]},
      "tags": {
        "amenity": "charging_station",
        "operator": "Stadtwerke Pforzheim"
      }
    },
    {
      "displayName": "Stadtwerke Speyer GmbH",
      "id": "stadtwerkespeyergmbh-c22d3a",
      "locationSet": {"include": ["de"]},
      "tags": {
        "amenity": "charging_station",
        "operator": "Stadtwerke Speyer GmbH"
      }
    },
    {
      "displayName": "Stadtwerke Tübingen",
      "id": "stadtwerketubingen-c22d3a",
      "locationSet": {"include": ["de"]},
      "tags": {
        "amenity": "charging_station",
        "operator": "Stadtwerke Tübingen"
      }
    },
    {
      "displayName": "Stadtwerke Tübingen GmbH",
      "id": "stadtwerketubingengmbh-c22d3a",
      "locationSet": {"include": ["de"]},
      "tags": {
        "amenity": "charging_station",
        "operator": "Stadtwerke Tübingen GmbH"
      }
    },
    {
      "displayName": "Stadtwerke Witten",
      "id": "stadtwerkewitten-c22d3a",
      "locationSet": {"include": ["de"]},
      "tags": {
        "amenity": "charging_station",
        "operator": "Stadtwerke Witten"
      }
    },
    {
      "displayName": "Stavanger kommune",
      "id": "stavangerkommune-c22d3a",
      "locationSet": {"include": ["no"]},
      "tags": {
        "amenity": "charging_station",
        "operator": "Stavanger kommune"
      }
    },
    {
      "displayName": "STAWAG",
      "id": "stawag-c22d3a",
      "locationSet": {"include": ["de"]},
      "tags": {
        "amenity": "charging_station",
        "operator": "STAWAG"
      }
    },
    {
      "displayName": "STPT",
      "id": "stpt-c22d3a",
      "locationSet": {"include": ["ro"]},
      "tags": {
        "amenity": "charging_station",
        "operator": "STPT"
      }
    },
    {
      "displayName": "Stromnetz Hamburg",
      "id": "stromnetzhamburg-c22d3a",
      "locationSet": {"include": ["de"]},
      "tags": {
        "amenity": "charging_station",
        "operator": "Stromnetz Hamburg"
      }
    },
    {
      "displayName": "Sunnfjord energi",
      "id": "sunnfjordenergi-c22d3a",
      "locationSet": {"include": ["no"]},
      "tags": {
        "amenity": "charging_station",
        "operator": "Sunnfjord energi"
      }
    },
    {
      "displayName": "Süwag",
      "id": "suwag-c22d3a",
      "locationSet": {"include": ["de"]},
      "matchNames": ["süwag energie ag"],
      "tags": {
        "amenity": "charging_station",
        "operator": "Süwag"
      }
    },
    {
      "displayName": "SWB",
      "id": "swb-c22d3a",
      "locationSet": {"include": ["de"]},
      "tags": {
        "amenity": "charging_station",
        "operator": "SWB"
      }
    },
    {
      "displayName": "SWM",
      "id": "swm-c22d3a",
      "locationSet": {"include": ["de"]},
      "tags": {
        "amenity": "charging_station",
        "operator": "SWM"
      }
    },
    {
      "displayName": "SWU Stadtwerke Ulm/Neu-Ulm GmbH",
      "id": "swustadtwerkeulmneuulmgmbh-c22d3a",
      "locationSet": {"include": ["de"]},
      "tags": {
        "amenity": "charging_station",
        "operator": "SWU Stadtwerke Ulm/Neu-Ulm GmbH"
      }
    },
    {
      "displayName": "SYANE",
      "id": "syane-c22d3a",
      "locationSet": {"include": ["fr"]},
      "tags": {
        "amenity": "charging_station",
        "operator": "SYANE"
      }
    },
    {
      "displayName": "SYDELA",
      "id": "sydela-c22d3a",
      "locationSet": {"include": ["fr"]},
      "matchNames": [
        "syndicat départemental d'énergie de loire-atlantique (sydela)"
      ],
      "tags": {
        "amenity": "charging_station",
        "operator": "SYDELA"
      }
    },
    {
      "displayName": "SYME05",
      "id": "syme05-c22d3a",
      "locationSet": {"include": ["fr"]},
      "tags": {
        "amenity": "charging_station",
        "operator": "SYME05"
      }
    },
    {
      "displayName": "Tank & Rast",
      "id": "tankandrast-c22d3a",
      "locationSet": {"include": ["de"]},
      "tags": {
        "amenity": "charging_station",
        "operator": "Tank & Rast"
      }
    },
    {
      "displayName": "Tesla Supercharger",
      "id": "teslasupercharger-c22d3a",
      "locationSet": {"include": ["001"]},
      "matchNames": [
        "tesla inc",
        "tesla motors",
        "tesla motors inc"
      ],
      "tags": {
        "amenity": "charging_station",
        "brand": "Tesla Supercharger",
        "brand:wikidata": "Q17089620",
        "brand:wikipedia": "en:Tesla Supercharger",
        "name": "Tesla Supercharger",
        "operator": "Tesla Supercharger",
        "operator:wikidata": "Q17089620",
        "operator:wikipedia": "en:Tesla Supercharger",
        "short_name": "Tesla"
      }
    },
    {
      "displayName": "TheNewMotion",
      "id": "thenewmotion-c22d3a",
      "locationSet": {"include": ["de"]},
      "tags": {
        "amenity": "charging_station",
        "operator": "TheNewMotion"
      }
    },
    {
      "displayName": "Toka",
      "id": "toka-c22d3a",
      "locationSet": {"include": ["001"]},
      "tags": {
        "amenity": "charging_station",
        "brand": "Toka",
        "name": "Toka",
        "operator": "Toka"
      }
    },
    {
      "displayName": "Trondheim kommune, Miljøenheten",
      "id": "trondheimkommunemiljoenheten-c22d3a",
      "locationSet": {"include": ["no"]},
      "tags": {
        "amenity": "charging_station",
        "operator": "Trondheim kommune, Miljøenheten"
      }
    },
    {
      "displayName": "Ubitricity",
      "id": "ubitricity-c22d3a",
      "locationSet": {"include": ["gb"]},
      "tags": {
        "amenity": "charging_station",
        "operator": "Ubitricity"
      }
    },
    {
      "displayName": "UTE",
      "id": "ute-c22d3a",
      "locationSet": {"include": ["uy"]},
      "tags": {
        "amenity": "charging_station",
        "operator": "UTE"
      }
    },
    {
      "displayName": "Vector",
      "id": "vector-c22d3a",
      "locationSet": {"include": ["001"]},
      "tags": {
        "amenity": "charging_station",
        "operator": "Vector"
      }
    },
    {
      "displayName": "VGS mbH",
      "id": "vgsmbh-c22d3a",
      "locationSet": {"include": ["de"]},
      "tags": {
        "amenity": "charging_station",
        "operator": "VGS mbH"
      }
    },
    {
      "displayName": "Viesgo",
      "id": "viesgo-c22d3a",
      "locationSet": {"include": ["es"]},
      "tags": {
        "amenity": "charging_station",
        "operator": "Viesgo"
      }
    },
    {
      "displayName": "VIRTA",
      "id": "virta-c22d3a",
      "locationSet": {"include": ["fi"]},
      "tags": {
        "amenity": "charging_station",
        "brand": "VIRTA",
        "name": "VIRTA",
        "operator": "VIRTA"
      }
    },
    {
      "displayName": "VLOTTE",
      "id": "vlotte-c22d3a",
      "locationSet": {"include": ["at"]},
      "tags": {
        "amenity": "charging_station",
        "operator": "VLOTTE"
      }
    },
    {
      "displayName": "Volta",
      "id": "volta-c22d3a",
      "locationSet": {"include": ["us"]},
      "tags": {
        "amenity": "charging_station",
        "operator": "Volta"
      }
    },
    {
      "displayName": "VOLTRUN",
      "id": "voltrun-c22d3a",
      "locationSet": {"include": ["tr"]},
      "tags": {
        "amenity": "charging_station",
        "operator": "VOLTRUN"
      }
    },
    {
      "displayName": "Vorarlberger Kraftwerke",
      "id": "vorarlbergerkraftwerke-c22d3a",
      "locationSet": {"include": ["at"]},
      "tags": {
        "amenity": "charging_station",
        "operator": "Vorarlberger Kraftwerke"
      }
    },
    {
      "displayName": "wallbe",
      "id": "wallbe-c22d3a",
      "locationSet": {"include": ["de"]},
      "tags": {
        "amenity": "charging_station",
        "operator": "wallbe"
      }
    },
    {
      "displayName": "Wels Strom E-Mobil",
      "id": "welsstromemobil-c22d3a",
      "locationSet": {"include": ["at"]},
      "tags": {
        "amenity": "charging_station",
        "operator": "Wels Strom E-Mobil"
      }
    },
    {
      "displayName": "Westfalen Weser Netz",
      "id": "westfalenwesernetz-c22d3a",
      "locationSet": {"include": ["de"]},
      "tags": {
        "amenity": "charging_station",
        "operator": "Westfalen Weser Netz"
      }
    },
    {
      "displayName": "Whole Foods",
      "id": "wholefoods-c22d3a",
      "locationSet": {"include": ["us"]},
      "tags": {
        "amenity": "charging_station",
        "operator": "Whole Foods"
      }
    },
    {
      "displayName": "Wien Energie GmbH",
      "id": "wienenergiegmbh-c22d3a",
      "locationSet": {"include": ["at"]},
      "tags": {
        "amenity": "charging_station",
        "operator": "Wien Energie GmbH"
      }
    },
    {
      "displayName": "ZES",
      "id": "zes-c22d3a",
      "locationSet": {"include": ["tr"]},
      "tags": {
        "amenity": "charging_station",
        "operator": "ZES"
      }
    },
    {
      "displayName": "ZSE",
      "id": "zse-c22d3a",
      "locationSet": {"include": ["sk"]},
      "tags": {
        "amenity": "charging_station",
        "operator": "ZSE"
      }
    },
    {
      "displayName": "АвтоЭнтерпрайз",
      "id": "b006d4-c22d3a",
      "locationSet": {"include": ["ua"]},
      "tags": {
        "amenity": "charging_station",
        "operator": "АвтоЭнтерпрайз"
      }
    },
    {
      "displayName": "Белоруснефть",
      "id": "ed92ce-c22d3a",
      "locationSet": {"include": ["by"]},
      "tags": {
        "amenity": "charging_station",
        "brand": "Белоруснефть",
        "brand:wikidata": "Q4082693",
        "brand:wikipedia": "ru:Белоруснефть",
        "name": "Белоруснефть",
        "operator": "Белоруснефть",
        "operator:wikidata": "Q4082693",
        "operator:wikipedia": "ru:Белоруснефть"
      }
    },
    {
      "displayName": "Одеська міська рада",
      "id": "09a705-c22d3a",
      "locationSet": {"include": ["ua"]},
      "tags": {
        "amenity": "charging_station",
        "operator": "Одеська міська рада"
      }
    },
    {
      "displayName": "ПАО \"Ленэнерго\"",
      "id": "7771ec-c22d3a",
      "locationSet": {"include": ["001"]},
      "tags": {
        "amenity": "charging_station",
        "operator": "ПАО \"Ленэнерго\""
      }
    },
    {
      "displayName": "Перша національна мережа електрозаправних комплексів \"Тока\"",
      "id": "1c61d4-c22d3a",
      "locationSet": {"include": ["001"]},
      "tags": {
        "amenity": "charging_station",
        "operator": "Перша національна мережа електрозаправних комплексів \"Тока\""
      }
    },
    {
      "displayName": "ПО «Белоруснефть»",
      "id": "e2b04f-c22d3a",
      "locationSet": {"include": ["001"]},
      "tags": {
        "amenity": "charging_station",
        "operator": "ПО «Белоруснефть»"
      }
    },
    {
      "displayName": "РУП \"Белоруснефть-Минскавтозаправка\"",
      "id": "44a84d-c22d3a",
      "locationSet": {"include": ["001"]},
      "tags": {
        "amenity": "charging_station",
        "operator": "РУП \"Белоруснефть-Минскавтозаправка\""
      }
    },
    {
      "displayName": "東光高岳",
      "id": "takaokatoko-7be592",
      "locationSet": {"include": ["jp"]},
      "tags": {
        "amenity": "charging_station",
        "brand": "東光高岳",
        "brand:en": "Takaoka Toko",
        "brand:ja": "東光高岳",
        "brand:wikidata": "Q17220263",
        "brand:wikipedia": "ja:東光高岳",
        "name": "東光高岳",
        "name:en": "Takaoka Toko",
        "name:ja": "東光高岳",
        "operator": "東光高岳",
        "operator:en": "Takaoka Toko",
        "operator:ja": "東光高岳",
        "operator:wikidata": "Q17220263",
        "operator:wikipedia": "ja:東光高岳"
      }
    },
    {
      "displayName": "睿能創意股份有限公司",
      "id": "d4b35c-c22d3a",
      "locationSet": {"include": ["001"]},
      "tags": {
        "amenity": "charging_station",
        "operator": "睿能創意股份有限公司"
      }
    },
    {
      "displayName": "英屬開曼群島商睿能新動力股份有限公司台灣分公司",
      "id": "66d0d4-c22d3a",
      "locationSet": {"include": ["001"]},
      "tags": {
        "amenity": "charging_station",
        "operator": "英屬開曼群島商睿能新動力股份有限公司台灣分公司"
      }
    }
  ]
}
