{
  "properties": {
    "path": "operators/amenity/childcare",
    "exclude": {
      "generic": [
        "^childcare$",
        "^daycare$",
        "^educational institute$"
      ]
    }
  },
  "items": [
    {
      "displayName": "Asha Worker",
      "id": "ashaworker-cf7bdf",
      "locationSet": {"include": ["001"]},
      "tags": {
        "amenity": "childcare",
        "operator": "Asha Worker"
      }
    },
    {
      "displayName": "Arbeiterwohlfahrt",
      "id": "awo-cf7bdf",
      "locationSet": {"include": ["de"]},
      "tags": {
        "amenity": "childcare",
        "operator": "Arbeiterwohlfahrt",
        "operator:short": "AWO",
        "operator:wikidata": "Q627256"
      }
    },
    {
      "displayName": "Babilou",
      "id": "babilou-cf7bdf",
      "locationSet": {"include": ["001"]},
      "tags": {
        "amenity": "childcare",
        "operator": "Babilou"
      }
    },
    {
      "displayName": "Család- és Gyermekjóléti Központ",
      "id": "csaladesgyermekjoletikozpont-cf7bdf",
      "locationSet": {"include": ["001"]},
      "tags": {
        "amenity": "childcare",
        "operator": "Család- és Gyermekjóléti Központ"
      }
    },
    {
      "displayName": "Department of Social Justice",
      "id": "departmentofsocialjustice-cf7bdf",
      "locationSet": {"include": ["001"]},
      "tags": {
        "amenity": "childcare",
        "operator": "Department of Social Justice"
      }
    },
    {
      "displayName": "Department Of Women And Child Development",
      "id": "departmentofwomenandchilddevelopment-cf7bdf",
      "locationSet": {"include": ["001"]},
      "tags": {
        "amenity": "childcare",
        "operator": "Department Of Women And Child Development"
      }
    },
    {
      "displayName": "Deutsches Rotes Kreuz",
      "id": "drk-cf7bdf",
      "locationSet": {"include": ["de"]},
      "tags": {
        "amenity": "childcare",
        "operator": "Deutsches Rotes Kreuz",
        "operator:short": "DRK",
        "operator:wikidata": "Q694104"
      }
    },
    {
      "displayName": "Fondation de l'Enfance et de la Jeunesse",
      "id": "fondationdelenfanceetdelajeunesse-cf7bdf",
      "locationSet": {"include": ["001"]},
      "tags": {
        "amenity": "childcare",
        "operator": "Fondation de l'Enfance et de la Jeunesse"
      }
    },
    {
      "displayName": "Government of Kerala",
      "id": "governmentofkerala-cf7bdf",
      "locationSet": {"include": ["001"]},
      "tags": {
        "amenity": "childcare",
        "operator": "Government of Kerala"
      }
    },
    {
      "displayName": "gramapanchayath",
      "id": "gramapanchayath-cf7bdf",
      "locationSet": {"include": ["001"]},
      "tags": {
        "amenity": "childcare",
        "operator": "gramapanchayath"
      }
    },
    {
      "displayName": "Helsingin kaupunki",
      "id": "helsinginkaupunki-cf7bdf",
      "locationSet": {"include": ["fi"]},
      "tags": {
        "amenity": "childcare",
        "operator": "Helsingin kaupunki"
      }
    },
    {
      "displayName": "ICBF",
      "id": "icbf-cf7bdf",
      "locationSet": {"include": ["001"]},
      "tags": {
        "amenity": "childcare",
        "operator": "ICBF"
      }
    },
    {
      "displayName": "ICDS",
      "id": "icds-cf7bdf",
      "locationSet": {"include": ["001"]},
      "tags": {
        "amenity": "childcare",
        "operator": "ICDS"
      }
    },
    {
      "displayName": "Integrated Child Development Services",
      "id": "integratedchilddevelopmentservices-cf7bdf",
      "locationSet": {"include": ["001"]},
      "tags": {
        "amenity": "childcare",
        "operator": "Integrated Child Development Services"
      }
    },
    {
      "displayName": "Københavns Kommune",
      "id": "kobenhavnskommune-cf7bdf",
      "locationSet": {"include": ["dk"]},
      "tags": {
        "amenity": "childcare",
        "operator": "Københavns Kommune"
      }
    },
    {
      "displayName": "Mairie de Paris",
      "id": "mairiedeparis-cf7bdf",
      "locationSet": {"include": ["fx"]},
      "tags": {
        "amenity": "childcare",
        "operator": "Mairie de Paris"
      }
    },
    {
      "displayName": "Othukkungal grama panchayath",
      "id": "othukkungalgramapanchayath-cf7bdf",
      "locationSet": {"include": ["001"]},
      "tags": {
        "amenity": "childcare",
        "operator": "Othukkungal grama panchayath"
      }
    },
    {
      "displayName": "San José Unified School District",
      "id": "sanjoseunifiedschooldistrict-f5a142",
      "locationSet": {
        "include": ["us-ca.geojson"]
      },
      "tags": {
        "amenity": "childcare",
        "operator": "San José Unified School District",
        "operator:short": "SJUSD",
        "operator:type": "public",
        "operator:wikidata": "Q7414497",
        "operator:wikipedia": "en:San José Unified School District"
      }
    },
    {
      "displayName": "Ville de Marseille",
      "id": "villedemarseille-cf7bdf",
      "locationSet": {"include": ["fx"]},
      "tags": {
        "amenity": "childcare",
        "operator": "Ville de Marseille"
      }
    }
  ]
}
