{
  "operators/amenity/clinic": [
    {
      "displayName": "Aid Post",
      "id": "aidpost-dd29f6",
      "locationSet": {"include": ["vu"]},
      "tags": {
        "amenity": "clinic",
        "operator": "Aid Post",
        "name": "Aid Post"
      }
    },
    {
      "displayName": "Asepeyo",
      "id": "asepeyo-01a836",
      "locationSet": {"include": ["es"]},
      "tags": {
        "amenity": "clinic",
        "operator": "Asepeyo",
        "operator:wikidata": "Q11906879",
        "operator:wikipedia": "es:Asepeyo",
        "healthcare": "clinic",
        "name": "Asepeyo"
      }
    },
    {
      "displayName": "CityMD",
      "id": "citymd-b3ff53",
      "locationSet": {"include": ["us"]},
      "tags": {
        "amenity": "clinic",
        "operator": "CityMD",
        "operator:wikidata": "Q22295471",
        "operator:wikipedia": "en:CityMD",
        "healthcare": "clinic",
        "name": "CityMD"
      }
    },
    {
      "displayName": "DaVita Dialysis",
      "id": "davitadialysis-b3ff53",
      "locationSet": {"include": ["us"]},
      "matchNames": [
        "davita",
        "davita dialysis center",
        "davita kidney care"
      ],
      "tags": {
        "amenity": "clinic",
        "operator": "DaVita Dialysis",
        "operator:wikidata": "Q5207184",
        "operator:wikipedia": "de:DaVita",
        "healthcare": "dialysis",
        "healthcare:speciality": "dialysis",
        "name": "DaVita Dialysis"
      }
    },
    {
      "displayName": "Dialysis Clinic",
      "id": "dialysisclinic-b3ff53",
      "locationSet": {"include": ["us"]},
      "matchNames": ["dialysis clinic inc"],
      "tags": {
        "amenity": "clinic",
        "operator": "Dialysis Clinic",
        "operator:wikidata": "Q5270633",
        "operator:wikipedia": "en:Dialysis Clinic, Inc.",
        "healthcare": "dialysis",
        "healthcare:speciality": "dialysis",
        "name": "Dialysis Clinic",
        "short_name": "DCI"
      }
    },
    {
      "displayName": "ECHS Polyclinic",
      "id": "echspolyclinic-ed675b",
      "locationSet": {"include": ["001"]},
      "tags": {
        "amenity": "clinic",
        "operator": "ECHS Polyclinic",
        "name": "ECHS Polyclinic"
      }
    },
    {
      "displayName": "Fresenius Kidney Care",
      "id": "freseniuskidneycare-b3ff53",
      "locationSet": {"include": ["us"]},
      "tags": {
        "amenity": "clinic",
        "operator": "Fresenius Kidney Care",
        "operator:wikidata": "Q650259",
        "operator:wikipedia": "en:Fresenius Medical Care",
        "healthcare": "dialysis",
        "healthcare:speciality": "dialysis",
        "name": "Fresenius Kidney Care"
      }
    },
    {
      "displayName": "Fresenius Medical Care",
      "id": "freseniusmedicalcare-b3ff53",
      "locationSet": {"include": ["us"]},
      "tags": {
        "amenity": "clinic",
        "operator": "Fresenius Medical Care",
        "operator:wikidata": "Q650259",
        "operator:wikipedia": "en:Fresenius Medical Care",
        "healthcare": "dialysis",
        "healthcare:speciality": "dialysis",
        "name": "Fresenius Medical Care"
      }
    },
    {
      "displayName": "Klinik Mediviron",
      "id": "klinikmediviron-29d11b",
      "locationSet": {"include": ["my"]},
      "matchNames": ["mediveron"],
      "tags": {
        "amenity": "clinic",
        "operator": "Klinik Mediviron",
        "operator:wikidata": "Q97498892",
        "operator:wikipedia": "ms:Klinik Mediviron",
        "healthcare": "clinic",
        "name": "Klinik Mediviron",
        "name:ms": "Klinik Mediviron",
        "name:zh": "马安药房"
      }
    },
    {
      "displayName": "Planned Parenthood",
      "id": "plannedparenthood-b3ff53",
      "locationSet": {"include": ["us"]},
      "matchTags": [
        "amenity/social_facility",
        "healthcare/counselling"
      ],
      "tags": {
        "amenity": "clinic",
        "operator": "Planned Parenthood",
        "operator:wikidata": "Q2553262",
        "operator:wikipedia": "en:Planned Parenthood",
        "healthcare": "counselling",
        "healthcare:counselling": "antenatal;sexual",
        "name": "Planned Parenthood"
      }
    },
    {
      "displayName": "Posyandu",
      "id": "posyandu-87a279",
      "locationSet": {"include": ["id"]},
      "tags": {
        "amenity": "clinic",
        "operator": "Posyandu",
        "name": "Posyandu"
      }
    },
    {
      "displayName": "Puskesmas",
      "id": "puskesmas-87a279",
      "locationSet": {"include": ["id"]},
      "tags": {
        "amenity": "clinic",
        "operator": "Puskesmas",
        "name": "Puskesmas"
      }
    },
    {
      "displayName": "Puskesmas Pembantu",
      "id": "puskesmaspembantu-87a279",
      "locationSet": {"include": ["id"]},
      "tags": {
        "amenity": "clinic",
        "operator": "Puskesmas Pembantu",
        "name": "Puskesmas Pembantu"
      }
    },
    {
      "displayName": "Satellite Healthcare",
      "id": "satellitehealthcare-b3ff53",
      "locationSet": {"include": ["us"]},
      "matchNames": [
        "satellite",
        "satellite dialysis"
      ],
      "tags": {
        "amenity": "clinic",
        "operator": "Satellite Healthcare",
        "operator:wikidata": "Q50039787",
        "healthcare": "dialysis",
        "healthcare:speciality": "dialysis",
        "name": "Satellite Healthcare"
      }
    },
    {
      "displayName": "Terveystalo",
      "id": "terveystalo-054044",
      "locationSet": {"include": ["fi"]},
      "tags": {
        "amenity": "clinic",
        "operator": "Terveystalo",
        "operator:wikidata": "Q11897034",
        "operator:wikipedia": "fi:Terveystalo",
        "healthcare": "clinic",
        "name": "Terveystalo"
      }
    },
    {
      "displayName": "VA Clinic",
      "id": "vaclinic-b3ff53",
      "locationSet": {"include": ["us"]},
      "matchNames": [
        "department of veterans affairs clinic",
        "veterans administration",
        "veterans administration clinic",
        "veterans affairs",
        "veterans affairs clinic"
      ],
      "tags": {
        "amenity": "clinic",
        "operator": "VA",
        "operator:wikidata": "Q6580225",
        "operator:wikipedia": "en:Veterans Health Administration",
        "healthcare": "clinic",
        "healthcare:for": "veterans",
        "name": "VA Clinic",
        "short_name": "VA"
      }
    },
    {
      "displayName": "Västra Götalandsregionen",
      "id": "vastragotalandsregionen-ed675b",
      "locationSet": {"include": ["001"]},
      "tags": {
        "amenity": "clinic",
        "operator": "Västra Götalandsregionen",
        "name": "Västra Götalandsregionen"
      }
    },
    {
      "displayName": "ZoomCare",
      "id": "zoomcare-b3ff53",
      "locationSet": {"include": ["us"]},
      "tags": {
        "amenity": "clinic",
        "operator": "ZoomCare",
        "operator:wikidata": "Q64120374",
        "operator:wikipedia": "en:ZoomCare",
        "healthcare": "clinic",
        "name": "ZoomCare",
        "urgent_care": "yes"
      }
    },
    {
      "displayName": "МИБС",
      "id": "2fd871-8913a7",
      "locationSet": {"include": ["ru"]},
      "matchTags": ["shop/medical_supply"],
      "tags": {
        "amenity": "clinic",
        "operator": "МИБС",
        "healthcare": "clinic",
        "healthcare:speciality": "diagnostic_radiology",
        "name": "МИБС"
      }
    },
    {
      "displayName": "โรงพยาบาลส่งเสริมสุขภาพตำบล",
      "id": "2beb32-a461c3",
      "locationSet": {"include": ["th"]},
      "matchTags": ["amenity/hospital"],
      "tags": {
        "amenity": "clinic",
        "operator": "โรงพยาบาลส่งเสริมสุขภาพตำบล",
        "operator:th": "โรงพยาบาลส่งเสริมสุขภาพตำบล",
        "operator:wikidata": "Q16306413",
        "operator:wikipedia": "th:โรงพยาบาลส่งเสริมสุขภาพตำบล",
        "name": "โรงพยาบาลส่งเสริมสุขภาพตำบล",
        "name:th": "โรงพยาบาลส่งเสริมสุขภาพตำบล"
      }
    }
  ]
}
