{
  "properties": {
    "path": "operators/amenity/college",
    "exclude": {
      "generic": ["^autonomo$", "^college$"]
    }
  },
  "items": [
    {
      "displayName": "#IFES",
      "id": "ifes-628adc",
      "locationSet": {"include": ["br"]},
      "tags": {
        "amenity": "college",
        "operator": "#IFES"
      }
    },
    {
      "displayName": "Centro Paula Souza",
      "id": "centropaulasouza-628adc",
      "locationSet": {"include": ["br"]},
      "tags": {
        "amenity": "college",
        "operator": "Centro Paula Souza"
      }
    },
    {
      "displayName": "City of Dublin Education and Training Board",
      "id": "cityofdublineducationandtrainingboard-28c2b0",
      "locationSet": {"include": ["ie"]},
      "tags": {
        "amenity": "college",
        "operator": "City of Dublin Education and Training Board"
      }
    },
    {
      "displayName": "Consejo de Formación en Educación",
      "id": "consejodeformacioneneducacion-d4c5f0",
      "locationSet": {"include": ["001"]},
      "tags": {
        "amenity": "college",
        "operator": "Consejo de Formación en Educación"
      }
    },
    {
      "displayName": "Dunamare onderwijs",
      "id": "dunamareonderwijs-d4c5f0",
      "locationSet": {"include": ["001"]},
      "tags": {
        "amenity": "college",
        "operator": "Dunamare onderwijs"
      }
    },
    {
      "displayName": "École de la Deuxième Chance - France",
      "id": "ecoledeladeuxiemechancefrance-d4c5f0",
      "locationSet": {"include": ["001"]},
      "tags": {
        "amenity": "college",
        "operator": "École de la Deuxième Chance - France"
      }
    },
    {
      "displayName": "Federal",
      "id": "federal-d4c5f0",
      "locationSet": {"include": ["001"]},
      "tags": {
        "amenity": "college",
        "operator": "Federal"
      }
    },
    {
      "displayName": "Government of Ghana",
      "id": "governmentofghana-d4c5f0",
      "locationSet": {"include": ["001"]},
      "tags": {
        "amenity": "college",
        "operator": "Government of Ghana"
      }
    },
    {
      "displayName": "Government of Western Australia",
      "id": "governmentofwesternaustralia-d4c5f0",
      "locationSet": {"include": ["001"]},
      "tags": {
        "amenity": "college",
        "operator": "Government of Western Australia"
      }
    },
    {
      "displayName": "Governo Federal",
      "id": "governofederal-d4c5f0",
      "locationSet": {"include": ["001"]},
      "tags": {
        "amenity": "college",
        "operator": "Governo Federal"
      }
    },
    {
      "displayName": "INA",
      "id": "ina-d4c5f0",
      "locationSet": {"include": ["001"]},
      "tags": {
        "amenity": "college",
        "operator": "INA"
      }
    },
    {
      "displayName": "Ministère de l'Éducation nationale, de l'Enseignement supérieur et de la Recherche",
      "id": "ministeredeleducationnationaledelenseignementsuperieuretdelarecherche-d4c5f0",
      "locationSet": {"include": ["001"]},
      "tags": {
        "amenity": "college",
        "operator": "Ministère de l'Éducation nationale, de l'Enseignement supérieur et de la Recherche"
      }
    },
    {
      "displayName": "Ocean County College",
      "id": "oceancountycollege-d4c5f0",
      "locationSet": {"include": ["001"]},
      "tags": {
        "amenity": "college",
        "operator": "Ocean County College"
      }
    },
    {
      "displayName": "Organismo Descentralizado Del Gobierno Del Estado",
      "id": "organismodescentralizadodelgobiernodelestado-d4c5f0",
      "locationSet": {"include": ["001"]},
      "tags": {
        "amenity": "college",
        "operator": "Organismo Descentralizado Del Gobierno Del Estado"
      }
    },
    {
      "displayName": "Portland Community College",
      "id": "portlandcommunitycollege-58b6d9",
      "locationSet": {
        "include": ["us-or.geojson"]
      },
      "tags": {
        "amenity": "college",
        "operator": "Portland Community College",
        "operator:short": "PCC",
        "operator:wikidata": "Q7231908"
      }
    },
    {
      "displayName": "Qaraqalpaqstan Respublikası mektepke shekemgi hám mektep bilimlendiriw ministrligi",
      "id": "qaraqalpaqstanrespublikasimektepkeshekemgihammektepbilimlendiriwministrligi-d4c5f0",
      "locationSet": {"include": ["001"]},
      "tags": {
        "amenity": "college",
        "operator": "Qaraqalpaqstan Respublikası mektepke shekemgi hám mektep bilimlendiriw ministrligi"
      }
    },
    {
      "displayName": "SENA",
      "id": "sena-d4c5f0",
      "locationSet": {"include": ["001"]},
      "tags": {
        "amenity": "college",
        "operator": "SENA"
      }
    },
    {
      "displayName": "Serviço Nacional da Indústria",
      "id": "serviconacionaldaindustria-d4c5f0",
      "locationSet": {"include": ["001"]},
      "tags": {
        "amenity": "college",
        "operator": "Serviço Nacional da Indústria"
      }
    },
    {
      "displayName": "Skk School Spółka Z Ograniczoną Odpowiedzialnością",
      "id": "skkschoolspolkazograniczonaodpowiedzialnoscia-d4c5f0",
      "locationSet": {"include": ["001"]},
      "tags": {
        "amenity": "college",
        "operator": "Skk School Spółka Z Ograniczoną Odpowiedzialnością"
      }
    },
    {
      "displayName": "TAFE NSW",
      "id": "tafensw-e830c3",
      "locationSet": {
        "include": ["au-nsw.geojson"]
      },
      "tags": {
        "amenity": "college",
        "operator": "TAFE NSW",
        "operator:type": "government",
        "operator:wikidata": "Q7669247"
      }
    },
    {
      "displayName": "TAFE Queensland",
      "id": "tafequeensland-fa7e1f",
      "locationSet": {
        "include": ["au-qld.geojson"]
      },
      "tags": {
        "amenity": "college",
        "operator": "TAFE Queensland",
        "operator:type": "government",
        "operator:wikidata": "Q18166659"
      }
    },
    {
      "displayName": "TAFE South Australia",
      "id": "tafesouthaustralia-6ab48a",
      "locationSet": {
        "include": ["au-sa.geojson"]
      },
      "tags": {
        "amenity": "college",
        "operator": "TAFE South Australia",
        "operator:type": "government",
        "operator:wikidata": "Q7669251"
      }
    },
    {
      "displayName": "TAFE Victoria",
      "id": "tafevictoria-982bd2",
      "locationSet": {
        "include": ["au-vic.geojson"]
      },
      "tags": {
        "amenity": "college",
        "operator": "TAFE Victoria",
        "operator:type": "government",
        "operator:wikidata": "Q7669253"
      }
    },
    {
      "displayName": "TasTAFE",
      "id": "tastafe-e237af",
      "locationSet": {"include": ["au-tas"]},
      "tags": {
        "amenity": "college",
        "operator": "TasTAFE",
        "operator:type": "government",
        "operator:wikidata": "Q7669252"
      }
    },
    {
      "displayName": "Universidade de São Paulo",
      "id": "universidadedesaopaulo-d4c5f0",
      "locationSet": {"include": ["001"]},
      "tags": {
        "amenity": "college",
        "operator": "Universidade de São Paulo"
      }
    },
    {
      "displayName": "Université de Lille",
      "id": "universitedelille-d4c5f0",
      "locationSet": {"include": ["001"]},
      "tags": {
        "amenity": "college",
        "operator": "Université de Lille"
      }
    },
    {
      "displayName": "Universiti Malaya",
      "id": "universitimalaya-d4c5f0",
      "locationSet": {"include": ["001"]},
      "tags": {
        "amenity": "college",
        "operator": "Universiti Malaya"
      }
    },
    {
      "displayName": "University of California, Irvine",
      "id": "universityofcaliforniairvine-d4c5f0",
      "locationSet": {"include": ["001"]},
      "tags": {
        "amenity": "college",
        "operator": "University of California, Irvine"
      }
    },
    {
      "displayName": "University of Duhok",
      "id": "universityofduhok-d4c5f0",
      "locationSet": {"include": ["001"]},
      "tags": {
        "amenity": "college",
        "operator": "University of Duhok"
      }
    },
    {
      "displayName": "University of North Georgia",
      "id": "universityofnorthgeorgia-d4c5f0",
      "locationSet": {"include": ["001"]},
      "tags": {
        "amenity": "college",
        "operator": "University of North Georgia"
      }
    },
    {
      "displayName": "University of the Highlands and Islands",
      "id": "universityofthehighlandsandislands-d4c5f0",
      "locationSet": {"include": ["001"]},
      "tags": {
        "amenity": "college",
        "operator": "University of the Highlands and Islands"
      }
    },
    {
      "displayName": "中国科学技术大学",
      "id": "5a23d3-d4c5f0",
      "locationSet": {"include": ["001"]},
      "tags": {
        "amenity": "college",
        "operator": "中国科学技术大学"
      }
    },
    {
      "displayName": "北京理工大学珠海学院",
      "id": "356029-d4c5f0",
      "locationSet": {"include": ["001"]},
      "tags": {
        "amenity": "college",
        "operator": "北京理工大学珠海学院"
      }
    },
    {
      "displayName": "金沢工業大学",
      "id": "b43625-d4c5f0",
      "locationSet": {"include": ["001"]},
      "tags": {
        "amenity": "college",
        "operator": "金沢工業大学"
      }
    }
  ]
}
