{
  "properties": {
    "path": "operators/amenity/drinking_water",
    "exclude": {"generic": ["^drinking water$"]}
  },
  "items": [
    {
      "displayName": "(Local) Private Sector- Name/No",
      "id": "localprivatesectornameno-3fbe17",
      "locationSet": {"include": ["001"]},
      "tags": {
        "amenity": "drinking_water",
        "operator": "(Local) Private Sector- Name/No"
      }
    },
    {
      "displayName": "A2A Ciclo Idrico S.p.a.",
      "id": "a2acicloidricospa-3fbe17",
      "locationSet": {"include": ["001"]},
      "tags": {
        "amenity": "drinking_water",
        "operator": "A2A Ciclo Idrico S.p.a."
      }
    },
    {
      "displayName": "AAH-Uganda",
      "id": "aahuganda-3fbe17",
      "locationSet": {"include": ["001"]},
      "tags": {
        "amenity": "drinking_water",
        "operator": "AAH-Uganda"
      }
    },
    {
      "displayName": "Acque Spa",
      "id": "acquespa-3fbe17",
      "locationSet": {"include": ["001"]},
      "tags": {
        "amenity": "drinking_water",
        "operator": "Acque Spa"
      }
    },
    {
      "displayName": "Acquedotto Pugliese - Cooperativa Comunità Melpignano",
      "id": "acquedottopugliesecooperativacomunitamelpignano-3fbe17",
      "locationSet": {"include": ["001"]},
      "tags": {
        "amenity": "drinking_water",
        "operator": "Acquedotto Pugliese - Cooperativa Comunità Melpignano"
      }
    },
    {
      "displayName": "Ajuntament de l'Hospitalet de Llobregat",
      "id": "ajuntamentdelhospitaletdellobregat-3fbe17",
      "locationSet": {"include": ["001"]},
      "tags": {
        "amenity": "drinking_water",
        "operator": "Ajuntament de l'Hospitalet de Llobregat"
      }
    },
    {
      "displayName": "Ajuntament de València",
      "id": "ajuntamentdevalencia-3fbe17",
      "locationSet": {"include": ["001"]},
      "tags": {
        "amenity": "drinking_water",
        "operator": "Ajuntament de València"
      }
    },
    {
      "displayName": "AQP",
      "id": "aqp-3fbe17",
      "locationSet": {"include": ["001"]},
      "tags": {
        "amenity": "drinking_water",
        "operator": "AQP"
      }
    },
    {
      "displayName": "Ayuntamiento de Los Corrales de Buelna",
      "id": "ayuntamientodeloscorralesdebuelna-3fbe17",
      "locationSet": {"include": ["001"]},
      "tags": {
        "amenity": "drinking_water",
        "operator": "Ayuntamiento de Los Corrales de Buelna"
      }
    },
    {
      "displayName": "Ayuntamiento de Madrid",
      "id": "ayuntamientodemadrid-a7f52c",
      "locationSet": {"include": ["es"]},
      "tags": {
        "amenity": "drinking_water",
        "operator": "Ayuntamiento de Madrid",
        "operator:wikidata": "Q3773976",
        "operator:wikipedia": "es:Ayuntamiento de Madrid"
      }
    },
    {
      "displayName": "Ayuntamiento de San Felices de Buelna",
      "id": "ayuntamientodesanfelicesdebuelna-3fbe17",
      "locationSet": {"include": ["001"]},
      "tags": {
        "amenity": "drinking_water",
        "operator": "Ayuntamiento de San Felices de Buelna"
      }
    },
    {
      "displayName": "Azienda Servizi Ambientali S.p.A.",
      "id": "aziendaserviziambientalispa-3fbe17",
      "locationSet": {"include": ["001"]},
      "tags": {
        "amenity": "drinking_water",
        "operator": "Azienda Servizi Ambientali S.p.A."
      }
    },
    {
      "displayName": "Azienda Servizi Valtrompia S.p.a.",
      "id": "aziendaservizivaltrompiaspa-3fbe17",
      "locationSet": {"include": ["001"]},
      "tags": {
        "amenity": "drinking_water",
        "operator": "Azienda Servizi Valtrompia S.p.a."
      }
    },
    {
      "displayName": "Bebedouro",
      "id": "bebedouro-3fbe17",
      "locationSet": {"include": ["001"]},
      "tags": {
        "amenity": "drinking_water",
        "operator": "Bebedouro"
      }
    },
    {
      "displayName": "Berliner Wasserbetriebe",
      "id": "berlinerwasserbetriebe-3fbe17",
      "locationSet": {"include": ["001"]},
      "tags": {
        "amenity": "drinking_water",
        "operator": "Berliner Wasserbetriebe"
      }
    },
    {
      "displayName": "CAMEP",
      "id": "camep-3fbe17",
      "locationSet": {"include": ["001"]},
      "tags": {
        "amenity": "drinking_water",
        "operator": "CAMEP"
      }
    },
    {
      "displayName": "Community",
      "id": "community-3fbe17",
      "locationSet": {"include": ["001"]},
      "tags": {
        "amenity": "drinking_water",
        "operator": "Community"
      }
    },
    {
      "displayName": "Community (Technician) Name/No",
      "id": "communitytechniciannameno-3fbe17",
      "locationSet": {"include": ["001"]},
      "tags": {
        "amenity": "drinking_water",
        "operator": "Community (Technician) Name/No"
      }
    },
    {
      "displayName": "Comune di Ortisei / Gemeinde St. Ulrich",
      "id": "comunediortiseigemeindestulrich-3fbe17",
      "locationSet": {"include": ["001"]},
      "tags": {
        "amenity": "drinking_water",
        "operator": "Comune di Ortisei / Gemeinde St. Ulrich"
      }
    },
    {
      "displayName": "Comune di Selva / Gemeinde Wolkenstein",
      "id": "comunediselvagemeindewolkenstein-3fbe17",
      "locationSet": {"include": ["001"]},
      "tags": {
        "amenity": "drinking_water",
        "operator": "Comune di Selva / Gemeinde Wolkenstein"
      }
    },
    {
      "displayName": "Croix-rouge",
      "id": "croixrouge-3fbe17",
      "locationSet": {"include": ["001"]},
      "tags": {
        "amenity": "drinking_water",
        "operator": "Croix-rouge"
      }
    },
    {
      "displayName": "Darebin City Council",
      "id": "darebincitycouncil-3fbe17",
      "locationSet": {"include": ["001"]},
      "tags": {
        "amenity": "drinking_water",
        "operator": "Darebin City Council"
      }
    },
    {
      "displayName": "Dunea",
      "id": "dunea-3fbe17",
      "locationSet": {"include": ["001"]},
      "tags": {
        "amenity": "drinking_water",
        "operator": "Dunea"
      }
    },
    {
      "displayName": "Eau de Paris",
      "id": "eaudeparis-3fbe17",
      "locationSet": {"include": ["001"]},
      "tags": {
        "amenity": "drinking_water",
        "operator": "Eau de Paris"
      }
    },
    {
      "displayName": "Evides",
      "id": "evides-3fbe17",
      "locationSet": {"include": ["001"]},
      "tags": {
        "amenity": "drinking_water",
        "operator": "Evides"
      }
    },
    {
      "displayName": "Gemeinde",
      "id": "gemeinde-3fbe17",
      "locationSet": {"include": ["001"]},
      "tags": {
        "amenity": "drinking_water",
        "operator": "Gemeinde"
      }
    },
    {
      "displayName": "Gemeinde Toblach",
      "id": "gemeindetoblach-3fbe17",
      "locationSet": {"include": ["001"]},
      "tags": {
        "amenity": "drinking_water",
        "operator": "Gemeinde Toblach"
      }
    },
    {
      "displayName": "Gemeinde Truden",
      "id": "gemeindetruden-3fbe17",
      "locationSet": {"include": ["001"]},
      "tags": {
        "amenity": "drinking_water",
        "operator": "Gemeinde Truden"
      }
    },
    {
      "displayName": "Hocking Hills State Park",
      "id": "hockinghillsstatepark-3fbe17",
      "locationSet": {"include": ["001"]},
      "tags": {
        "amenity": "drinking_water",
        "operator": "Hocking Hills State Park"
      }
    },
    {
      "displayName": "Institution Staff",
      "id": "institutionstaff-3fbe17",
      "locationSet": {"include": ["001"]},
      "tags": {
        "amenity": "drinking_water",
        "operator": "Institution Staff"
      }
    },
    {
      "displayName": "Iren",
      "id": "iren-3fbe17",
      "locationSet": {"include": ["001"]},
      "tags": {
        "amenity": "drinking_water",
        "operator": "Iren"
      }
    },
    {
      "displayName": "Jointhepipe",
      "id": "jointhepipe-3fbe17",
      "locationSet": {"include": ["001"]},
      "tags": {
        "amenity": "drinking_water",
        "operator": "Jointhepipe"
      }
    },
    {
      "displayName": "JoinThePipe, for Brabant Water",
      "id": "jointhepipeforbrabantwater-3fbe17",
      "locationSet": {"include": ["001"]},
      "tags": {
        "amenity": "drinking_water",
        "operator": "JoinThePipe, for Brabant Water"
      }
    },
    {
      "displayName": "Kartanonhaan palstaviljelijät ry",
      "id": "kartanonhaanpalstaviljelijatry-3fbe17",
      "locationSet": {"include": ["001"]},
      "tags": {
        "amenity": "drinking_water",
        "operator": "Kartanonhaan palstaviljelijät ry"
      }
    },
    {
      "displayName": "London Drinking Fountain Fund",
      "id": "londondrinkingfountainfund-3fbe17",
      "locationSet": {"include": ["001"]},
      "tags": {
        "amenity": "drinking_water",
        "operator": "London Drinking Fountain Fund"
      }
    },
    {
      "displayName": "LWSC",
      "id": "lwsc-3fbe17",
      "locationSet": {"include": ["001"]},
      "tags": {
        "amenity": "drinking_water",
        "operator": "LWSC"
      }
    },
    {
      "displayName": "Metropolitana Milanese - MM SpA",
      "id": "metropolitanamilanesemmspa-3fbe17",
      "locationSet": {"include": ["001"]},
      "tags": {
        "amenity": "drinking_water",
        "operator": "Metropolitana Milanese - MM SpA"
      }
    },
    {
      "displayName": "Municipality of Shumen",
      "id": "municipalityofshumen-3fbe17",
      "locationSet": {"include": ["001"]},
      "tags": {
        "amenity": "drinking_water",
        "operator": "Municipality of Shumen"
      }
    },
    {
      "displayName": "ngo",
      "id": "ngo-3fbe17",
      "locationSet": {"include": ["001"]},
      "tags": {
        "amenity": "drinking_water",
        "operator": "ngo"
      }
    },
    {
      "displayName": "NS",
      "id": "ns-3fbe17",
      "locationSet": {"include": ["001"]},
      "tags": {
        "amenity": "drinking_water",
        "operator": "NS"
      }
    },
    {
      "displayName": "Oasen",
      "id": "oasen-3fbe17",
      "locationSet": {"include": ["001"]},
      "tags": {
        "amenity": "drinking_water",
        "operator": "Oasen"
      }
    },
    {
      "displayName": "öffentlich",
      "id": "offentlich-3fbe17",
      "locationSet": {"include": ["001"]},
      "tags": {
        "amenity": "drinking_water",
        "operator": "öffentlich"
      }
    },
    {
      "displayName": "ONEA",
      "id": "onea-3fbe17",
      "locationSet": {"include": ["001"]},
      "tags": {
        "amenity": "drinking_water",
        "operator": "ONEA"
      }
    },
    {
      "displayName": "Oxfam",
      "id": "oxfam-3fbe17",
      "locationSet": {"include": ["001"]},
      "tags": {
        "amenity": "drinking_water",
        "operator": "Oxfam"
      }
    },
    {
      "displayName": "private",
      "id": "private-3fbe17",
      "locationSet": {"include": ["001"]},
      "tags": {
        "amenity": "drinking_water",
        "operator": "private"
      }
    },
    {
      "displayName": "Provincia di Brescia",
      "id": "provinciadibrescia-3fbe17",
      "locationSet": {"include": ["001"]},
      "tags": {
        "amenity": "drinking_water",
        "operator": "Provincia di Brescia"
      }
    },
    {
      "displayName": "Public",
      "id": "public-3fbe17",
      "locationSet": {"include": ["001"]},
      "tags": {
        "amenity": "drinking_water",
        "operator": "Public"
      }
    },
    {
      "displayName": "PWN",
      "id": "pwn-3fbe17",
      "locationSet": {"include": ["001"]},
      "tags": {
        "amenity": "drinking_water",
        "operator": "PWN"
      }
    },
    {
      "displayName": "SBB",
      "id": "sbb-3fbe17",
      "locationSet": {"include": ["001"]},
      "tags": {
        "amenity": "drinking_water",
        "operator": "SBB"
      }
    },
    {
      "displayName": "SMAT",
      "id": "smat-3fbe17",
      "locationSet": {"include": ["001"]},
      "tags": {
        "amenity": "drinking_water",
        "operator": "SMAT"
      }
    },
    {
      "displayName": "Stadt Wien",
      "id": "stadtwien-3fbe17",
      "locationSet": {"include": ["001"]},
      "tags": {
        "amenity": "drinking_water",
        "operator": "Stadt Wien"
      }
    },
    {
      "displayName": "Stadtwerke Brixen AG",
      "id": "stadtwerkebrixenag-3fbe17",
      "locationSet": {"include": ["001"]},
      "tags": {
        "amenity": "drinking_water",
        "operator": "Stadtwerke Brixen AG"
      }
    },
    {
      "displayName": "Stadtwerke Meran/Azienda Servizi Municipalizzati di Merano",
      "id": "stadtwerkemeranaziendaservizimunicipalizzatidimerano-3fbe17",
      "locationSet": {"include": ["001"]},
      "tags": {
        "amenity": "drinking_water",
        "operator": "Stadtwerke Meran/Azienda Servizi Municipalizzati di Merano"
      }
    },
    {
      "displayName": "Szegedi Vízmű Zrt.",
      "id": "szegedivizmuzrt-3fbe17",
      "locationSet": {"include": ["001"]},
      "tags": {
        "amenity": "drinking_water",
        "operator": "Szegedi Vízmű Zrt."
      }
    },
    {
      "displayName": "Tom",
      "id": "tom-3fbe17",
      "locationSet": {"include": ["001"]},
      "tags": {
        "amenity": "drinking_water",
        "operator": "Tom"
      }
    },
    {
      "displayName": "Trevornick Holiday Park",
      "id": "trevornickholidaypark-3fbe17",
      "locationSet": {"include": ["001"]},
      "tags": {
        "amenity": "drinking_water",
        "operator": "Trevornick Holiday Park"
      }
    },
    {
      "displayName": "University of Melbourne",
      "id": "universityofmelbourne-3fbe17",
      "locationSet": {"include": ["001"]},
      "tags": {
        "amenity": "drinking_water",
        "operator": "University of Melbourne"
      }
    },
    {
      "displayName": "Veolia Eau",
      "id": "veoliaeau-3fbe17",
      "locationSet": {"include": ["001"]},
      "tags": {
        "amenity": "drinking_water",
        "operator": "Veolia Eau"
      }
    },
    {
      "displayName": "Vitens",
      "id": "vitens-3fbe17",
      "locationSet": {"include": ["001"]},
      "tags": {
        "amenity": "drinking_water",
        "operator": "Vitens"
      }
    },
    {
      "displayName": "Vitens/Jointhepipe",
      "id": "vitensjointhepipe-3fbe17",
      "locationSet": {"include": ["001"]},
      "tags": {
        "amenity": "drinking_water",
        "operator": "Vitens/Jointhepipe"
      }
    },
    {
      "displayName": "VZMB",
      "id": "vzmb-3fbe17",
      "locationSet": {"include": ["001"]},
      "tags": {
        "amenity": "drinking_water",
        "operator": "VZMB"
      }
    },
    {
      "displayName": "Water Trust",
      "id": "watertrust-3fbe17",
      "locationSet": {"include": ["001"]},
      "tags": {
        "amenity": "drinking_water",
        "operator": "Water Trust"
      }
    },
    {
      "displayName": "Waterbedrijf Groningen",
      "id": "waterbedrijfgroningen-3fbe17",
      "locationSet": {"include": ["001"]},
      "tags": {
        "amenity": "drinking_water",
        "operator": "Waterbedrijf Groningen"
      }
    },
    {
      "displayName": "Waterlink",
      "id": "waterlink-3fbe17",
      "locationSet": {"include": ["001"]},
      "tags": {
        "amenity": "drinking_water",
        "operator": "Waterlink"
      }
    },
    {
      "displayName": "Waternet",
      "id": "waternet-3fbe17",
      "locationSet": {"include": ["001"]},
      "tags": {
        "amenity": "drinking_water",
        "operator": "Waternet"
      }
    },
    {
      "displayName": "Wellington City Council",
      "id": "wellingtoncitycouncil-3fbe17",
      "locationSet": {"include": ["001"]},
      "tags": {
        "amenity": "drinking_water",
        "operator": "Wellington City Council"
      }
    },
    {
      "displayName": "Wessex Water Refill",
      "id": "wessexwater-87a91c",
      "locationSet": {
        "include": ["gb-south-west.geojson"]
      },
      "tags": {
        "amenity": "drinking_water",
        "operator": "Wessex Water",
        "operator:wikidata": "Q7984154",
        "operator:wikipedia": "en:Wessex Water"
      }
    },
    {
      "displayName": "WML Limburgs drinkwater",
      "id": "wmllimburgsdrinkwater-3fbe17",
      "locationSet": {"include": ["001"]},
      "tags": {
        "amenity": "drinking_water",
        "operator": "WML Limburgs drinkwater"
      }
    },
    {
      "displayName": "Wsb (Staff)",
      "id": "wsbstaff-3fbe17",
      "locationSet": {"include": ["001"]},
      "tags": {
        "amenity": "drinking_water",
        "operator": "Wsb (Staff)"
      }
    },
    {
      "displayName": "Wsp (Staff)",
      "id": "wspstaff-3fbe17",
      "locationSet": {"include": ["001"]},
      "tags": {
        "amenity": "drinking_water",
        "operator": "Wsp (Staff)"
      }
    },
    {
      "displayName": "WVZ",
      "id": "wvz-3fbe17",
      "locationSet": {"include": ["001"]},
      "tags": {
        "amenity": "drinking_water",
        "operator": "WVZ"
      }
    },
    {
      "displayName": "yes",
      "id": "yes-3fbe17",
      "locationSet": {"include": ["001"]},
      "tags": {
        "amenity": "drinking_water",
        "operator": "yes"
      }
    },
    {
      "displayName": "ФОП Фіалкова Олена Юріївна",
      "id": "d3138b-3fbe17",
      "locationSet": {"include": ["001"]},
      "tags": {
        "amenity": "drinking_water",
        "operator": "ФОП Фіалкова Олена Юріївна"
      }
    },
    {
      "displayName": "การประปานครหลวง",
      "id": "543499-3fbe17",
      "locationSet": {"include": ["001"]},
      "tags": {
        "amenity": "drinking_water",
        "operator": "การประปานครหลวง",
        "operator:th": "การประปานครหลวง"
      }
    },
    {
      "displayName": "会津若松市 花と緑の課",
      "id": "aabdcb-3fbe17",
      "locationSet": {"include": ["001"]},
      "tags": {
        "amenity": "drinking_water",
        "operator": "会津若松市 花と緑の課",
        "operator:ja": "会津若松市 花と緑の課"
      }
    },
    {
      "displayName": "博愛國小總務處",
      "id": "a7d2cf-3fbe17",
      "locationSet": {"include": ["001"]},
      "tags": {
        "amenity": "drinking_water",
        "operator": "博愛國小總務處"
      }
    },
    {
      "displayName": "大田区",
      "id": "431e24-3fbe17",
      "locationSet": {"include": ["001"]},
      "tags": {
        "amenity": "drinking_water",
        "operator": "大田区"
      }
    },
    {
      "displayName": "工務局公園處",
      "id": "9227d0-3fbe17",
      "locationSet": {"include": ["001"]},
      "tags": {
        "amenity": "drinking_water",
        "operator": "工務局公園處"
      }
    },
    {
      "displayName": "工務局公園處圓山管理所",
      "id": "4d7c7f-3fbe17",
      "locationSet": {"include": ["001"]},
      "tags": {
        "amenity": "drinking_water",
        "operator": "工務局公園處圓山管理所"
      }
    },
    {
      "displayName": "工務局公園處陽明山管理所",
      "id": "8cd721-3fbe17",
      "locationSet": {"include": ["001"]},
      "tags": {
        "amenity": "drinking_water",
        "operator": "工務局公園處陽明山管理所"
      }
    },
    {
      "displayName": "工務局公園處青年管理所",
      "id": "c50b84-3fbe17",
      "locationSet": {"include": ["001"]},
      "tags": {
        "amenity": "drinking_water",
        "operator": "工務局公園處青年管理所"
      }
    },
    {
      "displayName": "市政大樓公管中心",
      "id": "ef2223-3fbe17",
      "locationSet": {"include": ["001"]},
      "tags": {
        "amenity": "drinking_water",
        "operator": "市政大樓公管中心"
      }
    },
    {
      "displayName": "敦化國中總務處",
      "id": "ca8603-3fbe17",
      "locationSet": {"include": ["001"]},
      "tags": {
        "amenity": "drinking_water",
        "operator": "敦化國中總務處"
      }
    },
    {
      "displayName": "東門國小總務處",
      "id": "6f6579-3fbe17",
      "locationSet": {"include": ["001"]},
      "tags": {
        "amenity": "drinking_water",
        "operator": "東門國小總務處"
      }
    },
    {
      "displayName": "海巡署",
      "id": "057e0b-3fbe17",
      "locationSet": {"include": ["001"]},
      "tags": {
        "amenity": "drinking_water",
        "operator": "海巡署"
      }
    },
    {
      "displayName": "百齡國小總務處",
      "id": "f8ad5c-3fbe17",
      "locationSet": {"include": ["001"]},
      "tags": {
        "amenity": "drinking_water",
        "operator": "百齡國小總務處"
      }
    },
    {
      "displayName": "臺北大眾捷運股份有限公司",
      "id": "6562b9-3fbe17",
      "locationSet": {"include": ["001"]},
      "tags": {
        "amenity": "drinking_water",
        "operator": "臺北大眾捷運股份有限公司"
      }
    },
    {
      "displayName": "臺北自來水事業處",
      "id": "8a1cdb-3fbe17",
      "locationSet": {"include": ["001"]},
      "tags": {
        "amenity": "drinking_water",
        "operator": "臺北自來水事業處"
      }
    }
  ]
}
