{
  "operators/amenity/fire_station": [
    {
      "displayName": "Alcaldía del Distrito Capital",
      "id": "alcaldiadeldistritocapital-f24dcc",
      "locationSet": {"include": ["ve"]},
      "tags": {
        "amenity": "fire_station",
        "operator": "Alcaldía del Distrito Capital"
      }
    },
    {
      "displayName": "Ayuntamiento de Madrid.",
      "id": "ayuntamientodemadrid-c979cd",
      "locationSet": {"include": ["es"]},
      "tags": {
        "amenity": "fire_station",
        "operator": "Ayuntamiento de Madrid."
      }
    },
    {
      "displayName": "Bataillon de marins-pompiers de Marseille",
      "id": "bataillondemarinspompiersdemarseille-3ad59a",
      "locationSet": {"include": ["fr"]},
      "tags": {
        "amenity": "fire_station",
        "operator": "Bataillon de marins-pompiers de Marseille"
      }
    },
    {
      "displayName": "Brandweer Twente",
      "id": "brandweertwente-0004ee",
      "locationSet": {"include": ["nl"]},
      "tags": {
        "amenity": "fire_station",
        "operator": "Brandweer Twente"
      }
    },
    {
      "displayName": "Brannvesenet Midt IKS",
      "id": "brannvesenetmidtiks-f24dcc",
      "locationSet": {"include": ["no"]},
      "tags": {
        "amenity": "fire_station",
        "operator": "Brannvesenet Midt IKS"
      }
    },
    {
      "displayName": "Brannvesenet Sør IKS",
      "id": "brannvesenetsoriks-f24dcc",
      "locationSet": {"include": ["no"]},
      "tags": {
        "amenity": "fire_station",
        "operator": "Brannvesenet Sør IKS"
      }
    },
    {
      "displayName": "BSPP",
      "id": "bspp-f24dcc",
      "locationSet": {"include": ["fr"]},
      "matchNames": ["brigade de sapeurs-pompiers de Ppris"],
      "tags": {
        "amenity": "fire_station",
        "operator": "BSPP",
        "operator:en": "Paris Fire Brigade",
        "operator:wikidata": "Q583422",
        "operator:wikipedia": "fr:Brigade de sapeurs-pompiers de Paris"
      }
    },
    {
      "displayName": "Bureau of Fire Protection",
      "id": "bureauoffireprotection-267105",
      "locationSet": {"include": ["ph"]},
      "tags": {
        "amenity": "fire_station",
        "operator": "Bureau of Fire Protection",
        "operator:wikidata": "Q17027200",
        "operator:wikipedia": "en:Bureau of Fire Protection"
      }
    },
    {
      "displayName": "Calgary Fire Department",
      "id": "calgaryfiredepartment-03abee",
      "locationSet": {"include": ["ca"]},
      "matchNames": ["city of calgary"],
      "tags": {
        "amenity": "fire_station",
        "operator": "Calgary Fire Department",
        "operator:wikidata": "Q5019670",
        "operator:wikipedia": "en:Calgary Fire Department"
      }
    },
    {
      "displayName": "CGDIS",
      "id": "cgdis-f24dcc",
      "locationSet": {"include": ["lu"]},
      "matchNames": ["Corps grand-ducal d'incendie et de secours"],
      "tags": {
        "amenity": "fire_station",
        "operator": "CGDIS",
        "operator:wikidata": "Q55334052",
        "operator:wikipedia": "lb:Corps grand-ducal d'incendie et de secours"
      }
    },
    {
      "displayName": "Chicago Fire Department",
      "id": "chicagofiredepartment-92f26a",
      "locationSet": {"include": ["us"]},
      "tags": {
        "amenity": "fire_station",
        "operator": "Chicago Fire Department",
        "operator:wikidata": "Q2963308",
        "operator:wikipedia": "en:Chicago Fire Department"
      }
    },
    {
      "displayName": "Cincinnati Fire Department",
      "id": "cincinnatifiredepartment-92f26a",
      "locationSet": {"include": ["us"]},
      "tags": {
        "amenity": "fire_station",
        "operator": "Cincinnati Fire Department",
        "operator:wikidata": "Q16987386",
        "operator:wikipedia": "en:Cincinnati Fire Department"
      }
    },
    {
      "displayName": "Cobb County Fire and Emergency Services",
      "id": "cobbcountyfireandemergencyservices-92f26a",
      "locationSet": {"include": ["us"]},
      "tags": {
        "amenity": "fire_station",
        "operator": "Cobb County Fire and Emergency Services"
      }
    },
    {
      "displayName": "Collectivité de Corse",
      "id": "collectivitedecorse-f24dcc",
      "locationSet": {"include": ["001"]},
      "tags": {
        "amenity": "fire_station",
        "operator": "Collectivité de Corse"
      }
    },
    {
      "displayName": "Comunidad de Madrid.",
      "id": "comunidaddemadrid-c979cd",
      "locationSet": {"include": ["es"]},
      "tags": {
        "amenity": "fire_station",
        "operator": "Comunidad de Madrid."
      }
    },
    {
      "displayName": "Cornwall Fire and Rescue Service",
      "id": "cornwallfireandrescueservice-13ba46",
      "locationSet": {"include": ["gb-eng"]},
      "tags": {
        "amenity": "fire_station",
        "operator": "Cornwall Fire and Rescue Service",
        "operator:wikidata": "Q5171976",
        "operator:wikipedia": "en:Cornwall Fire and Rescue Service"
      }
    },
    {
      "displayName": "Country Fire Authority",
      "id": "countryfireauthority-f24dcc",
      "locationSet": {"include": ["au"]},
      "tags": {
        "amenity": "fire_station",
        "operator": "Country Fire Authority",
        "operator:wikidata": "Q13632973",
        "operator:wikipedia": "en:Country Fire Authority"
      }
    },
    {
      "displayName": "Cuerpo de Bomberos de Viña del Mar",
      "id": "cuerpodebomberosdevinadelmar-f24dcc",
      "locationSet": {"include": ["001"]},
      "tags": {
        "amenity": "fire_station",
        "operator": "Cuerpo de Bomberos de Viña del Mar"
      }
    },
    {
      "displayName": "Department of Fire & Emergency Services",
      "id": "departmentoffireandemergencyservices-81fd49",
      "locationSet": {"include": ["au"]},
      "tags": {
        "amenity": "fire_station",
        "operator": "Department of Fire & Emergency Services",
        "operator:wikidata": "Q5451517",
        "operator:wikipedia": "en:Department of Fire and Emergency Services"
      }
    },
    {
      "displayName": "Devon and Somerset Fire and Rescue Service",
      "id": "devonandsomersetfireandrescueservice-13ba46",
      "locationSet": {"include": ["gb-eng"]},
      "tags": {
        "amenity": "fire_station",
        "operator": "Devon and Somerset Fire and Rescue Service",
        "operator:wikidata": "Q5267788",
        "operator:wikipedia": "en:Devon and Somerset Fire and Rescue Service"
      }
    },
    {
      "displayName": "Dorset & Wiltshire Fire and Rescue Service",
      "id": "dorsetandwiltshirefireandrescueservice-13ba46",
      "locationSet": {"include": ["gb-eng"]},
      "tags": {
        "amenity": "fire_station",
        "operator": "Dorset & Wiltshire Fire and Rescue Service",
        "operator:wikidata": "Q28402600",
        "operator:wikipedia": "en:Dorset & Wiltshire Fire and Rescue Service"
      }
    },
    {
      "displayName": "Dublin Fire Brigade",
      "id": "dublinfirebrigade-85eae0",
      "locationSet": {"include": ["ie"]},
      "tags": {
        "amenity": "fire_station",
        "operator": "Dublin Fire Brigade",
        "operator:wikidata": "Q5310892",
        "operator:wikipedia": "en:Dublin Fire Brigade"
      }
    },
    {
      "displayName": "Feuerwehr Kreisstadt Euskirchen",
      "id": "feuerwehrkreisstadteuskirchen-e05ec0",
      "locationSet": {"include": ["de"]},
      "tags": {
        "amenity": "fire_station",
        "operator": "Feuerwehr Kreisstadt Euskirchen"
      }
    },
    {
      "displayName": "Feuerwehr SG Rodenberg",
      "id": "feuerwehrsgrodenberg-e05ec0",
      "locationSet": {"include": ["de"]},
      "tags": {
        "amenity": "fire_station",
        "operator": "Feuerwehr SG Rodenberg"
      }
    },
    {
      "displayName": "Feuerwehr Stadt Barsinghausen",
      "id": "feuerwehrstadtbarsinghausen-e05ec0",
      "locationSet": {"include": ["de"]},
      "tags": {
        "amenity": "fire_station",
        "operator": "Feuerwehr Stadt Barsinghausen"
      }
    },
    {
      "displayName": "Feuerwehr Stadt Rinteln",
      "id": "feuerwehrstadtrinteln-e05ec0",
      "locationSet": {"include": ["de"]},
      "tags": {
        "amenity": "fire_station",
        "operator": "Feuerwehr Stadt Rinteln"
      }
    },
    {
      "displayName": "Feuerwehr Witten",
      "id": "feuerwehrwitten-e05ec0",
      "locationSet": {"include": ["de"]},
      "tags": {
        "amenity": "fire_station",
        "operator": "Feuerwehr Witten"
      }
    },
    {
      "displayName": "Fire and Emergency New Zealand",
      "id": "fireandemergencynewzealand-4a36f8",
      "locationSet": {"include": ["nz"]},
      "tags": {
        "amenity": "fire_station",
        "operator": "Fire and Emergency New Zealand",
        "operator:wikidata": "Q28180518",
        "operator:wikipedia": "en:Fire and Emergency New Zealand"
      }
    },
    {
      "displayName": "Fire and Rescue NSW",
      "id": "fireandrescuensw-81fd49",
      "locationSet": {"include": ["au"]},
      "tags": {
        "amenity": "fire_station",
        "operator": "Fire and Rescue NSW",
        "operator:wikidata": "Q5451532",
        "operator:wikipedia": "en:Fire and Rescue New South Wales"
      }
    },
    {
      "displayName": "Fire Rescue Victoria",
      "id": "firerescuevictoria-81fd49",
      "locationSet": {"include": ["au"]},
      "tags": {
        "amenity": "fire_station",
        "operator": "Fire Rescue Victoria",
        "operator:wikidata": "Q30640483",
        "operator:wikipedia": "en:Fire Rescue Victoria"
      }
    },
    {
      "displayName": "Freiwillige Feuerwehr",
      "id": "freiwilligefeuerwehr-f24dcc",
      "locationSet": {"include": ["001"]},
      "tags": {
        "amenity": "fire_station",
        "operator": "Freiwillige Feuerwehr"
      }
    },
    {
      "displayName": "Freiwillige Feuerwehr der Samtgemeinde Thedinghausen",
      "id": "freiwilligefeuerwehrdersamtgemeindethedinghausen-e05ec0",
      "locationSet": {"include": ["de"]},
      "tags": {
        "amenity": "fire_station",
        "operator": "Freiwillige Feuerwehr der Samtgemeinde Thedinghausen"
      }
    },
    {
      "displayName": "Gemeinde Gnarrenburg",
      "id": "gemeindegnarrenburg-e05ec0",
      "locationSet": {"include": ["de"]},
      "tags": {
        "amenity": "fire_station",
        "operator": "Gemeinde Gnarrenburg"
      }
    },
    {
      "displayName": "Greater Manchester Fire and Rescue Service",
      "id": "greatermanchesterfireandrescueservice-13ba46",
      "locationSet": {"include": ["gb-eng"]},
      "matchNames": ["gmfrs"],
      "tags": {
        "amenity": "fire_station",
        "operator": "Greater Manchester Fire and Rescue Service",
        "operator:wikidata": "Q5600639",
        "operator:wikipedia": "en:Greater Manchester Fire and Rescue Service"
      }
    },
    {
      "displayName": "Halifax Regional Fire and Emergency",
      "id": "halifaxregionalfireandemergency-03abee",
      "locationSet": {"include": ["ca"]},
      "tags": {
        "amenity": "fire_station",
        "operator": "Halifax Regional Fire and Emergency",
        "operator:wikidata": "Q5642228",
        "operator:wikipedia": "en:Halifax Regional Fire and Emergency"
      }
    },
    {
      "displayName": "Horry County",
      "id": "horrycounty-f24dcc",
      "locationSet": {"include": ["001"]},
      "tags": {
        "amenity": "fire_station",
        "operator": "Horry County"
      }
    },
    {
      "displayName": "Hulpverleningszone Fluvia",
      "id": "hulpverleningszonefluvia-f24dcc",
      "locationSet": {"include": ["001"]},
      "tags": {
        "amenity": "fire_station",
        "operator": "Hulpverleningszone Fluvia"
      }
    },
    {
      "displayName": "Indianapolis Fire Department",
      "id": "indianapolisfiredepartment-92f26a",
      "locationSet": {"include": ["us"]},
      "tags": {
        "amenity": "fire_station",
        "operator": "Indianapolis Fire Department"
      }
    },
    {
      "displayName": "INS",
      "id": "ins-f24dcc",
      "locationSet": {"include": ["001"]},
      "tags": {
        "amenity": "fire_station",
        "operator": "INS"
      }
    },
    {
      "displayName": "Kansas City Fire Department",
      "id": "kansascityfiredepartment-92f26a",
      "locationSet": {"include": ["us"]},
      "tags": {
        "amenity": "fire_station",
        "operator": "Kansas City Fire Department"
      }
    },
    {
      "displayName": "KM PSP Zielona Góra",
      "id": "kmpspzielonagora-f24dcc",
      "locationSet": {"include": ["001"]},
      "tags": {
        "amenity": "fire_station",
        "operator": "KM PSP Zielona Góra"
      }
    },
    {
      "displayName": "Lincoln Fire & Rescue",
      "id": "lincolnfireandrescue-f24dcc",
      "locationSet": {"include": ["001"]},
      "tags": {
        "amenity": "fire_station",
        "operator": "Lincoln Fire & Rescue"
      }
    },
    {
      "displayName": "London Fire Brigade",
      "id": "londonfirebrigade-f24dcc",
      "locationSet": {"include": ["001"]},
      "tags": {
        "amenity": "fire_station",
        "operator": "London Fire Brigade"
      }
    },
    {
      "displayName": "Los Angeles Fire Department",
      "id": "losangelesfiredepartment-92f26a",
      "locationSet": {"include": ["us"]},
      "tags": {
        "amenity": "fire_station",
        "operator": "Los Angeles Fire Department"
      }
    },
    {
      "displayName": "Midt-Hedmark brann-og redningsvesen IKS",
      "id": "midthedmarkbrannogredningsveseniks-f24dcc",
      "locationSet": {"include": ["001"]},
      "tags": {
        "amenity": "fire_station",
        "operator": "Midt-Hedmark brann-og redningsvesen IKS"
      }
    },
    {
      "displayName": "Milwaukee Fire Department",
      "id": "milwaukeefiredepartment-92f26a",
      "locationSet": {"include": ["us"]},
      "tags": {
        "amenity": "fire_station",
        "operator": "Milwaukee Fire Department"
      }
    },
    {
      "displayName": "Ministère de l'intérieur",
      "id": "ministeredelinterieur-f24dcc",
      "locationSet": {"include": ["001"]},
      "tags": {
        "amenity": "fire_station",
        "operator": "Ministère de l'intérieur"
      }
    },
    {
      "displayName": "Ministerstvo vnútra Slovenskej republiky",
      "id": "ministerstvovnutraslovenskejrepubliky-f24dcc",
      "locationSet": {"include": ["001"]},
      "tags": {
        "amenity": "fire_station",
        "operator": "Ministerstvo vnútra Slovenskej republiky"
      }
    },
    {
      "displayName": "Ministry of National Security",
      "id": "ministryofnationalsecurity-f24dcc",
      "locationSet": {"include": ["001"]},
      "tags": {
        "amenity": "fire_station",
        "operator": "Ministry of National Security"
      }
    },
    {
      "displayName": "Minneapolis Fire Department",
      "id": "minneapolisfiredepartment-92f26a",
      "locationSet": {"include": ["us"]},
      "tags": {
        "amenity": "fire_station",
        "operator": "Minneapolis Fire Department"
      }
    },
    {
      "displayName": "National Fire Authority",
      "id": "nationalfireauthority-f24dcc",
      "locationSet": {"include": ["001"]},
      "tags": {
        "amenity": "fire_station",
        "operator": "National Fire Authority"
      }
    },
    {
      "displayName": "New York City Fire Department",
      "id": "newyorkcityfiredepartment-92f26a",
      "locationSet": {"include": ["us"]},
      "tags": {
        "amenity": "fire_station",
        "operator": "New York City Fire Department"
      }
    },
    {
      "displayName": "New Zealand Fire Service",
      "id": "newzealandfireservice-4a36f8",
      "locationSet": {"include": ["nz"]},
      "tags": {
        "amenity": "fire_station",
        "operator": "New Zealand Fire Service"
      }
    },
    {
      "displayName": "Norfolk Fire and Rescue Service",
      "id": "norfolkfireandrescueservice-f24dcc",
      "locationSet": {"include": ["001"]},
      "tags": {
        "amenity": "fire_station",
        "operator": "Norfolk Fire and Rescue Service"
      }
    },
    {
      "displayName": "Northern Ireland Fire & Rescue Service",
      "id": "northernirelandfireandrescueservice-5d3b39",
      "locationSet": {"include": ["gb-nir"]},
      "tags": {
        "amenity": "fire_station",
        "operator": "Northern Ireland Fire & Rescue Service"
      }
    },
    {
      "displayName": "NSW Rural Fire Service",
      "id": "nswruralfireservice-81fd49",
      "locationSet": {"include": ["au"]},
      "tags": {
        "amenity": "fire_station",
        "operator": "NSW Rural Fire Service"
      }
    },
    {
      "displayName": "Orange County Fire Authority",
      "id": "orangecountyfireauthority-92f26a",
      "locationSet": {"include": ["us"]},
      "tags": {
        "amenity": "fire_station",
        "operator": "Orange County Fire Authority"
      }
    },
    {
      "displayName": "Orange County Fire Rescue",
      "id": "orangecountyfirerescue-92f26a",
      "locationSet": {"include": ["us"]},
      "tags": {
        "amenity": "fire_station",
        "operator": "Orange County Fire Rescue"
      }
    },
    {
      "displayName": "Orlando Fire Department",
      "id": "orlandofiredepartment-92f26a",
      "locationSet": {"include": ["us"]},
      "tags": {
        "amenity": "fire_station",
        "operator": "Orlando Fire Department"
      }
    },
    {
      "displayName": "Ottawa",
      "id": "ottawa-f24dcc",
      "locationSet": {"include": ["001"]},
      "tags": {
        "amenity": "fire_station",
        "operator": "Ottawa"
      }
    },
    {
      "displayName": "Päästeamet",
      "id": "paasteamet-f24dcc",
      "locationSet": {"include": ["001"]},
      "tags": {
        "amenity": "fire_station",
        "operator": "Päästeamet"
      }
    },
    {
      "displayName": "Państwowa Straż Pożarna",
      "id": "panstwowastrazpozarna-f24dcc",
      "locationSet": {"include": ["001"]},
      "tags": {
        "amenity": "fire_station",
        "operator": "Państwowa Straż Pożarna"
      }
    },
    {
      "displayName": "Policía de la Provincia de Misiones",
      "id": "policiadelaprovinciademisiones-f24dcc",
      "locationSet": {"include": ["001"]},
      "tags": {
        "amenity": "fire_station",
        "operator": "Policía de la Provincia de Misiones"
      }
    },
    {
      "displayName": "Räddningstjänsten Storgöteborg",
      "id": "raddningstjanstenstorgoteborg-f24dcc",
      "locationSet": {"include": ["001"]},
      "tags": {
        "amenity": "fire_station",
        "operator": "Räddningstjänsten Storgöteborg"
      }
    },
    {
      "displayName": "Rogaland brann og redning IKS",
      "id": "rogalandbrannogredningiks-f24dcc",
      "locationSet": {"include": ["001"]},
      "tags": {
        "amenity": "fire_station",
        "operator": "Rogaland brann og redning IKS"
      }
    },
    {
      "displayName": "RU-BEL",
      "id": "rubel-f24dcc",
      "locationSet": {"include": ["001"]},
      "tags": {
        "amenity": "fire_station",
        "operator": "RU-BEL"
      }
    },
    {
      "displayName": "RU-BRY",
      "id": "rubry-f24dcc",
      "locationSet": {"include": ["001"]},
      "tags": {
        "amenity": "fire_station",
        "operator": "RU-BRY"
      }
    },
    {
      "displayName": "RU-CR",
      "id": "rucr-f24dcc",
      "locationSet": {"include": ["001"]},
      "tags": {
        "amenity": "fire_station",
        "operator": "RU-CR"
      }
    },
    {
      "displayName": "RU-KDA-1",
      "id": "rukda1-f24dcc",
      "locationSet": {"include": ["001"]},
      "tags": {
        "amenity": "fire_station",
        "operator": "RU-KDA-1"
      }
    },
    {
      "displayName": "RU-KDA-10",
      "id": "rukda10-f24dcc",
      "locationSet": {"include": ["001"]},
      "tags": {
        "amenity": "fire_station",
        "operator": "RU-KDA-10"
      }
    },
    {
      "displayName": "RU-KLU",
      "id": "ruklu-f24dcc",
      "locationSet": {"include": ["001"]},
      "tags": {
        "amenity": "fire_station",
        "operator": "RU-KLU"
      }
    },
    {
      "displayName": "RU-KR",
      "id": "rukr-f24dcc",
      "locationSet": {"include": ["001"]},
      "tags": {
        "amenity": "fire_station",
        "operator": "RU-KR"
      }
    },
    {
      "displayName": "RU-LIP",
      "id": "rulip-f24dcc",
      "locationSet": {"include": ["001"]},
      "tags": {
        "amenity": "fire_station",
        "operator": "RU-LIP"
      }
    },
    {
      "displayName": "RU-MOS",
      "id": "rumos-f24dcc",
      "locationSet": {"include": ["001"]},
      "tags": {
        "amenity": "fire_station",
        "operator": "RU-MOS"
      }
    },
    {
      "displayName": "RU-MOW",
      "id": "rumow-f24dcc",
      "locationSet": {"include": ["001"]},
      "tags": {
        "amenity": "fire_station",
        "operator": "RU-MOW"
      }
    },
    {
      "displayName": "RU-MUR",
      "id": "rumur-f24dcc",
      "locationSet": {"include": ["001"]},
      "tags": {
        "amenity": "fire_station",
        "operator": "RU-MUR"
      }
    },
    {
      "displayName": "RU-NGR",
      "id": "rungr-f24dcc",
      "locationSet": {"include": ["001"]},
      "tags": {
        "amenity": "fire_station",
        "operator": "RU-NGR"
      }
    },
    {
      "displayName": "RU-NIZ",
      "id": "runiz-f24dcc",
      "locationSet": {"include": ["001"]},
      "tags": {
        "amenity": "fire_station",
        "operator": "RU-NIZ"
      }
    },
    {
      "displayName": "RU-ORL",
      "id": "ruorl-f24dcc",
      "locationSet": {"include": ["001"]},
      "tags": {
        "amenity": "fire_station",
        "operator": "RU-ORL"
      }
    },
    {
      "displayName": "RU-PSK-1",
      "id": "rupsk1-f24dcc",
      "locationSet": {"include": ["001"]},
      "tags": {
        "amenity": "fire_station",
        "operator": "RU-PSK-1"
      }
    },
    {
      "displayName": "RU-ROS",
      "id": "ruros-f24dcc",
      "locationSet": {"include": ["001"]},
      "tags": {
        "amenity": "fire_station",
        "operator": "RU-ROS"
      }
    },
    {
      "displayName": "RU-STA",
      "id": "rusta-f24dcc",
      "locationSet": {"include": ["001"]},
      "tags": {
        "amenity": "fire_station",
        "operator": "RU-STA"
      }
    },
    {
      "displayName": "RU-TA-7",
      "id": "ruta7-f24dcc",
      "locationSet": {"include": ["001"]},
      "tags": {
        "amenity": "fire_station",
        "operator": "RU-TA-7"
      }
    },
    {
      "displayName": "RU-TUL",
      "id": "rutul-f24dcc",
      "locationSet": {"include": ["001"]},
      "tags": {
        "amenity": "fire_station",
        "operator": "RU-TUL"
      }
    },
    {
      "displayName": "RU-TVE",
      "id": "rutve-f24dcc",
      "locationSet": {"include": ["001"]},
      "tags": {
        "amenity": "fire_station",
        "operator": "RU-TVE"
      }
    },
    {
      "displayName": "RU-VGG",
      "id": "ruvgg-f24dcc",
      "locationSet": {"include": ["001"]},
      "tags": {
        "amenity": "fire_station",
        "operator": "RU-VGG"
      }
    },
    {
      "displayName": "RU-VGG-9",
      "id": "ruvgg9-f24dcc",
      "locationSet": {"include": ["001"]},
      "tags": {
        "amenity": "fire_station",
        "operator": "RU-VGG-9"
      }
    },
    {
      "displayName": "RU-VGG-9-28",
      "id": "ruvgg928-f24dcc",
      "locationSet": {"include": ["001"]},
      "tags": {
        "amenity": "fire_station",
        "operator": "RU-VGG-9-28"
      }
    },
    {
      "displayName": "RU-VGG-9-35",
      "id": "ruvgg935-f24dcc",
      "locationSet": {"include": ["001"]},
      "tags": {
        "amenity": "fire_station",
        "operator": "RU-VGG-9-35"
      }
    },
    {
      "displayName": "RU-VOR",
      "id": "ruvor-f24dcc",
      "locationSet": {"include": ["001"]},
      "tags": {
        "amenity": "fire_station",
        "operator": "RU-VOR"
      }
    },
    {
      "displayName": "Saint Paul Fire Department",
      "id": "saintpaulfiredepartment-92f26a",
      "locationSet": {"include": ["us"]},
      "tags": {
        "amenity": "fire_station",
        "operator": "Saint Paul Fire Department"
      }
    },
    {
      "displayName": "Salten Brann IKS",
      "id": "saltenbranniks-f24dcc",
      "locationSet": {"include": ["001"]},
      "tags": {
        "amenity": "fire_station",
        "operator": "Salten Brann IKS"
      }
    },
    {
      "displayName": "Samtgemeinde Geestequelle",
      "id": "samtgemeindegeestequelle-e05ec0",
      "locationSet": {"include": ["de"]},
      "tags": {
        "amenity": "fire_station",
        "operator": "Samtgemeinde Geestequelle"
      }
    },
    {
      "displayName": "Samtgemeinde Grafschaft Hoya",
      "id": "samtgemeindegrafschafthoya-e05ec0",
      "locationSet": {"include": ["de"]},
      "tags": {
        "amenity": "fire_station",
        "operator": "Samtgemeinde Grafschaft Hoya"
      }
    },
    {
      "displayName": "Samtgemeinde Selsingen",
      "id": "samtgemeindeselsingen-e05ec0",
      "locationSet": {"include": ["de"]},
      "tags": {
        "amenity": "fire_station",
        "operator": "Samtgemeinde Selsingen"
      }
    },
    {
      "displayName": "Samtgemeinde Tostedt",
      "id": "samtgemeindetostedt-e05ec0",
      "locationSet": {"include": ["de"]},
      "tags": {
        "amenity": "fire_station",
        "operator": "Samtgemeinde Tostedt"
      }
    },
    {
      "displayName": "Samtgemeinde Uchte",
      "id": "samtgemeindeuchte-e05ec0",
      "locationSet": {"include": ["de"]},
      "tags": {
        "amenity": "fire_station",
        "operator": "Samtgemeinde Uchte"
      }
    },
    {
      "displayName": "San Antonio Fire Department",
      "id": "sanantoniofiredepartment-92f26a",
      "locationSet": {"include": ["us"]},
      "matchNames": ["city of san antonio"],
      "tags": {
        "amenity": "fire_station",
        "operator": "San Antonio Fire Department",
        "operator:wikidata": "Q7413325",
        "operator:wikipedia": "en:San Antonio Fire Department"
      }
    },
    {
      "displayName": "San Francisco Fire Department",
      "id": "sanfranciscofiredepartment-92f26a",
      "locationSet": {"include": ["us"]},
      "tags": {
        "amenity": "fire_station",
        "operator": "San Francisco Fire Department"
      }
    },
    {
      "displayName": "San Jose Fire Department",
      "id": "sanjosefiredepartment-92f26a",
      "locationSet": {"include": ["us"]},
      "tags": {
        "amenity": "fire_station",
        "operator": "San Jose Fire Department"
      }
    },
    {
      "displayName": "Santa Clara County Fire Department",
      "id": "santaclaracountyfiredepartment-92f26a",
      "locationSet": {"include": ["us"]},
      "tags": {
        "amenity": "fire_station",
        "operator": "Santa Clara County Fire Department"
      }
    },
    {
      "displayName": "Scottish Fire and Rescue Service",
      "id": "scottishfireandrescueservice-12e6fd",
      "locationSet": {"include": ["gb-sct"]},
      "tags": {
        "amenity": "fire_station",
        "operator": "Scottish Fire and Rescue Service",
        "operator:wikidata": "Q7437729",
        "operator:wikipedia": "en:Scottish Fire and Rescue Service"
      }
    },
    {
      "displayName": "SDIS 01",
      "id": "sdis01-f24dcc",
      "locationSet": {"include": ["001"]},
      "tags": {
        "amenity": "fire_station",
        "operator": "SDIS 01"
      }
    },
    {
      "displayName": "SDIS 02",
      "id": "sdis02-f24dcc",
      "locationSet": {"include": ["001"]},
      "tags": {
        "amenity": "fire_station",
        "operator": "SDIS 02"
      }
    },
    {
      "displayName": "SDIS 04",
      "id": "sdis04-f24dcc",
      "locationSet": {"include": ["001"]},
      "tags": {
        "amenity": "fire_station",
        "operator": "SDIS 04"
      }
    },
    {
      "displayName": "SDIS 06",
      "id": "sdis06-f24dcc",
      "locationSet": {"include": ["001"]},
      "tags": {
        "amenity": "fire_station",
        "operator": "SDIS 06"
      }
    },
    {
      "displayName": "SDIS 08",
      "id": "sdis08-f24dcc",
      "locationSet": {"include": ["001"]},
      "tags": {
        "amenity": "fire_station",
        "operator": "SDIS 08"
      }
    },
    {
      "displayName": "SDIS 10",
      "id": "sdis10-f24dcc",
      "locationSet": {"include": ["001"]},
      "tags": {
        "amenity": "fire_station",
        "operator": "SDIS 10"
      }
    },
    {
      "displayName": "SDIS 12",
      "id": "sdis12-f24dcc",
      "locationSet": {"include": ["001"]},
      "tags": {
        "amenity": "fire_station",
        "operator": "SDIS 12"
      }
    },
    {
      "displayName": "SDIS 13",
      "id": "sdis13-f24dcc",
      "locationSet": {"include": ["001"]},
      "tags": {
        "amenity": "fire_station",
        "operator": "SDIS 13"
      }
    },
    {
      "displayName": "SDIS 14",
      "id": "sdis14-f24dcc",
      "locationSet": {"include": ["001"]},
      "tags": {
        "amenity": "fire_station",
        "operator": "SDIS 14"
      }
    },
    {
      "displayName": "SDIS 17",
      "id": "sdis17-f24dcc",
      "locationSet": {"include": ["001"]},
      "tags": {
        "amenity": "fire_station",
        "operator": "SDIS 17"
      }
    },
    {
      "displayName": "SDIS 18",
      "id": "sdis18-f24dcc",
      "locationSet": {"include": ["001"]},
      "tags": {
        "amenity": "fire_station",
        "operator": "SDIS 18"
      }
    },
    {
      "displayName": "SDIS 21",
      "id": "sdis21-f24dcc",
      "locationSet": {"include": ["001"]},
      "tags": {
        "amenity": "fire_station",
        "operator": "SDIS 21"
      }
    },
    {
      "displayName": "SDIS 22",
      "id": "sdis22-f24dcc",
      "locationSet": {"include": ["001"]},
      "tags": {
        "amenity": "fire_station",
        "operator": "SDIS 22"
      }
    },
    {
      "displayName": "SDIS 25",
      "id": "sdis25-f24dcc",
      "locationSet": {"include": ["001"]},
      "tags": {
        "amenity": "fire_station",
        "operator": "SDIS 25"
      }
    },
    {
      "displayName": "SDIS 26",
      "id": "sdis26-f24dcc",
      "locationSet": {"include": ["001"]},
      "tags": {
        "amenity": "fire_station",
        "operator": "SDIS 26"
      }
    },
    {
      "displayName": "SDIS 28",
      "id": "sdis28-f24dcc",
      "locationSet": {"include": ["001"]},
      "tags": {
        "amenity": "fire_station",
        "operator": "SDIS 28"
      }
    },
    {
      "displayName": "SDIS 29",
      "id": "sdis29-f24dcc",
      "locationSet": {"include": ["001"]},
      "tags": {
        "amenity": "fire_station",
        "operator": "SDIS 29"
      }
    },
    {
      "displayName": "SDIS 30",
      "id": "sdis30-f24dcc",
      "locationSet": {"include": ["001"]},
      "tags": {
        "amenity": "fire_station",
        "operator": "SDIS 30"
      }
    },
    {
      "displayName": "SDIS 31",
      "id": "sdis31-f24dcc",
      "locationSet": {"include": ["001"]},
      "tags": {
        "amenity": "fire_station",
        "operator": "SDIS 31"
      }
    },
    {
      "displayName": "SDIS 33",
      "id": "sdis33-f24dcc",
      "locationSet": {"include": ["001"]},
      "tags": {
        "amenity": "fire_station",
        "operator": "SDIS 33"
      }
    },
    {
      "displayName": "SDIS 34",
      "id": "sdis34-f24dcc",
      "locationSet": {"include": ["001"]},
      "tags": {
        "amenity": "fire_station",
        "operator": "SDIS 34"
      }
    },
    {
      "displayName": "SDIS 35",
      "id": "sdis35-f24dcc",
      "locationSet": {"include": ["001"]},
      "tags": {
        "amenity": "fire_station",
        "operator": "SDIS 35"
      }
    },
    {
      "displayName": "SDIS 36",
      "id": "sdis36-f24dcc",
      "locationSet": {"include": ["001"]},
      "tags": {
        "amenity": "fire_station",
        "operator": "SDIS 36"
      }
    },
    {
      "displayName": "SDIS 37",
      "id": "sdis37-f24dcc",
      "locationSet": {"include": ["001"]},
      "tags": {
        "amenity": "fire_station",
        "operator": "SDIS 37"
      }
    },
    {
      "displayName": "SDIS 39",
      "id": "sdis39-f24dcc",
      "locationSet": {"include": ["001"]},
      "tags": {
        "amenity": "fire_station",
        "operator": "SDIS 39"
      }
    },
    {
      "displayName": "SDIS 40",
      "id": "sdis40-f24dcc",
      "locationSet": {"include": ["001"]},
      "tags": {
        "amenity": "fire_station",
        "operator": "SDIS 40"
      }
    },
    {
      "displayName": "SDIS 41",
      "id": "sdis41-f24dcc",
      "locationSet": {"include": ["001"]},
      "tags": {
        "amenity": "fire_station",
        "operator": "SDIS 41"
      }
    },
    {
      "displayName": "SDIS 42",
      "id": "sdis42-f24dcc",
      "locationSet": {"include": ["001"]},
      "tags": {
        "amenity": "fire_station",
        "operator": "SDIS 42"
      }
    },
    {
      "displayName": "SDIS 51",
      "id": "sdis51-f24dcc",
      "locationSet": {"include": ["001"]},
      "tags": {
        "amenity": "fire_station",
        "operator": "SDIS 51"
      }
    },
    {
      "displayName": "SDIS 52",
      "id": "sdis52-f24dcc",
      "locationSet": {"include": ["001"]},
      "tags": {
        "amenity": "fire_station",
        "operator": "SDIS 52"
      }
    },
    {
      "displayName": "SDIS 53",
      "id": "sdis53-f24dcc",
      "locationSet": {"include": ["001"]},
      "tags": {
        "amenity": "fire_station",
        "operator": "SDIS 53"
      }
    },
    {
      "displayName": "SDIS 54",
      "id": "sdis54-f24dcc",
      "locationSet": {"include": ["001"]},
      "tags": {
        "amenity": "fire_station",
        "operator": "SDIS 54"
      }
    },
    {
      "displayName": "SDIS 55",
      "id": "sdis55-f24dcc",
      "locationSet": {"include": ["001"]},
      "tags": {
        "amenity": "fire_station",
        "operator": "SDIS 55"
      }
    },
    {
      "displayName": "SDIS 56",
      "id": "sdis56-f24dcc",
      "locationSet": {"include": ["001"]},
      "tags": {
        "amenity": "fire_station",
        "operator": "SDIS 56"
      }
    },
    {
      "displayName": "SDIS 57",
      "id": "sdis57-f24dcc",
      "locationSet": {"include": ["001"]},
      "tags": {
        "amenity": "fire_station",
        "operator": "SDIS 57"
      }
    },
    {
      "displayName": "SDIS 58",
      "id": "sdis58-f24dcc",
      "locationSet": {"include": ["001"]},
      "tags": {
        "amenity": "fire_station",
        "operator": "SDIS 58"
      }
    },
    {
      "displayName": "SDIS 59",
      "id": "sdis59-f24dcc",
      "locationSet": {"include": ["001"]},
      "tags": {
        "amenity": "fire_station",
        "operator": "SDIS 59"
      }
    },
    {
      "displayName": "SDIS 62",
      "id": "sdis62-f24dcc",
      "locationSet": {"include": ["001"]},
      "tags": {
        "amenity": "fire_station",
        "operator": "SDIS 62"
      }
    },
    {
      "displayName": "SDIS 67",
      "id": "sdis67-f24dcc",
      "locationSet": {"include": ["001"]},
      "tags": {
        "amenity": "fire_station",
        "operator": "SDIS 67"
      }
    },
    {
      "displayName": "SDIS 71",
      "id": "sdis71-f24dcc",
      "locationSet": {"include": ["001"]},
      "tags": {
        "amenity": "fire_station",
        "operator": "SDIS 71"
      }
    },
    {
      "displayName": "SDIS 74",
      "id": "sdis74-f24dcc",
      "locationSet": {"include": ["001"]},
      "tags": {
        "amenity": "fire_station",
        "operator": "SDIS 74"
      }
    },
    {
      "displayName": "SDIS 76",
      "id": "sdis76-f24dcc",
      "locationSet": {"include": ["001"]},
      "tags": {
        "amenity": "fire_station",
        "operator": "SDIS 76"
      }
    },
    {
      "displayName": "SDIS 77",
      "id": "sdis77-f24dcc",
      "locationSet": {"include": ["001"]},
      "tags": {
        "amenity": "fire_station",
        "operator": "SDIS 77"
      }
    },
    {
      "displayName": "SDIS 81",
      "id": "sdis81-f24dcc",
      "locationSet": {"include": ["001"]},
      "tags": {
        "amenity": "fire_station",
        "operator": "SDIS 81"
      }
    },
    {
      "displayName": "SDIS 83",
      "id": "sdis83-f24dcc",
      "locationSet": {"include": ["001"]},
      "tags": {
        "amenity": "fire_station",
        "operator": "SDIS 83"
      }
    },
    {
      "displayName": "SDIS 85",
      "id": "sdis85-f24dcc",
      "locationSet": {"include": ["001"]},
      "tags": {
        "amenity": "fire_station",
        "operator": "SDIS 85"
      }
    },
    {
      "displayName": "SDIS 86",
      "id": "sdis86-f24dcc",
      "locationSet": {"include": ["001"]},
      "tags": {
        "amenity": "fire_station",
        "operator": "SDIS 86"
      }
    },
    {
      "displayName": "SDIS 87",
      "id": "sdis87-f24dcc",
      "locationSet": {"include": ["001"]},
      "tags": {
        "amenity": "fire_station",
        "operator": "SDIS 87"
      }
    },
    {
      "displayName": "SDIS 88",
      "id": "sdis88-f24dcc",
      "locationSet": {"include": ["001"]},
      "tags": {
        "amenity": "fire_station",
        "operator": "SDIS 88"
      }
    },
    {
      "displayName": "SDIS 91",
      "id": "sdis91-f24dcc",
      "locationSet": {"include": ["001"]},
      "tags": {
        "amenity": "fire_station",
        "operator": "SDIS 91"
      }
    },
    {
      "displayName": "SDIS 974",
      "id": "sdis974-f24dcc",
      "locationSet": {"include": ["001"]},
      "tags": {
        "amenity": "fire_station",
        "operator": "SDIS 974"
      }
    },
    {
      "displayName": "SIS 2A",
      "id": "sis2a-f24dcc",
      "locationSet": {"include": ["001"]},
      "tags": {
        "amenity": "fire_station",
        "operator": "SIS 2A"
      }
    },
    {
      "displayName": "SIS 2B",
      "id": "sis2b-f24dcc",
      "locationSet": {"include": ["001"]},
      "tags": {
        "amenity": "fire_station",
        "operator": "SIS 2B"
      }
    },
    {
      "displayName": "Sogn brann og redning IKS",
      "id": "sognbrannogredningiks-f24dcc",
      "locationSet": {"include": ["001"]},
      "tags": {
        "amenity": "fire_station",
        "operator": "Sogn brann og redning IKS"
      }
    },
    {
      "displayName": "South Yorkshire Fire & Rescue",
      "id": "southyorkshirefireandrescue-f24dcc",
      "locationSet": {"include": ["001"]},
      "tags": {
        "amenity": "fire_station",
        "operator": "South Yorkshire Fire & Rescue"
      }
    },
    {
      "displayName": "Stadt Aachen - FB 37/Feuerwehr",
      "id": "stadtaachenfb37feuerwehr-e05ec0",
      "locationSet": {"include": ["de"]},
      "tags": {
        "amenity": "fire_station",
        "operator": "Stadt Aachen - FB 37/Feuerwehr",
        "operator:wikidata": "Q1409833",
        "operator:wikipedia": "de:Feuerwehr Aachen"
      }
    },
    {
      "displayName": "Stadt Bremervörde",
      "id": "stadtbremervorde-e05ec0",
      "locationSet": {"include": ["de"]},
      "tags": {
        "amenity": "fire_station",
        "operator": "Stadt Bremervörde"
      }
    },
    {
      "displayName": "Stadt Homberg (Ohm)",
      "id": "stadthombergohm-e05ec0",
      "locationSet": {"include": ["de"]},
      "tags": {
        "amenity": "fire_station",
        "operator": "Stadt Homberg (Ohm)"
      }
    },
    {
      "displayName": "Stadt Horb",
      "id": "stadthorb-e05ec0",
      "locationSet": {"include": ["de"]},
      "tags": {
        "amenity": "fire_station",
        "operator": "Stadt Horb"
      }
    },
    {
      "displayName": "Stadt Oberzent",
      "id": "stadtoberzent-e05ec0",
      "locationSet": {"include": ["de"]},
      "tags": {
        "amenity": "fire_station",
        "operator": "Stadt Oberzent"
      }
    },
    {
      "displayName": "Stadt Seelze",
      "id": "stadtseelze-e05ec0",
      "locationSet": {"include": ["de"]},
      "tags": {
        "amenity": "fire_station",
        "operator": "Stadt Seelze"
      }
    },
    {
      "displayName": "Stadt Trier",
      "id": "stadttrier-e05ec0",
      "locationSet": {"include": ["de"]},
      "tags": {
        "amenity": "fire_station",
        "operator": "Stadt Trier",
        "operator:wikidata": "Q1409919",
        "operator:wikipedia": "de:Feuerwehr Trier"
      }
    },
    {
      "displayName": "Stadt Uebigau-Wahrenbrück",
      "id": "stadtuebigauwahrenbruck-e05ec0",
      "locationSet": {"include": ["de"]},
      "tags": {
        "amenity": "fire_station",
        "operator": "Stadt Uebigau-Wahrenbrück"
      }
    },
    {
      "displayName": "Stadt Uslar",
      "id": "stadtuslar-e05ec0",
      "locationSet": {"include": ["de"]},
      "tags": {
        "amenity": "fire_station",
        "operator": "Stadt Uslar"
      }
    },
    {
      "displayName": "Tacoma Fire Department",
      "id": "tacomafiredepartment-f24dcc",
      "locationSet": {"include": ["001"]},
      "tags": {
        "amenity": "fire_station",
        "operator": "Tacoma Fire Department"
      }
    },
    {
      "displayName": "Tasmanian Fire Service",
      "id": "tasmanianfireservice-6b676e",
      "locationSet": {"include": ["au-tas"]},
      "tags": {
        "amenity": "fire_station",
        "operator": "Tasmanian Fire Service"
      }
    },
    {
      "displayName": "Trøndelag brann- og redningstjeneste IKS",
      "id": "trondelagbrannogredningstjenesteiks-f24dcc",
      "locationSet": {"include": ["001"]},
      "tags": {
        "amenity": "fire_station",
        "operator": "Trøndelag brann- og redningstjeneste IKS"
      }
    },
    {
      "displayName": "Vancouver Fire and Rescue Services",
      "id": "vancouverfireandrescueservices-03abee",
      "locationSet": {"include": ["ca"]},
      "tags": {
        "amenity": "fire_station",
        "operator": "Vancouver Fire and Rescue Services"
      }
    },
    {
      "displayName": "Verbandsgemeinde Aar-Einrich",
      "id": "verbandsgemeindeaareinrich-e05ec0",
      "locationSet": {"include": ["de"]},
      "tags": {
        "amenity": "fire_station",
        "operator": "Verbandsgemeinde Aar-Einrich"
      }
    },
    {
      "displayName": "Verbandsgemeinde Bad Ems-Nassau",
      "id": "verbandsgemeindebademsnassau-e05ec0",
      "locationSet": {"include": ["de"]},
      "tags": {
        "amenity": "fire_station",
        "operator": "Verbandsgemeinde Bad Ems-Nassau"
      }
    },
    {
      "displayName": "Verbandsgemeinde Bernkastel-Kues",
      "id": "verbandsgemeindebernkastelkues-e05ec0",
      "locationSet": {"include": ["de"]},
      "tags": {
        "amenity": "fire_station",
        "operator": "Verbandsgemeinde Bernkastel-Kues"
      }
    },
    {
      "displayName": "Verbandsgemeinde Birkenfeld",
      "id": "verbandsgemeindebirkenfeld-e05ec0",
      "locationSet": {"include": ["de"]},
      "tags": {
        "amenity": "fire_station",
        "operator": "Verbandsgemeinde Birkenfeld"
      }
    },
    {
      "displayName": "Verbandsgemeinde Bitburger Land",
      "id": "verbandsgemeindebitburgerland-e05ec0",
      "locationSet": {"include": ["de"]},
      "tags": {
        "amenity": "fire_station",
        "operator": "Verbandsgemeinde Bitburger Land"
      }
    },
    {
      "displayName": "Verbandsgemeinde Daun",
      "id": "verbandsgemeindedaun-e05ec0",
      "locationSet": {"include": ["de"]},
      "tags": {
        "amenity": "fire_station",
        "operator": "Verbandsgemeinde Daun"
      }
    },
    {
      "displayName": "Verbandsgemeinde Gerolstein",
      "id": "verbandsgemeindegerolstein-e05ec0",
      "locationSet": {"include": ["de"]},
      "tags": {
        "amenity": "fire_station",
        "operator": "Verbandsgemeinde Gerolstein"
      }
    },
    {
      "displayName": "Verbandsgemeinde Kelberg",
      "id": "verbandsgemeindekelberg-e05ec0",
      "locationSet": {"include": ["de"]},
      "tags": {
        "amenity": "fire_station",
        "operator": "Verbandsgemeinde Kelberg"
      }
    },
    {
      "displayName": "Verbandsgemeinde Kirner Land",
      "id": "verbandsgemeindekirnerland-e05ec0",
      "locationSet": {"include": ["de"]},
      "tags": {
        "amenity": "fire_station",
        "operator": "Verbandsgemeinde Kirner Land"
      }
    },
    {
      "displayName": "Verbandsgemeinde Konz",
      "id": "verbandsgemeindekonz-e05ec0",
      "locationSet": {"include": ["de"]},
      "tags": {
        "amenity": "fire_station",
        "operator": "Verbandsgemeinde Konz"
      }
    },
    {
      "displayName": "Verbandsgemeinde Landstuhl",
      "id": "verbandsgemeindelandstuhl-e05ec0",
      "locationSet": {"include": ["de"]},
      "tags": {
        "amenity": "fire_station",
        "operator": "Verbandsgemeinde Landstuhl"
      }
    },
    {
      "displayName": "Verbandsgemeinde Langenlonsheim-Stromberg",
      "id": "verbandsgemeindelangenlonsheimstromberg-e05ec0",
      "locationSet": {"include": ["de"]},
      "tags": {
        "amenity": "fire_station",
        "operator": "Verbandsgemeinde Langenlonsheim-Stromberg"
      }
    },
    {
      "displayName": "Verbandsgemeinde Nahe-Glan",
      "id": "verbandsgemeindenaheglan-e05ec0",
      "locationSet": {"include": ["de"]},
      "tags": {
        "amenity": "fire_station",
        "operator": "Verbandsgemeinde Nahe-Glan"
      }
    },
    {
      "displayName": "Verbandsgemeinde Nordpfälzer Land",
      "id": "verbandsgemeindenordpfalzerland-e05ec0",
      "locationSet": {"include": ["de"]},
      "tags": {
        "amenity": "fire_station",
        "operator": "Verbandsgemeinde Nordpfälzer Land"
      }
    },
    {
      "displayName": "Verbandsgemeinde Rengsdorf-Waldbreitbach",
      "id": "verbandsgemeinderengsdorfwaldbreitbach-e05ec0",
      "locationSet": {"include": ["de"]},
      "tags": {
        "amenity": "fire_station",
        "operator": "Verbandsgemeinde Rengsdorf-Waldbreitbach"
      }
    },
    {
      "displayName": "Verbandsgemeinde Rüdesheim",
      "id": "verbandsgemeinderudesheim-e05ec0",
      "locationSet": {"include": ["de"]},
      "tags": {
        "amenity": "fire_station",
        "operator": "Verbandsgemeinde Rüdesheim"
      }
    },
    {
      "displayName": "Verbandsgemeinde Ruwer",
      "id": "verbandsgemeinderuwer-e05ec0",
      "locationSet": {"include": ["de"]},
      "tags": {
        "amenity": "fire_station",
        "operator": "Verbandsgemeinde Ruwer"
      }
    },
    {
      "displayName": "Verbandsgemeinde Saarburg-Kell",
      "id": "verbandsgemeindesaarburgkell-e05ec0",
      "locationSet": {"include": ["de"]},
      "tags": {
        "amenity": "fire_station",
        "operator": "Verbandsgemeinde Saarburg-Kell"
      }
    },
    {
      "displayName": "Verbandsgemeinde Schweich",
      "id": "verbandsgemeindeschweich-e05ec0",
      "locationSet": {"include": ["de"]},
      "tags": {
        "amenity": "fire_station",
        "operator": "Verbandsgemeinde Schweich"
      }
    },
    {
      "displayName": "Verbandsgemeinde Simmern-Rheinböllen",
      "id": "verbandsgemeindesimmernrheinbollen-e05ec0",
      "locationSet": {"include": ["de"]},
      "tags": {
        "amenity": "fire_station",
        "operator": "Verbandsgemeinde Simmern-Rheinböllen"
      }
    },
    {
      "displayName": "Verbandsgemeinde Thalfang am Erbeskopf",
      "id": "verbandsgemeindethalfangamerbeskopf-e05ec0",
      "locationSet": {"include": ["de"]},
      "tags": {
        "amenity": "fire_station",
        "operator": "Verbandsgemeinde Thalfang am Erbeskopf"
      }
    },
    {
      "displayName": "Verbandsgemeinde Traben-Trarbach",
      "id": "verbandsgemeindetrabentrarbach-e05ec0",
      "locationSet": {"include": ["de"]},
      "tags": {
        "amenity": "fire_station",
        "operator": "Verbandsgemeinde Traben-Trarbach"
      }
    },
    {
      "displayName": "Verbandsgemeinde Trier-Land",
      "id": "verbandsgemeindetrierland-e05ec0",
      "locationSet": {"include": ["de"]},
      "tags": {
        "amenity": "fire_station",
        "operator": "Verbandsgemeinde Trier-Land"
      }
    },
    {
      "displayName": "Verbandsgemeinde Wittlich-Land",
      "id": "verbandsgemeindewittlichland-e05ec0",
      "locationSet": {"include": ["de"]},
      "tags": {
        "amenity": "fire_station",
        "operator": "Verbandsgemeinde Wittlich-Land"
      }
    },
    {
      "displayName": "Vest-Telemark brannvesen",
      "id": "vesttelemarkbrannvesen-f24dcc",
      "locationSet": {"include": ["001"]},
      "tags": {
        "amenity": "fire_station",
        "operator": "Vest-Telemark brannvesen"
      }
    },
    {
      "displayName": "Vigili del Fuoco",
      "id": "vigilidelfuoco-f24dcc",
      "locationSet": {"include": ["001"]},
      "tags": {
        "amenity": "fire_station",
        "operator": "Vigili del Fuoco"
      }
    },
    {
      "displayName": "Ville de Montréal",
      "id": "villedemontreal-f24dcc",
      "locationSet": {"include": ["001"]},
      "tags": {
        "amenity": "fire_station",
        "operator": "Ville de Montréal"
      }
    },
    {
      "displayName": "VNOG",
      "id": "vnog-f24dcc",
      "locationSet": {"include": ["001"]},
      "tags": {
        "amenity": "fire_station",
        "operator": "VNOG"
      }
    },
    {
      "displayName": "WYFRS",
      "id": "wyfrs-f24dcc",
      "locationSet": {"include": ["001"]},
      "tags": {
        "amenity": "fire_station",
        "operator": "WYFRS"
      }
    },
    {
      "displayName": "ZOSP RP",
      "id": "zosprp-f24dcc",
      "locationSet": {"include": ["001"]},
      "tags": {
        "amenity": "fire_station",
        "operator": "ZOSP RP"
      }
    },
    {
      "displayName": "ГКУ ПО \"Управление ОД в ЧС\"",
      "id": "ede306-f24dcc",
      "locationSet": {"include": ["001"]},
      "tags": {
        "amenity": "fire_station",
        "operator": "ГКУ ПО \"Управление ОД в ЧС\""
      }
    },
    {
      "displayName": "МЧС",
      "id": "609176-f24dcc",
      "locationSet": {"include": ["001"]},
      "tags": {
        "amenity": "fire_station",
        "operator": "МЧС"
      }
    },
    {
      "displayName": "Областное государственное учреждение «Противопожарная служба Челябинской области»",
      "id": "874d3d-f24dcc",
      "locationSet": {"include": ["001"]},
      "tags": {
        "amenity": "fire_station",
        "operator": "Областное государственное учреждение «Противопожарная служба Челябинской области»"
      }
    },
    {
      "displayName": "ФГП «Ведомственная охрана железнодорожного транспорта Российской Федерации» (Восточно-Сибирская железная дорога)",
      "id": "b85f60-f24dcc",
      "locationSet": {"include": ["001"]},
      "tags": {
        "amenity": "fire_station",
        "operator": "ФГП «Ведомственная охрана железнодорожного транспорта Российской Федерации» (Восточно-Сибирская железная дорога)"
      }
    },
    {
      "displayName": "ФГП «Ведомственная охрана железнодорожного транспорта Российской Федерации» (Горьковская железная дорога)",
      "id": "d52300-f24dcc",
      "locationSet": {"include": ["001"]},
      "tags": {
        "amenity": "fire_station",
        "operator": "ФГП «Ведомственная охрана железнодорожного транспорта Российской Федерации» (Горьковская железная дорога)"
      }
    },
    {
      "displayName": "ФГП «Ведомственная охрана железнодорожного транспорта Российской Федерации» (Дальневосточная железная дорога)",
      "id": "118d42-f24dcc",
      "locationSet": {"include": ["001"]},
      "tags": {
        "amenity": "fire_station",
        "operator": "ФГП «Ведомственная охрана железнодорожного транспорта Российской Федерации» (Дальневосточная железная дорога)"
      }
    },
    {
      "displayName": "ФГП «Ведомственная охрана железнодорожного транспорта Российской Федерации» (Забайкальская железная дорога)",
      "id": "77b3be-f24dcc",
      "locationSet": {"include": ["001"]},
      "tags": {
        "amenity": "fire_station",
        "operator": "ФГП «Ведомственная охрана железнодорожного транспорта Российской Федерации» (Забайкальская железная дорога)"
      }
    },
    {
      "displayName": "ФГП «Ведомственная охрана железнодорожного транспорта Российской Федерации» (Западно-Сибирская железная дорога)",
      "id": "39446e-f24dcc",
      "locationSet": {"include": ["001"]},
      "tags": {
        "amenity": "fire_station",
        "operator": "ФГП «Ведомственная охрана железнодорожного транспорта Российской Федерации» (Западно-Сибирская железная дорога)"
      }
    },
    {
      "displayName": "ФГП «Ведомственная охрана железнодорожного транспорта Российской Федерации» (Красноярская железная дорога)",
      "id": "88b9ff-f24dcc",
      "locationSet": {"include": ["001"]},
      "tags": {
        "amenity": "fire_station",
        "operator": "ФГП «Ведомственная охрана железнодорожного транспорта Российской Федерации» (Красноярская железная дорога)"
      }
    },
    {
      "displayName": "ФГП «Ведомственная охрана железнодорожного транспорта Российской Федерации» (Куйбышевской железная дорога)",
      "id": "43a2bb-f24dcc",
      "locationSet": {"include": ["001"]},
      "tags": {
        "amenity": "fire_station",
        "operator": "ФГП «Ведомственная охрана железнодорожного транспорта Российской Федерации» (Куйбышевской железная дорога)"
      }
    },
    {
      "displayName": "ФГП «Ведомственная охрана железнодорожного транспорта Российской Федерации» (Московская железная дорога)",
      "id": "6032ae-f24dcc",
      "locationSet": {"include": ["001"]},
      "tags": {
        "amenity": "fire_station",
        "operator": "ФГП «Ведомственная охрана железнодорожного транспорта Российской Федерации» (Московская железная дорога)"
      }
    },
    {
      "displayName": "ФГП «Ведомственная охрана железнодорожного транспорта Российской Федерации» (Октябрьская железная дорога)",
      "id": "c49b99-f24dcc",
      "locationSet": {"include": ["001"]},
      "tags": {
        "amenity": "fire_station",
        "operator": "ФГП «Ведомственная охрана железнодорожного транспорта Российской Федерации» (Октябрьская железная дорога)"
      }
    },
    {
      "displayName": "ФГП «Ведомственная охрана железнодорожного транспорта Российской Федерации» (Свердловская железная дорога)",
      "id": "82fdc3-f24dcc",
      "locationSet": {"include": ["001"]},
      "tags": {
        "amenity": "fire_station",
        "operator": "ФГП «Ведомственная охрана железнодорожного транспорта Российской Федерации» (Свердловская железная дорога)"
      }
    },
    {
      "displayName": "ФГП «Ведомственная охрана железнодорожного транспорта Российской Федерации» (Северная железная дорога)",
      "id": "36301c-f24dcc",
      "locationSet": {"include": ["001"]},
      "tags": {
        "amenity": "fire_station",
        "operator": "ФГП «Ведомственная охрана железнодорожного транспорта Российской Федерации» (Северная железная дорога)"
      }
    },
    {
      "displayName": "ФГП «Ведомственная охрана железнодорожного транспорта Российской Федерации» (Северо-Кавказская железная дорога)",
      "id": "ca6378-f24dcc",
      "locationSet": {"include": ["001"]},
      "tags": {
        "amenity": "fire_station",
        "operator": "ФГП «Ведомственная охрана железнодорожного транспорта Российской Федерации» (Северо-Кавказская железная дорога)"
      }
    },
    {
      "displayName": "ФГП «Ведомственная охрана железнодорожного транспорта Российской Федерации» (Юго-Восточная железная дорога)",
      "id": "e7a6f2-f24dcc",
      "locationSet": {"include": ["001"]},
      "tags": {
        "amenity": "fire_station",
        "operator": "ФГП «Ведомственная охрана железнодорожного транспорта Российской Федерации» (Юго-Восточная железная дорога)"
      }
    },
    {
      "displayName": "ФГП «Ведомственная охрана железнодорожного транспорта Российской Федерации» (Южно-Уральская железная дорога)",
      "id": "4c2126-f24dcc",
      "locationSet": {"include": ["001"]},
      "tags": {
        "amenity": "fire_station",
        "operator": "ФГП «Ведомственная охрана железнодорожного транспорта Российской Федерации» (Южно-Уральская железная дорога)"
      }
    },
    {
      "displayName": "سازمان آتش‌نشانی و خدمات ایمنی شهرداری اراک",
      "id": "arakmunicipalityfireandsafetyservices-f24dcc",
      "locationSet": {"include": ["001"]},
      "tags": {
        "amenity": "fire_station",
        "operator": "سازمان آتش‌نشانی و خدمات ایمنی شهرداری اراک",
        "operator:en": "Arak Municipality Fire and Safety Services"
      }
    },
    {
      "displayName": "وزارة الداخلية والجماعات المحلية والتهيئة العمراني",
      "id": "843c83-f24dcc",
      "locationSet": {"include": ["001"]},
      "tags": {
        "amenity": "fire_station",
        "operator": "وزارة الداخلية والجماعات المحلية والتهيئة العمراني"
      }
    },
    {
      "displayName": "وزارة الداخلية والجماعات المحلية والتهيئة العمرانية الجزائرية",
      "id": "f3dfb7-f24dcc",
      "locationSet": {"include": ["001"]},
      "tags": {
        "amenity": "fire_station",
        "operator": "وزارة الداخلية والجماعات المحلية والتهيئة العمرانية الجزائرية"
      }
    },
    {
      "displayName": "埼玉東部消防組合",
      "id": "aad553-f24dcc",
      "locationSet": {"include": ["001"]},
      "tags": {
        "amenity": "fire_station",
        "operator": "埼玉東部消防組合"
      }
    },
    {
      "displayName": "埼玉西部消防組合",
      "id": "0fa1bb-f24dcc",
      "locationSet": {"include": ["001"]},
      "tags": {
        "amenity": "fire_station",
        "operator": "埼玉西部消防組合"
      }
    },
    {
      "displayName": "宜蘭縣政府消防局",
      "id": "b66768-f24dcc",
      "locationSet": {"include": ["001"]},
      "tags": {
        "amenity": "fire_station",
        "operator": "宜蘭縣政府消防局"
      }
    },
    {
      "displayName": "尼崎市消防団",
      "id": "218eb7-f24dcc",
      "locationSet": {"include": ["001"]},
      "tags": {
        "amenity": "fire_station",
        "operator": "尼崎市消防団"
      }
    },
    {
      "displayName": "札幌市消防局",
      "id": "e3431b-f24dcc",
      "locationSet": {"include": ["001"]},
      "tags": {
        "amenity": "fire_station",
        "operator": "札幌市消防局"
      }
    },
    {
      "displayName": "東京消防庁第八消防方面本部",
      "id": "df9d58-f24dcc",
      "locationSet": {"include": ["001"]},
      "tags": {
        "amenity": "fire_station",
        "operator": "東京消防庁第八消防方面本部"
      }
    },
    {
      "displayName": "臺中市政府消防局",
      "id": "8c1992-f24dcc",
      "locationSet": {"include": ["001"]},
      "tags": {
        "amenity": "fire_station",
        "operator": "臺中市政府消防局"
      }
    },
    {
      "displayName": "高雄市政府消防局",
      "id": "f83b14-f24dcc",
      "locationSet": {"include": ["001"]},
      "tags": {
        "amenity": "fire_station",
        "operator": "高雄市政府消防局"
      }
    }
  ]
}
