{
  "operators/amenity/hospital": [
    {
      "displayName": "Apollo Hospitals",
      "id": "apollohospitals-895d2c",
      "locationSet": {"include": ["in"]},
      "tags": {
        "amenity": "hospital",
        "operator": "Apollo Hospitals",
        "operator:wikidata": "Q4780321",
        "operator:wikipedia": "en:Apollo Hospitals",
        "healthcare": "hospital",
        "name": "Apollo Hospitals"
      }
    },
    {
      "displayName": "City Hospital",
      "id": "cityhospital-895d2c",
      "locationSet": {"include": ["in"]},
      "tags": {
        "amenity": "hospital",
        "operator": "City Hospital",
        "name": "City Hospital"
      }
    },
    {
      "displayName": "Civil Hospital",
      "id": "civilhospital-abc639",
      "locationSet": {"include": ["001"]},
      "tags": {
        "amenity": "hospital",
        "operator": "Civil Hospital",
        "name": "Civil Hospital"
      }
    },
    {
      "displayName": "Cruz Roja",
      "id": "cruzroja-7c5df1",
      "locationSet": {
        "include": ["ar", "cl", "co", "es", "mx"]
      },
      "tags": {
        "amenity": "hospital",
        "operator": "Cruz Roja",
        "operator:wikidata": "Q7178",
        "operator:wikipedia": "es:Cruz Roja",
        "name": "Cruz Roja"
      }
    },
    {
      "displayName": "ESI Hospital",
      "id": "esihospital-895d2c",
      "locationSet": {"include": ["in"]},
      "tags": {
        "amenity": "hospital",
        "operator": "ESI Hospital",
        "name": "ESI Hospital"
      }
    },
    {
      "displayName": "Fortis Healthcare",
      "id": "fortishealthcare-895d2c",
      "locationSet": {"include": ["in"]},
      "tags": {
        "amenity": "hospital",
        "operator": "Fortis Healthcare",
        "operator:wikidata": "Q7810035",
        "operator:wikipedia": "en:Fortis Healthcare",
        "healthcare": "hospital",
        "name": "Fortis Healthcare"
      }
    },
    {
      "displayName": "General Hospital",
      "id": "generalhospital-abc639",
      "locationSet": {"include": ["001"]},
      "tags": {
        "amenity": "hospital",
        "operator": "General Hospital",
        "name": "General Hospital"
      }
    },
    {
      "displayName": "Govt Hospital",
      "id": "govthospital-abc639",
      "locationSet": {"include": ["001"]},
      "tags": {
        "amenity": "hospital",
        "operator": "Govt Hospital",
        "name": "Govt Hospital"
      }
    },
    {
      "displayName": "Health Post",
      "id": "healthpost-abc639",
      "locationSet": {"include": ["001"]},
      "tags": {
        "amenity": "hospital",
        "operator": "Health Post",
        "name": "Health Post"
      }
    },
    {
      "displayName": "IMSS",
      "id": "imss-5674ff",
      "locationSet": {"include": ["mx"]},
      "tags": {
        "amenity": "hospital",
        "operator": "IMSS",
        "name": "IMSS"
      }
    },
    {
      "displayName": "Krishna Hospital",
      "id": "krishnahospital-895d2c",
      "locationSet": {"include": ["in"]},
      "tags": {
        "amenity": "hospital",
        "operator": "Krishna Hospital",
        "name": "Krishna Hospital"
      }
    },
    {
      "displayName": "Life Care Hospital",
      "id": "lifecarehospital-abc639",
      "locationSet": {"include": ["001"]},
      "tags": {
        "amenity": "hospital",
        "operator": "Life Care Hospital",
        "name": "Life Care Hospital"
      }
    },
    {
      "displayName": "Military Hospital",
      "id": "militaryhospital-abc639",
      "locationSet": {"include": ["001"]},
      "tags": {
        "amenity": "hospital",
        "operator": "Military Hospital",
        "name": "Military Hospital"
      }
    },
    {
      "displayName": "Primary Health Center",
      "id": "primaryhealthcenter-abc639",
      "locationSet": {"include": ["001"]},
      "tags": {
        "amenity": "hospital",
        "operator": "Primary Health Center",
        "name": "Primary Health Center"
      }
    },
    {
      "displayName": "Primary Health Centre",
      "id": "primaryhealthcentre-abc639",
      "locationSet": {"include": ["001"]},
      "tags": {
        "amenity": "hospital",
        "operator": "Primary Health Centre",
        "name": "Primary Health Centre"
      }
    },
    {
      "displayName": "Railway Hospital",
      "id": "railwayhospital-abc639",
      "locationSet": {"include": ["001"]},
      "tags": {
        "amenity": "hospital",
        "operator": "Railway Hospital",
        "name": "Railway Hospital"
      }
    },
    {
      "displayName": "Sanjeevani Hospital",
      "id": "sanjeevanihospital-895d2c",
      "locationSet": {"include": ["in"]},
      "tags": {
        "amenity": "hospital",
        "operator": "Sanjeevani Hospital",
        "name": "Sanjeevani Hospital"
      }
    },
    {
      "displayName": "Sanjivani Hospital",
      "id": "sanjivanihospital-895d2c",
      "locationSet": {"include": ["in"]},
      "tags": {
        "amenity": "hospital",
        "operator": "Sanjivani Hospital",
        "name": "Sanjivani Hospital"
      }
    },
    {
      "displayName": "Select Specialty Hospital",
      "id": "selectspecialtyhospital-246740",
      "locationSet": {"include": ["us"]},
      "matchNames": ["select speciality"],
      "tags": {
        "amenity": "hospital",
        "operator": "Select Specialty Hospital",
        "operator:wikidata": "Q66360902",
        "healthcare": "hospital",
        "name": "Select Specialty Hospital"
      }
    },
    {
      "displayName": "Shriners Hospital for Children",
      "id": "shrinershospitalsforchildren-246740",
      "locationSet": {"include": ["us"]},
      "matchNames": [
        "shriners burn hospital",
        "shriners hospital"
      ],
      "tags": {
        "amenity": "hospital",
        "operator": "Shriners Hospitals for Children",
        "operator:wikidata": "Q7504109",
        "operator:wikipedia": "en:Shriners Hospitals for Children",
        "healthcare": "hospital",
        "healthcare:speciality": "paediatrics",
        "name": "Shriners Hospitals for Children"
      }
    },
    {
      "displayName": "VA Medical Center",
      "id": "vamedicalcenter-246740",
      "locationSet": {"include": ["us"]},
      "matchNames": [
        "department of veterans affairs medical center",
        "veterans administration",
        "veterans administration hospital",
        "veterans administration medical center",
        "veterans affairs",
        "veterans affairs hospital",
        "veterans affairs medical center"
      ],
      "tags": {
        "amenity": "hospital",
        "operator": "VA",
        "operator:wikidata": "Q6580225",
        "operator:wikipedia": "en:Veterans Health Administration",
        "healthcare": "hospital",
        "healthcare:for": "veterans",
        "name": "VA Medical Center",
        "short_name": "VA"
      }
    },
    {
      "displayName": "Городская больница",
      "id": "a7af6a-abc639",
      "locationSet": {"include": ["001"]},
      "tags": {
        "amenity": "hospital",
        "operator": "Городская больница",
        "name": "Городская больница"
      }
    },
    {
      "displayName": "Детская больница",
      "id": "da1c9b-abc639",
      "locationSet": {"include": ["001"]},
      "tags": {
        "amenity": "hospital",
        "operator": "Детская больница",
        "name": "Детская больница"
      }
    },
    {
      "displayName": "Медпункт",
      "id": "4382ab-abc639",
      "locationSet": {"include": ["001"]},
      "tags": {
        "amenity": "hospital",
        "operator": "Медпункт",
        "name": "Медпункт"
      }
    },
    {
      "displayName": "Противотуберкулезный диспансер",
      "id": "af05e5-abc639",
      "locationSet": {"include": ["001"]},
      "tags": {
        "amenity": "hospital",
        "operator": "Противотуберкулезный диспансер",
        "name": "Противотуберкулезный диспансер"
      }
    },
    {
      "displayName": "Районная больница",
      "id": "bca383-abc639",
      "locationSet": {"include": ["001"]},
      "tags": {
        "amenity": "hospital",
        "operator": "Районная больница",
        "name": "Районная больница"
      }
    },
    {
      "displayName": "Роддом",
      "id": "dbf000-abc639",
      "locationSet": {"include": ["001"]},
      "tags": {
        "amenity": "hospital",
        "operator": "Роддом",
        "name": "Роддом"
      }
    },
    {
      "displayName": "Родильный дом",
      "id": "addbb5-abc639",
      "locationSet": {"include": ["001"]},
      "tags": {
        "amenity": "hospital",
        "operator": "Родильный дом",
        "name": "Родильный дом"
      }
    },
    {
      "displayName": "Скорая помощь",
      "id": "6824f8-abc639",
      "locationSet": {"include": ["001"]},
      "tags": {
        "amenity": "hospital",
        "operator": "Скорая помощь",
        "name": "Скорая помощь"
      }
    }
  ]
}
