{
  "operators/amenity/post_office": [
    {
      "displayName": "An Post",
      "id": "anpost-a056d1",
      "locationSet": {"include": ["ie"]},
      "tags": {
        "amenity": "post_office",
        "brand": "An Post",
        "brand:wikidata": "Q482490",
        "brand:wikipedia": "en:An Post",
        "name": "An Post",
        "operator": "An Post",
        "operator:wikidata": "Q482490",
        "operator:wikipedia": "en:An Post"
      }
    },
    {
      "displayName": "Australia Post",
      "id": "australiapost-536bec",
      "locationSet": {"include": ["au"]},
      "tags": {
        "amenity": "post_office",
        "brand": "Australia Post",
        "brand:wikidata": "Q1142936",
        "brand:wikipedia": "en:Australia Post",
        "name": "Australia Post",
        "operator": "Australia Post",
        "operator:wikidata": "Q1142936",
        "operator:wikipedia": "en:Australia Post"
      }
    },
    {
      "displayName": "Canada Post",
      "id": "canadapost-81497e",
      "locationSet": {"include": ["ca"]},
      "tags": {
        "amenity": "post_office",
        "brand": "Canada Post",
        "brand:wikidata": "Q1032001",
        "brand:wikipedia": "en:Canada Post",
        "name": "Canada Post",
        "operator": "Canada Post",
        "operator:wikidata": "Q1032001",
        "operator:wikipedia": "en:Canada Post"
      }
    },
    {
      "displayName": "Česká pošta",
      "id": "ceskaposta-aa9270",
      "locationSet": {"include": ["cz"]},
      "tags": {
        "amenity": "post_office",
        "brand": "Česká pošta",
        "brand:wikidata": "Q341090",
        "brand:wikipedia": "cz:Česká pošta",
        "name": "Česká pošta",
        "operator": "Česká pošta",
        "operator:wikidata": "Q341090",
        "operator:wikipedia": "cz:Česká pošta"
      }
    },
    {
      "displayName": "Chilexpress",
      "id": "chilexpress-3d11d9",
      "locationSet": {"include": ["cl"]},
      "tags": {
        "amenity": "post_office",
        "brand": "Chilexpress",
        "name": "Chilexpress",
        "operator": "Chilexpress"
      }
    },
    {
      "displayName": "Correios",
      "id": "correios-e82118",
      "locationSet": {"include": ["br"]},
      "tags": {
        "amenity": "post_office",
        "brand": "Correios",
        "brand:wikidata": "Q3375004",
        "brand:wikipedia": "en:Correios",
        "name": "Correios",
        "operator": "Correios",
        "operator:wikidata": "Q3375004",
        "operator:wikipedia": "en:Correios"
      }
    },
    {
      "displayName": "Correo Argentino",
      "id": "correoargentino-debce4",
      "locationSet": {"include": ["ar"]},
      "tags": {
        "amenity": "post_office",
        "brand": "Correo Argentino",
        "brand:wikidata": "Q4036566",
        "brand:wikipedia": "en:Correo Argentino",
        "name": "Correo Argentino",
        "operator": "Correo Argentino",
        "operator:wikidata": "Q4036566",
        "operator:wikipedia": "en:Correo Argentino"
      }
    },
    {
      "displayName": "Correos",
      "id": "correos-e6c145",
      "locationSet": {"include": ["es"]},
      "matchNames": ["oficina de correos"],
      "tags": {
        "amenity": "post_office",
        "brand": "Correos",
        "brand:wikidata": "Q776605",
        "brand:wikipedia": "es:Correos (España)",
        "name": "Correos",
        "operator": "Correos",
        "operator:wikidata": "Q776605",
        "operator:wikipedia": "es:Correos (España)"
      }
    },
    {
      "displayName": "Correos de Chile",
      "id": "correosdechile-3d11d9",
      "locationSet": {"include": ["cl"]},
      "tags": {
        "amenity": "post_office",
        "brand": "Correos de Chile",
        "brand:wikidata": "Q5172893",
        "brand:wikipedia": "en:Correos de Chile",
        "name": "Correos de Chile",
        "operator": "Correos de Chile",
        "operator:wikidata": "Q5172893",
        "operator:wikipedia": "en:Correos de Chile"
      }
    },
    {
      "displayName": "Correos de Costa Rica",
      "id": "correosdecostarica-4fea3e",
      "locationSet": {"include": ["cr"]},
      "tags": {
        "amenity": "post_office",
        "brand": "Correos de Costa Rica",
        "brand:wikidata": "Q5172894",
        "brand:wikipedia": "en:Correos de Costa Rica",
        "name": "Correos de Costa Rica",
        "operator": "Correos de Costa Rica",
        "operator:wikidata": "Q5172894",
        "operator:wikipedia": "en:Correos de Costa Rica"
      }
    },
    {
      "displayName": "Correos de México",
      "id": "correosdemexico-0b19e1",
      "locationSet": {"include": ["mx"]},
      "tags": {
        "amenity": "post_office",
        "brand": "Correos de México",
        "brand:wikidata": "Q5172898",
        "brand:wikipedia": "en:Correos de México",
        "name": "Correos de México",
        "operator": "Correos de México",
        "operator:wikidata": "Q5172898",
        "operator:wikipedia": "en:Correos de México"
      }
    },
    {
      "displayName": "CTT (Macau)",
      "id": "ctt-13f722",
      "locationSet": {"include": ["mo"]},
      "tags": {
        "amenity": "post_office",
        "brand": "CTT",
        "brand:wikidata": "Q909429",
        "brand:wikipedia": "en:CTT (Macau)",
        "name": "CTT",
        "operator": "CTT",
        "operator:wikidata": "Q909429",
        "operator:wikipedia": "en:CTT (Macau)"
      }
    },
    {
      "displayName": "CTT (Portugal)",
      "id": "ctt-5666eb",
      "locationSet": {"include": ["pt"]},
      "tags": {
        "amenity": "post_office",
        "brand": "CTT",
        "brand:wikidata": "Q1024518",
        "brand:wikipedia": "en:CTT Correios de Portugal, S.A.",
        "name": "CTT",
        "operator": "CTT",
        "operator:wikidata": "Q1024518",
        "operator:wikipedia": "en:CTT Correios de Portugal, S.A."
      }
    },
    {
      "displayName": "Deutsche Post",
      "id": "deutschepost-8c0db3",
      "locationSet": {"include": ["de"]},
      "matchNames": [
        "deutsche post ag",
        "deutsche post filiale"
      ],
      "tags": {
        "amenity": "post_office",
        "brand": "Deutsche Post",
        "brand:wikidata": "Q157645",
        "brand:wikipedia": "en:Deutsche Post",
        "name": "Deutsche Post",
        "operator": "Deutsche Post",
        "operator:wikidata": "Q157645",
        "operator:wikipedia": "en:Deutsche Post"
      }
    },
    {
      "displayName": "DHL",
      "id": "dhl-91a3cc",
      "locationSet": {"include": ["001"]},
      "matchNames": ["dhl paketshop"],
      "tags": {
        "amenity": "post_office",
        "brand": "DHL",
        "brand:wikidata": "Q489815",
        "brand:wikipedia": "en:DHL",
        "name": "DHL",
        "operator": "DHL",
        "operator:wikidata": "Q489815",
        "operator:wikipedia": "en:DHL"
      }
    },
    {
      "displayName": "Domesa",
      "id": "domesa-de64fe",
      "locationSet": {"include": ["ve"]},
      "tags": {
        "amenity": "post_office",
        "brand": "Domesa",
        "name": "Domesa",
        "operator": "Domesa"
      }
    },
    {
      "displayName": "DPD",
      "id": "dpd-91a3cc",
      "locationSet": {"include": ["001"]},
      "tags": {
        "amenity": "post_office",
        "brand": "DPD",
        "name": "DPD",
        "operator": "DPD"
      }
    },
    {
      "displayName": "DPD Paketshop",
      "id": "dpdpaketshop-e74434",
      "locationSet": {
        "include": ["at", "de", "pl"]
      },
      "tags": {
        "amenity": "post_office",
        "brand": "DPD Paketshop",
        "brand:wikidata": "Q541030",
        "brand:wikipedia": "en:DPDgroup",
        "name": "DPD Paketshop",
        "operator": "DPD Paketshop",
        "operator:wikidata": "Q541030",
        "operator:wikipedia": "en:DPDgroup"
      }
    },
    {
      "displayName": "Fancourier",
      "id": "fancourier-08dfb1",
      "locationSet": {"include": ["ro"]},
      "tags": {
        "amenity": "post_office",
        "brand": "Fancourier",
        "brand:wikidata": "Q12727984",
        "brand:wikipedia": "ro:FAN Courier Express",
        "name": "Fancourier",
        "operator": "Fancourier",
        "operator:wikidata": "Q12727984",
        "operator:wikipedia": "ro:FAN Courier Express"
      }
    },
    {
      "displayName": "FedEx",
      "id": "fedex-91a3cc",
      "locationSet": {"include": ["001"]},
      "tags": {
        "amenity": "post_office",
        "brand": "FedEx",
        "brand:wikidata": "Q459477",
        "brand:wikipedia": "en:FedEx",
        "name": "FedEx",
        "operator": "FedEx",
        "operator:wikidata": "Q459477",
        "operator:wikipedia": "en:FedEx"
      }
    },
    {
      "displayName": "GLS",
      "id": "gls-91a3cc",
      "locationSet": {"include": ["001"]},
      "tags": {
        "amenity": "post_office",
        "brand": "GLS",
        "brand:wikidata": "Q366182",
        "brand:wikipedia": "en:GLS Group",
        "name": "GLS",
        "operator": "GLS",
        "operator:wikidata": "Q366182",
        "operator:wikipedia": "en:GLS Group"
      }
    },
    {
      "displayName": "Hermes Paketshop",
      "id": "hermespaketshop-8c0db3",
      "locationSet": {"include": ["de"]},
      "matchNames": ["hermes"],
      "tags": {
        "amenity": "post_office",
        "brand": "Hermes Paketshop",
        "brand:wikidata": "Q1613532",
        "brand:wikipedia": "en:Hermes Group",
        "name": "Hermes Paketshop",
        "operator": "Hermes Paketshop",
        "operator:wikidata": "Q1613532",
        "operator:wikipedia": "en:Hermes Group"
      }
    },
    {
      "displayName": "India Post",
      "id": "indiapost-45da12",
      "locationSet": {"include": ["in"]},
      "tags": {
        "amenity": "post_office",
        "brand": "India Post",
        "brand:wikidata": "Q3519720",
        "brand:wikipedia": "en:India Post",
        "name": "India Post",
        "operator": "India Post",
        "operator:wikidata": "Q3519720",
        "operator:wikipedia": "en:India Post"
      }
    },
    {
      "displayName": "J&T Express",
      "id": "jandtexpress-b78fda",
      "locationSet": {
        "include": ["id", "my", "ph"]
      },
      "tags": {
        "amenity": "post_office",
        "brand": "J&T Express",
        "brand:wikidata": "Q95690344",
        "brand:wikipedia": "id:J&T Express",
        "name": "J&T Express",
        "operator": "J&T Express",
        "operator:wikidata": "Q95690344",
        "operator:wikipedia": "id:J&T Express"
      }
    },
    {
      "displayName": "La Poste",
      "id": "laposte-91a3cc",
      "locationSet": {"include": ["001"]},
      "tags": {
        "amenity": "post_office",
        "brand": "La Poste",
        "brand:wikidata": "Q373724",
        "brand:wikipedia": "fr:La Poste (entreprise française)",
        "name": "La Poste",
        "operator": "La Poste",
        "operator:wikidata": "Q373724",
        "operator:wikipedia": "fr:La Poste (entreprise française)"
      }
    },
    {
      "displayName": "LBC",
      "id": "lbc-7e1eed",
      "locationSet": {"include": ["ph"]},
      "matchNames": ["lbc express"],
      "tags": {
        "amenity": "post_office",
        "brand": "LBC",
        "brand:wikidata": "Q17075584",
        "brand:wikipedia": "en:LBC Express",
        "name": "LBC",
        "operator": "LBC",
        "operator:wikidata": "Q17075584",
        "operator:wikipedia": "en:LBC Express"
      }
    },
    {
      "displayName": "Magyar Posta",
      "id": "magyarposta-91a3cc",
      "locationSet": {"include": ["001"]},
      "tags": {
        "amenity": "post_office",
        "brand": "Magyar Posta",
        "name": "Magyar Posta",
        "operator": "Magyar Posta"
      }
    },
    {
      "displayName": "Mail Boxes Etc.",
      "id": "mailboxesetc-91a3cc",
      "locationSet": {"include": ["001"]},
      "tags": {
        "amenity": "post_office",
        "brand": "Mail Boxes Etc.",
        "brand:wikidata": "Q1139182",
        "brand:wikipedia": "en:Mail Boxes Etc.",
        "name": "Mail Boxes Etc.",
        "operator": "Mail Boxes Etc.",
        "operator:wikidata": "Q1139182",
        "operator:wikipedia": "en:Mail Boxes Etc."
      }
    },
    {
      "displayName": "MRW",
      "id": "mrw-0a445b",
      "locationSet": {
        "include": ["ad", "es", "gi", "pt", "ve"]
      },
      "tags": {
        "amenity": "post_office",
        "brand": "MRW",
        "brand:wikidata": "Q23767821",
        "brand:wikipedia": "es:MRW",
        "name": "MRW",
        "operator": "MRW",
        "operator:wikidata": "Q23767821",
        "operator:wikipedia": "es:MRW"
      }
    },
    {
      "displayName": "OCA",
      "id": "oca-debce4",
      "locationSet": {"include": ["ar"]},
      "tags": {
        "amenity": "post_office",
        "brand": "OCA",
        "brand:wikidata": "Q5172887",
        "brand:wikipedia": "es:Correo OCA",
        "name": "OCA",
        "operator": "OCA",
        "operator:wikidata": "Q5172887",
        "operator:wikipedia": "es:Correo OCA"
      }
    },
    {
      "displayName": "Paczkomat",
      "id": "paczkomat-91a3cc",
      "locationSet": {"include": ["001"]},
      "tags": {
        "amenity": "post_office",
        "name": "Paczkomat",
        "operator": "Paczkomat"
      }
    },
    {
      "displayName": "PHLPost",
      "id": "phlpost-7e1eed",
      "locationSet": {"include": ["ph"]},
      "matchNames": ["phl"],
      "tags": {
        "amenity": "post_office",
        "brand": "PHLPost",
        "brand:wikidata": "Q1406037",
        "brand:wikipedia": "en:Philippine Postal Corporation",
        "name": "PHLPost",
        "official_name": "Philippine Postal Corporation",
        "operator": "PHLPost",
        "operator:wikidata": "Q1406037",
        "operator:wikipedia": "en:Philippine Postal Corporation"
      }
    },
    {
      "displayName": "Poczta",
      "id": "poczta-91a3cc",
      "locationSet": {"include": ["001"]},
      "tags": {
        "amenity": "post_office",
        "name": "Poczta",
        "operator": "Poczta"
      }
    },
    {
      "displayName": "Poczta Polska",
      "id": "pocztapolska-504b8a",
      "locationSet": {"include": ["pl"]},
      "tags": {
        "amenity": "post_office",
        "brand": "Poczta Polska",
        "brand:wikidata": "Q168833",
        "brand:wikipedia": "pl:Poczta Polska",
        "name": "Poczta Polska",
        "operator": "Poczta Polska",
        "operator:wikidata": "Q168833",
        "operator:wikipedia": "pl:Poczta Polska"
      }
    },
    {
      "displayName": "Pos Indonesia",
      "id": "kantorpos-ab1265",
      "locationSet": {"include": ["id"]},
      "tags": {
        "amenity": "post_office",
        "brand": "Pos Indonesia",
        "brand:wikidata": "Q4273095",
        "brand:wikipedia": "id:Pos Indonesia",
        "name": "Kantor Pos",
        "operator": "Pos Indonesia",
        "operator:wikidata": "Q4273095",
        "operator:wikipedia": "id:Pos Indonesia"
      }
    },
    {
      "displayName": "Pos Malaysia",
      "id": "posmalaysia-1e070a",
      "locationSet": {"include": ["my"]},
      "tags": {
        "amenity": "post_office",
        "brand": "Pos Malaysia",
        "brand:wikidata": "Q6112623",
        "brand:wikipedia": "en:Pos Malaysia",
        "name": "Pos Malaysia",
        "operator": "Pos Malaysia",
        "operator:wikidata": "Q6112623",
        "operator:wikipedia": "en:Pos Malaysia"
      }
    },
    {
      "displayName": "Post Office (UK)",
      "id": "postoffice-2ecbba",
      "locationSet": {"include": ["gb"]},
      "tags": {
        "amenity": "post_office",
        "brand": "Post Office",
        "brand:wikidata": "Q1783168",
        "brand:wikipedia": "en:Post Office Ltd",
        "operator": "Post Office",
        "operator:wikidata": "Q1783168",
        "operator:wikipedia": "en:Post Office Ltd"
      }
    },
    {
      "displayName": "PostalAnnex",
      "id": "postalannex-c1ddbe",
      "locationSet": {"include": ["us"]},
      "matchTags": ["shop/post_office"],
      "tags": {
        "amenity": "post_office",
        "brand": "PostalAnnex",
        "brand:wikidata": "Q61960357",
        "name": "PostalAnnex",
        "operator": "PostalAnnex",
        "operator:wikidata": "Q61960357"
      }
    },
    {
      "displayName": "Postbank Finanzcenter",
      "id": "postbankfinanzcenter-8c0db3",
      "locationSet": {"include": ["de"]},
      "tags": {
        "amenity": "post_office",
        "brand": "Postbank Finanzcenter",
        "brand:wikidata": "Q708835",
        "brand:wikipedia": "de:Postbank",
        "name": "Postbank Finanzcenter",
        "operator": "Postbank Finanzcenter",
        "operator:wikidata": "Q708835",
        "operator:wikipedia": "de:Postbank"
      }
    },
    {
      "displayName": "Poste Italiane",
      "id": "posteitaliane-b5464b",
      "locationSet": {"include": ["it"]},
      "tags": {
        "amenity": "post_office",
        "brand": "Poste Italiane",
        "brand:wikidata": "Q495026",
        "brand:wikipedia": "en:Poste italiane",
        "name": "Poste Italiane",
        "operator": "Poste Italiane",
        "operator:wikidata": "Q495026",
        "operator:wikipedia": "en:Poste italiane"
      }
    },
    {
      "displayName": "Posten",
      "id": "posten-91a3cc",
      "locationSet": {"include": ["001"]},
      "tags": {
        "amenity": "post_office",
        "brand": "Posten",
        "name": "Posten",
        "operator": "Posten"
      }
    },
    {
      "displayName": "Posti",
      "id": "posti-7504a1",
      "locationSet": {"include": ["fi"]},
      "tags": {
        "amenity": "post_office",
        "brand": "Posti",
        "brand:wikidata": "Q843453",
        "brand:wikipedia": "fi:Posti Group",
        "name": "Posti",
        "operator": "Posti",
        "operator:wikidata": "Q843453",
        "operator:wikipedia": "fi:Posti Group"
      }
    },
    {
      "displayName": "PTT",
      "id": "ptt-56f07f",
      "locationSet": {"include": ["tr"]},
      "tags": {
        "amenity": "post_office",
        "brand": "PTT",
        "brand:wikidata": "Q3079259",
        "brand:wikipedia": "tr:PTT",
        "name": "PTT",
        "operator": "PTT",
        "operator:wikidata": "Q3079259",
        "operator:wikipedia": "tr:PTT"
      }
    },
    {
      "displayName": "Serpost",
      "id": "serpost-41842d",
      "locationSet": {"include": ["pe"]},
      "matchNames": [
        "servicios postales del perú"
      ],
      "matchTags": ["shop/post_office"],
      "tags": {
        "amenity": "post_office",
        "brand": "Serpost",
        "brand:wikidata": "Q19521863",
        "brand:wikipedia": "es:Servicios Postales del Perú",
        "name": "Serpost",
        "operator": "Serpost",
        "operator:wikidata": "Q19521863",
        "operator:wikipedia": "es:Servicios Postales del Perú"
      }
    },
    {
      "displayName": "Servientrega",
      "id": "servientrega-754eb3",
      "locationSet": {"include": ["co"]},
      "tags": {
        "amenity": "post_office",
        "brand": "Servientrega",
        "brand:wikidata": "Q96094519",
        "name": "Servientrega",
        "operator": "Servientrega",
        "operator:wikidata": "Q96094519"
      }
    },
    {
      "displayName": "Slovenská pošta",
      "id": "slovenskaposta-e92a45",
      "locationSet": {"include": ["sk"]},
      "tags": {
        "amenity": "post_office",
        "brand": "Slovenská pošta",
        "brand:wikidata": "Q1191849",
        "brand:wikipedia": "en:Slovenská pošta",
        "name": "Slovenská pošta",
        "operator": "Slovenská pošta",
        "operator:wikidata": "Q1191849",
        "operator:wikipedia": "en:Slovenská pošta"
      }
    },
    {
      "displayName": "TCC",
      "id": "tcc-754eb3",
      "locationSet": {"include": ["co"]},
      "tags": {
        "amenity": "post_office",
        "brand": "TCC",
        "brand:wikidata": "Q27968821",
        "brand:wikipedia": "es:TCC (Colombia)",
        "name": "TCC",
        "old_name": "Transcomerco",
        "operator": "TCC",
        "operator:wikidata": "Q27968821",
        "operator:wikipedia": "es:TCC (Colombia)",
        "short_name": "TCC"
      }
    },
    {
      "displayName": "The UPS Store",
      "id": "theupsstore-2da3fc",
      "locationSet": {"include": ["ca", "us"]},
      "matchNames": ["ups store"],
      "matchTags": ["shop/copyshop"],
      "tags": {
        "amenity": "post_office",
        "brand": "The UPS Store",
        "brand:wikidata": "Q7771029",
        "brand:wikipedia": "en:The UPS Store",
        "name": "The UPS Store",
        "operator": "The UPS Store",
        "operator:wikidata": "Q7771029",
        "operator:wikipedia": "en:The UPS Store",
        "short_name": "UPS"
      }
    },
    {
      "displayName": "United States Post Office",
      "id": "unitedstatespostoffice-c1ddbe",
      "locationSet": {"include": ["us"]},
      "matchNames": [
        "united states postal service",
        "us post office",
        "us postal service",
        "usps",
        "usps post office"
      ],
      "tags": {
        "amenity": "post_office",
        "brand": "United States Post Office",
        "brand:wikidata": "Q668687",
        "brand:wikipedia": "en:United States Postal Service",
        "name": "United States Post Office",
        "operator": "United States Post Office",
        "operator:wikidata": "Q668687",
        "operator:wikipedia": "en:United States Postal Service"
      }
    },
    {
      "displayName": "Zoom",
      "id": "zoom-de64fe",
      "locationSet": {"include": ["ve"]},
      "tags": {
        "amenity": "post_office",
        "brand": "Zoom",
        "name": "Zoom",
        "operator": "Zoom"
      }
    },
    {
      "displayName": "ΕΛΤΑ",
      "id": "0cc961-f0c950",
      "locationSet": {"include": ["gr"]},
      "tags": {
        "amenity": "post_office",
        "brand": "ΕΛΤΑ",
        "brand:wikidata": "Q1275135",
        "brand:wikipedia": "el:Ελληνικά Ταχυδρομεία",
        "name": "ΕΛΤΑ",
        "operator": "ΕΛΤΑ",
        "operator:wikidata": "Q1275135",
        "operator:wikipedia": "el:Ελληνικά Ταχυδρομεία"
      }
    },
    {
      "displayName": "Белпошта",
      "id": "belposhta-4d7a9f",
      "locationSet": {"include": ["by"]},
      "tags": {
        "amenity": "post_office",
        "brand": "Белпошта",
        "brand:be": "Белпошта",
        "brand:en": "Belposhta",
        "brand:ru": "Белпочта",
        "brand:wikidata": "Q2662336",
        "brand:wikipedia": "be:Белпошта",
        "name": "Белпошта",
        "name:be": "Белпошта",
        "name:en": "Belposhta",
        "name:ru": "Белпочта",
        "operator": "Белпошта",
        "operator:wikidata": "Q2662336",
        "operator:wikipedia": "be:Белпошта"
      }
    },
    {
      "displayName": "Български пощи",
      "id": "6d0749-03f0fb",
      "locationSet": {"include": ["bg"]},
      "tags": {
        "amenity": "post_office",
        "brand": "Български пощи",
        "brand:wikidata": "Q2880826",
        "brand:wikipedia": "bg:Български пощи",
        "name": "Български пощи",
        "operator": "Български пощи",
        "operator:wikidata": "Q2880826",
        "operator:wikipedia": "bg:Български пощи"
      }
    },
    {
      "displayName": "Еконт",
      "id": "4f7c8b-03f0fb",
      "locationSet": {"include": ["bg"]},
      "tags": {
        "amenity": "post_office",
        "brand": "Еконт",
        "brand:wikidata": "Q2880826",
        "brand:wikipedia": "bg:Еконт Експрес",
        "name": "Еконт",
        "operator": "Еконт",
        "operator:wikidata": "Q2880826",
        "operator:wikipedia": "bg:Еконт Експрес"
      }
    },
    {
      "displayName": "Казпочта",
      "id": "c12bb7-58ab80",
      "locationSet": {"include": ["kz"]},
      "tags": {
        "amenity": "post_office",
        "brand": "Казпочта",
        "brand:wikidata": "Q746263",
        "brand:wikipedia": "ru:Казпочта",
        "name": "Казпочта",
        "operator": "Казпочта",
        "operator:wikidata": "Q746263",
        "operator:wikipedia": "ru:Казпочта"
      }
    },
    {
      "displayName": "Нова Пошта",
      "id": "530f2c-970b0c",
      "locationSet": {"include": ["ua"]},
      "matchNames": [
        "нова пошта №1",
        "нова пошта №2",
        "нова пошта №3",
        "нова пошта №4",
        "нова пошта, відділення №1"
      ],
      "tags": {
        "amenity": "post_office",
        "brand": "Нова Пошта",
        "brand:wikidata": "Q12133863",
        "brand:wikipedia": "uk:Нова пошта",
        "operator": "Нова Пошта",
        "operator:wikidata": "Q12133863",
        "operator:wikipedia": "uk:Нова пошта"
      }
    },
    {
      "displayName": "Почта",
      "id": "fcb774-91a3cc",
      "locationSet": {"include": ["001"]},
      "tags": {
        "amenity": "post_office",
        "name": "Почта",
        "operator": "Почта"
      }
    },
    {
      "displayName": "Почта России",
      "id": "8e5a76-5789f0",
      "locationSet": {"include": ["ru"]},
      "tags": {
        "amenity": "post_office",
        "brand": "Почта России",
        "brand:wikidata": "Q1502763",
        "brand:wikipedia": "ru:Почта России",
        "name": "Почта России",
        "operator": "Почта России",
        "operator:wikidata": "Q1502763",
        "operator:wikipedia": "ru:Почта России"
      }
    },
    {
      "displayName": "Почтовое отделение",
      "id": "74f58e-91a3cc",
      "locationSet": {"include": ["001"]},
      "tags": {
        "amenity": "post_office",
        "name": "Почтовое отделение",
        "operator": "Почтовое отделение"
      }
    },
    {
      "displayName": "Пошта",
      "id": "fb9c35-91a3cc",
      "locationSet": {"include": ["001"]},
      "tags": {
        "amenity": "post_office",
        "name": "Пошта",
        "operator": "Пошта"
      }
    },
    {
      "displayName": "Поща",
      "id": "865a6d-91a3cc",
      "locationSet": {"include": ["001"]},
      "tags": {
        "amenity": "post_office",
        "name": "Поща",
        "operator": "Поща"
      }
    },
    {
      "displayName": "СДЭК",
      "id": "5ac048-5789f0",
      "locationSet": {"include": ["ru"]},
      "tags": {
        "amenity": "post_office",
        "brand": "СДЭК",
        "brand:wikidata": "Q28665980",
        "brand:wikipedia": "ru:СДЭК",
        "name": "СДЭК",
        "operator": "СДЭК",
        "operator:wikidata": "Q28665980",
        "operator:wikipedia": "ru:СДЭК"
      }
    },
    {
      "displayName": "Укрпошта",
      "id": "c8edb5-970b0c",
      "locationSet": {"include": ["ua"]},
      "tags": {
        "amenity": "post_office",
        "brand": "Укрпошта",
        "brand:wikidata": "Q2470783",
        "brand:wikipedia": "en:Ukrposhta",
        "name": "Укрпошта",
        "operator": "Укрпошта",
        "operator:wikidata": "Q2470783",
        "operator:wikipedia": "en:Ukrposhta"
      }
    },
    {
      "displayName": "اداره پست",
      "id": "6fb513-91a3cc",
      "locationSet": {"include": ["001"]},
      "tags": {
        "amenity": "post_office",
        "name": "اداره پست",
        "operator": "اداره پست"
      }
    },
    {
      "displayName": "بريد الجزائر",
      "id": "02ffba-e99ec0",
      "locationSet": {"include": ["dz"]},
      "tags": {
        "amenity": "post_office",
        "brand": "بريد الجزائر",
        "brand:wikidata": "Q2836029",
        "brand:wikipedia": "fr:Algérie Poste",
        "name": "بريد الجزائر",
        "operator": "بريد الجزائر",
        "operator:wikidata": "Q2836029",
        "operator:wikipedia": "fr:Algérie Poste"
      }
    },
    {
      "displayName": "ヤマト運輸",
      "id": "yamatotransport-0af292",
      "locationSet": {"include": ["jp"]},
      "tags": {
        "amenity": "post_office",
        "brand": "ヤマト運輸",
        "brand:en": "Yamato Transport",
        "brand:ja": "ヤマト運輸",
        "brand:wikidata": "Q6584353",
        "brand:wikipedia": "ja:ヤマト運輸",
        "name": "ヤマト運輸",
        "name:en": "Yamato Transport",
        "name:ja": "ヤマト運輸",
        "operator": "ヤマト運輸",
        "operator:ja": "ヤマト運輸",
        "operator:wikidata": "Q6584353",
        "operator:wikipedia": "ja:ヤマト運輸"
      }
    },
    {
      "displayName": "中国邮政",
      "id": "chinapost-1c81b5",
      "locationSet": {"include": ["cn"]},
      "tags": {
        "amenity": "post_office",
        "brand": "中国邮政",
        "brand:en": "China Post",
        "brand:wikidata": "Q1066476",
        "brand:wikipedia": "en:China Post",
        "name": "中国邮政",
        "name:en": "China Post",
        "operator": "中国邮政",
        "operator:wikidata": "Q1066476",
        "operator:wikipedia": "en:China Post"
      }
    },
    {
      "displayName": "佐川急便",
      "id": "sagawaexpress-0af292",
      "locationSet": {"include": ["jp"]},
      "tags": {
        "amenity": "post_office",
        "brand": "佐川急便",
        "brand:en": "Sagawa Express",
        "brand:ja": "佐川急便",
        "brand:wikidata": "Q7399082",
        "brand:wikipedia": "ja:佐川急便",
        "name": "佐川急便",
        "name:en": "Sagawa Express",
        "name:ja": "佐川急便",
        "operator": "佐川急便",
        "operator:wikidata": "Q7399082",
        "operator:wikipedia": "ja:佐川急便"
      }
    },
    {
      "displayName": "日本郵便",
      "id": "japanpost-0af292",
      "locationSet": {"include": ["jp"]},
      "tags": {
        "amenity": "post_office",
        "brand": "日本郵便",
        "brand:en": "Japan Post",
        "brand:ja": "日本郵便",
        "brand:wikidata": "Q11509260",
        "brand:wikipedia": "ja:日本郵便",
        "name": "日本郵便",
        "name:en": "Japan Post",
        "name:ja": "日本郵便",
        "operator": "日本郵便",
        "operator:wikidata": "Q11509260",
        "operator:wikipedia": "ja:日本郵便",
        "short_name:en": "JP"
      }
    },
    {
      "displayName": "郵局",
      "id": "bd962d-91a3cc",
      "locationSet": {"include": ["001"]},
      "tags": {
        "amenity": "post_office",
        "name": "郵局",
        "operator": "郵局"
      }
    }
  ]
}