{
  "properties": {
    "path": "operators/amenity/prison",
    "preserveTags": ["^name"],
    "exclude": {
      "generic": ["^(government|prison)$"]
    }
  },
  "items": [
    {
      "displayName": "Alabama Department of Corrections",
      "locationSet": {"include": ["us-al.geojson"]},
      "matchNames": ["adoc"],
      "tags": {
        "amenity": "prison",
        "operator": "Alabama Department of Corrections",
        "operator:wikidata": "Q4705244",
        "operator:wikipedia": "en:Alabama Department of Corrections"
      }
    },
    {
      "displayName": "Arkansas Department of Corrections",
      "locationSet": {"include": ["us-ar.geojson"]},
      "matchNames": ["adc","arkansas department of correction"],
      "tags": {
        "amenity": "prison",
        "operator": "Arkansas Department of Corrections",
        "operator:wikidata": "Q4791765",
        "operator:wikipedia": "en:Arkansas Department of Corrections"
      }
    },
    {
      "displayName": "Bermuda Department of Corrections",
      "id": "bermudadepartmentofcorrections-345f67",
      "locationSet": {"include": ["bm"]},
      "tags": {
        "amenity": "prison",
        "operator": "Bermuda Department of Corrections",
        "operator:type": "government",
        "operator:wikidata": "Q21015731",
        "operator:wikipedia": "en:Bermuda Department of Corrections"
      }
    },
    {
      "displayName": "Bureau of Jail Management and Penology",
      "locationSet": {"include": ["ph"]},
      "tags": {
        "amenity": "prison",
        "operator": "Bureau of Jail Management and Penology",
        "operator:wikidata": "Q17027213",
        "operator:wikipedia": "en:Bureau of Jail Management and Penology"
      }
    },
    {
      "displayName": "California Department of Corrections and Rehabilitation",
      "locationSet": {"include": ["us-ca.geojson"]},
      "matchNames": ["cdcr"],
      "tags": {
        "amenity": "prison",
        "operator": "California Department of Corrections and Rehabilitation",
        "operator:wikidata": "Q5020415",
        "operator:wikipedia": "en:California Department of Corrections and Rehabilitation"
      }
    },
    {
      "displayName": "CoreCivic",
      "locationSet": {"include": ["us"]},
      "matchNames": ["cca","corrections corporation of america"],
      "tags": {
        "amenity": "prison",
        "operator": "CoreCivic",
        "operator:wikidata": "Q1135278",
        "operator:wikipedia": "en:CoreCivic",
      }
    },
    {
      "displayName": "Departamento de Administração Prisional",
      "id": "departamentodeadministracaoprisional-3a7478",
      "locationSet": {"include": ["001"]},
      "tags": {
        "amenity": "prison",
        "operator": "Departamento de Administração Prisional"
      }
    },
    {
      "displayName": "Department of Corrections",
      "id": "departmentofcorrections-3a7478",
      "locationSet": {"include": ["001"]},
      "tags": {
        "amenity": "prison",
        "operator": "Department of Corrections"
      }
    },
    {
      "displayName": "Federal Bureau of Prisons",
      "locationSet": {"include": ["us"]},
      "matchNames": ["bop","fbop"],
      "tags": {
        "amenity": "prison",
        "operator": "Federal Bureau of Prisons",
        "operator:wikidata": "Q1400015",
        "operator:wikipedia": "en:Federal Bureau of Prisons"
      }
    },
    {
      "displayName": "Florida Department of Corrections",
      "locationSet": {"include": ["us-fl.geojson"]},
      "tags": {
        "amenity": "prison",
        "operator": "Florida Department of Corrections",
        "operator:wikidata": "Q5461316",
        "operator:wikipedia": "en:Florida Department of Corrections"
      }
    },
    {
      "displayName": "Georgia Department of Corrections",
      "id": "georgiadepartmentofcorrections-3a7478",
      "locationSet": {"include": ["001"]},
      "tags": {
        "amenity": "prison",
        "operator": "Georgia Department of Corrections"
      }
    },
    {
      "displayName": "Her Majesty's Prison Service",
      "id": "hermajestysprisonservice-900d21",
      "locationSet": {
        "include": ["gb-eng", "gb-wls"]
      },
      "matchNames": ["hmps"],
      "tags": {
        "amenity": "prison",
        "operator": "Her Majesty's Prison Service",
        "operator:type": "government",
        "operator:wikidata": "Q1607722",
        "operator:wikipedia": "en:Her Majesty's Prison Service"
      }
    },
    {
      "displayName": "Illinois Department of Corrections",
      "id": "illinoisdepartmentofcorrections-3a7478",
      "locationSet": {"include": ["001"]},
      "tags": {
        "amenity": "prison",
        "operator": "Illinois Department of Corrections"
      }
    },
    {
      "displayName": "Indiana Department of Correction",
      "id": "indianadepartmentofcorrection-3a7478",
      "locationSet": {"include": ["001"]},
      "tags": {
        "amenity": "prison",
        "operator": "Indiana Department of Correction"
      }
    },
    {
      "displayName": "INPE",
      "id": "inpe-3a7478",
      "locationSet": {"include": ["001"]},
      "tags": {
        "amenity": "prison",
        "operator": "INPE"
      }
    },
    {
      "displayName": "Instituto Nacional Penitenciario",
      "id": "institutonacionalpenitenciario-3a7478",
      "locationSet": {"include": ["001"]},
      "tags": {
        "amenity": "prison",
        "operator": "Instituto Nacional Penitenciario"
      }
    },
    {
      "displayName": "Irish Prison Service",
      "id": "irishprisonservice-324cac",
      "locationSet": {"include": ["ie"]},
      "matchNames": ["ips"],
      "tags": {
        "amenity": "prison",
        "operator": "Irish Prison Service",
        "operator:type": "government",
        "operator:wikidata": "Q6071108",
        "operator:wikipedia": "en:Irish Prison Service"
      }
    },
    {
      "displayName": "Kentucky Department of Corrections",
      "id": "kentuckydepartmentofcorrections-3a7478",
      "locationSet": {"include": ["001"]},
      "tags": {
        "amenity": "prison",
        "operator": "Kentucky Department of Corrections"
      }
    },
    {
      "displayName": "Kriminalvården",
      "id": "kriminalvarden-3a7478",
      "locationSet": {"include": ["001"]},
      "tags": {
        "amenity": "prison",
        "operator": "Kriminalvården"
      }
    },
    {
      "displayName": "MJP",
      "id": "mjp-3a7478",
      "locationSet": {"include": ["001"]},
      "tags": {
        "amenity": "prison",
        "operator": "MJP"
      }
    },
    {
      "displayName": "Northern Ireland Prison Service",
      "id": "northernirelandprisonservice-b47d33",
      "locationSet": {"include": ["gb-nir"]},
      "matchNames": ["nips"],
      "tags": {
        "amenity": "prison",
        "operator": "Northern Ireland Prison Service",
        "operator:type": "government",
        "operator:wikidata": "Q3015291",
        "operator:wikipedia": "en:Northern Ireland Prison Service"
      }
    },
    {
      "displayName": "Ohio Department of Rehabilitation and Correction",
      "id": "ohiodepartmentofrehabilitationandcorrection-3a7478",
      "locationSet": {"include": ["001"]},
      "tags": {
        "amenity": "prison",
        "operator": "Ohio Department of Rehabilitation and Correction"
      }
    },
    {
      "displayName": "Pennsylvania Department of Corrections",
      "id": "pennsylvaniadepartmentofcorrections-3a7478",
      "locationSet": {"include": ["001"]},
      "tags": {
        "amenity": "prison",
        "operator": "Pennsylvania Department of Corrections"
      }
    },
    {
      "displayName": "Scottish Prison Service",
      "id": "scottishprisonservice-7a6ad4",
      "locationSet": {"include": ["gb-sct"]},
      "matchNames": ["sps"],
      "tags": {
        "amenity": "prison",
        "operator": "Scottish Prison Service",
        "operator:type": "government",
        "operator:wikidata": "Q7437912",
        "operator:wikipedia": "en:Scottish Prison Service"
      }
    },
    {
      "displayName": "Secretaria da Administração Penitenciária - Coordenadoria da Região Oeste do Estado",
      "id": "secretariadaadministracaopenitenciariacoordenadoriadaregiaooestedoestado-3a7478",
      "locationSet": {"include": ["001"]},
      "tags": {
        "amenity": "prison",
        "operator": "Secretaria da Administração Penitenciária - Coordenadoria da Região Oeste do Estado"
      }
    },
    {
      "displayName": "Secretaria da Segurança Pública do Estado de São Paulo",
      "id": "secretariadasegurancapublicadoestadodesaopaulo-3a7478",
      "locationSet": {"include": ["001"]},
      "tags": {
        "amenity": "prison",
        "operator": "Secretaria da Segurança Pública do Estado de São Paulo"
      }
    },
    {
      "displayName": "Tennessee Department of Correction",
      "id": "tennesseedepartmentofcorrection-3a7478",
      "locationSet": {"include": ["001"]},
      "tags": {
        "amenity": "prison",
        "operator": "Tennessee Department of Correction"
      }
    },
    {
      "displayName": "Texas Department of Criminal Justice",
      "id": "texasdepartmentofcriminaljustice-3a7478",
      "locationSet": {"include": ["001"]},
      "tags": {
        "amenity": "prison",
        "operator": "Texas Department of Criminal Justice"
      }
    },
    {
      "displayName": "Texas Department of Criminal Justice Correctional Institutions Division",
      "id": "texasdepartmentofcriminaljusticecorrectionalinstitutionsdivision-3a7478",
      "locationSet": {"include": ["001"]},
      "tags": {
        "amenity": "prison",
        "operator": "Texas Department of Criminal Justice Correctional Institutions Division"
      }
    },
    {
      "displayName": "Virginia Department of Corrections",
      "id": "virginiadepartmentofcorrections-3a7478",
      "locationSet": {"include": ["001"]},
      "tags": {
        "amenity": "prison",
        "operator": "Virginia Department of Corrections"
      }
    },
    {
      "displayName": "Wisconsin Department of Corrections",
      "id": "wisconsindepartmentofcorrections-3a7478",
      "locationSet": {"include": ["001"]},
      "tags": {
        "amenity": "prison",
        "operator": "Wisconsin Department of Corrections"
      }
    },
    {
      "displayName": "ГУФСИН России по Свердловской области",
      "id": "3ae78b-3a7478",
      "locationSet": {"include": ["001"]},
      "tags": {
        "amenity": "prison",
        "operator": "ГУФСИН России по Свердловской области"
      }
    },
    {
      "displayName": "УФСИН по Тюменской области",
      "id": "51f30f-3a7478",
      "locationSet": {"include": ["001"]},
      "tags": {
        "amenity": "prison",
        "operator": "УФСИН по Тюменской области"
      }
    },
    {
      "displayName": "УФСИН России по Московской области",
      "id": "2c0ae1-3a7478",
      "locationSet": {"include": ["001"]},
      "tags": {
        "amenity": "prison",
        "operator": "УФСИН России по Московской области"
      }
    },
    {
      "displayName": "УФСИН России по Республике Мордовия",
      "id": "347787-3a7478",
      "locationSet": {"include": ["001"]},
      "tags": {
        "amenity": "prison",
        "operator": "УФСИН России по Республике Мордовия"
      }
    },
    {
      "displayName": "УФСИН России по Удмуртской Республике",
      "id": "ac7222-3a7478",
      "locationSet": {"include": ["001"]},
      "tags": {
        "amenity": "prison",
        "operator": "УФСИН России по Удмуртской Республике"
      }
    },
    {
      "displayName": "江西省监狱管理局",
      "id": "90ca3a-3a7478",
      "locationSet": {"include": ["001"]},
      "tags": {
        "amenity": "prison",
        "operator": "江西省监狱管理局"
      }
    }
  ]
}
