{
  "properties": {
    "path": "operators/amenity/pub",
    "preserveTags": ["^name"],
    "exclude": {"generic": ["^pub$"]}
  },
  "items": [
    {
      "displayName": "Arkell's",
      "id": "arkells-411056",
      "locationSet": {"include": ["001"]},
      "tags": {
        "amenity": "pub",
        "operator": "Arkell's"
      }
    },
    {
      "displayName": "Banks's",
      "id": "bankss-411056",
      "locationSet": {"include": ["001"]},
      "tags": {
        "amenity": "pub",
        "operator": "Banks's"
      }
    },
    {
      "displayName": "Batemans",
      "id": "batemans-411056",
      "locationSet": {"include": ["001"]},
      "tags": {
        "amenity": "pub",
        "operator": "Batemans"
      }
    },
    {
      "displayName": "Brains",
      "id": "brains-411056",
      "locationSet": {"include": ["001"]},
      "tags": {
        "amenity": "pub",
        "operator": "Brains"
      }
    },
    {
      "displayName": "Electric Star Pubs",
      "id": "electricstarpubs-3ca9fb",
      "locationSet": {
        "include": ["gb-lon.geojson"]
      },
      "tags": {
        "amenity": "pub",
        "operator": "Electric Star Pubs",
        "operator:wikidata": "Q115322959"
      }
    },
    {
      "displayName": "Enterprise Inns",
      "id": "enterpriseinns-411056",
      "locationSet": {"include": ["001"]},
      "tags": {
        "amenity": "pub",
        "operator": "Enterprise Inns"
      }
    },
    {
      "displayName": "Free House",
      "id": "freehouse-411056",
      "locationSet": {"include": ["001"]},
      "tags": {
        "amenity": "pub",
        "operator": "Free House"
      }
    },
    {
      "displayName": "Independant",
      "id": "independant-411056",
      "locationSet": {"include": ["001"]},
      "tags": {
        "amenity": "pub",
        "operator": "Independant"
      }
    },
    {
      "displayName": "Joseph Holt",
      "id": "josephholt-411056",
      "locationSet": {"include": ["001"]},
      "tags": {
        "amenity": "pub",
        "operator": "Joseph Holt"
      }
    },
    {
      "displayName": "Louis Fitzgerald Group",
      "id": "louisfitzgeraldgroup-411056",
      "locationSet": {"include": ["001"]},
      "tags": {
        "amenity": "pub",
        "operator": "Louis Fitzgerald Group"
      }
    },
    {
      "displayName": "Mitchells & Butlers",
      "id": "mitchellsandbutlers-411056",
      "locationSet": {"include": ["001"]},
      "tags": {
        "amenity": "pub",
        "operator": "Mitchells & Butlers"
      }
    },
    {
      "displayName": "Mitchells & Butlers plc",
      "id": "mitchellsandbutlersplc-411056",
      "locationSet": {"include": ["001"]},
      "tags": {
        "amenity": "pub",
        "operator": "Mitchells & Butlers plc"
      }
    },
    {
      "displayName": "NaturFreunde Deutschland",
      "id": "naturfreundedeutschland-411056",
      "locationSet": {"include": ["001"]},
      "tags": {
        "amenity": "pub",
        "operator": "NaturFreunde Deutschland"
      }
    },
    {
      "displayName": "Pub People",
      "id": "pubpeople-411056",
      "locationSet": {"include": ["001"]},
      "tags": {
        "amenity": "pub",
        "operator": "Pub People"
      }
    },
    {
      "displayName": "Punch Taverns",
      "id": "punchtaverns-411056",
      "locationSet": {"include": ["001"]},
      "tags": {
        "amenity": "pub",
        "operator": "Punch Taverns"
      }
    },
    {
      "displayName": "Remarkable Pubs",
      "id": "remarkablepubs-3ca9fb",
      "locationSet": {
        "include": ["gb-lon.geojson"]
      },
      "tags": {
        "amenity": "pub",
        "operator": "Remarkable Pubs",
        "operator:wikidata": "Q121462737"
      }
    },
    {
      "displayName": "Samuel Smith's",
      "id": "samuelsmiths-411056",
      "locationSet": {"include": ["001"]},
      "tags": {
        "amenity": "pub",
        "operator": "Samuel Smith's"
      }
    },
    {
      "displayName": "Samuel Smith's Brewery",
      "id": "samuelsmithsbrewery-411056",
      "locationSet": {"include": ["001"]},
      "tags": {
        "amenity": "pub",
        "operator": "Samuel Smith's Brewery"
      }
    },
    {
      "displayName": "Stonegate",
      "id": "stonegate-c5d2b3",
      "locationSet": {"include": ["gb"]},
      "matchNames": [
        "stonegate group",
        "stonegate pub company"
      ],
      "tags": {
        "amenity": "pub",
        "operator": "Stonegate",
        "operator:wikidata": "Q7619176"
      }
    },
    {
      "displayName": "Wadworth",
      "id": "wadworth-411056",
      "locationSet": {"include": ["001"]},
      "tags": {
        "amenity": "pub",
        "operator": "Wadworth"
      }
    },
    {
      "displayName": "Young & Co",
      "id": "youngandco-411056",
      "locationSet": {"include": ["001"]},
      "tags": {
        "amenity": "pub",
        "operator": "Young & Co"
      }
    },
    {
      "displayName": "モンテローザ",
      "id": "58d7dd-411056",
      "locationSet": {"include": ["001"]},
      "tags": {
        "amenity": "pub",
        "operator": "モンテローザ",
        "operator:ja": "モンテローザ"
      }
    }
  ]
}
