{
  "properties": {
    "path": "operators/amenity/recycling",
    "exclude": {
      "generic": [
        "^(altglascontainer|bauhof|biotonne|glascontainer|häckselplatz|recyclinghof|wertstoffhof)$",
        "^d[ée]ch[èe]tt?erie$",
        "^illegal$",
        "^recycling$",
        "^verre$",
        "^سطل زباله$"
      ]
    }
  },
  "items": [
    {
      "displayName": "Aamps",
      "id": "aamps-91c985",
      "locationSet": {"include": ["001"]},
      "tags": {
        "amenity": "recycling",
        "operator": "Aamps"
      }
    },
    {
      "displayName": "Ab Ekorosk Oy",
      "id": "abekoroskoy-91c985",
      "locationSet": {"include": ["001"]},
      "tags": {
        "amenity": "recycling",
        "operator": "Ab Ekorosk Oy"
      }
    },
    {
      "displayName": "Aberdeenshire Council",
      "id": "aberdeenshirecouncil-91c985",
      "locationSet": {"include": ["001"]},
      "tags": {
        "amenity": "recycling",
        "operator": "Aberdeenshire Council"
      }
    },
    {
      "displayName": "Abfall- und Wertstofflogistik Neuss GmbH (AWL)",
      "id": "abfallundwertstofflogistikneussgmbhawl-15b788",
      "locationSet": {
        "include": ["de-nw.geojson"]
      },
      "tags": {
        "amenity": "recycling",
        "operator": "Abfall- und Wertstofflogistik Neuss GmbH (AWL)"
      }
    },
    {
      "displayName": "Abfallwirtschaft Dithmarschen",
      "id": "abfallwirtschaftdithmarschen-6737d9",
      "locationSet": {"include": ["de"]},
      "tags": {
        "amenity": "recycling",
        "operator": "Abfallwirtschaft Dithmarschen"
      }
    },
    {
      "displayName": "Abfallwirtschaft Landkreis Böblingen",
      "id": "abfallwirtschaftlandkreisboblingen-91c985",
      "locationSet": {"include": ["001"]},
      "tags": {
        "amenity": "recycling",
        "operator": "Abfallwirtschaft Landkreis Böblingen"
      }
    },
    {
      "displayName": "Abfallwirtschaftsbetrieb Böblingen",
      "id": "abfallwirtschaftsbetriebboblingen-fd14c2",
      "locationSet": {
        "include": ["de-bw.geojson"]
      },
      "tags": {
        "amenity": "recycling",
        "operator": "Abfallwirtschaftsbetrieb Böblingen"
      }
    },
    {
      "displayName": "Abfallwirtschaftsbetrieb München",
      "id": "abfallwirtschaftsbetriebmunchen-4fb837",
      "locationSet": {
        "include": ["de-by.geojson"]
      },
      "tags": {
        "amenity": "recycling",
        "operator": "Abfallwirtschaftsbetrieb München",
        "operator:short": "AWM",
        "operator:wikidata": "Q319971"
      }
    },
    {
      "displayName": "Abfallwirtschaftsgesellschaft Wuppertal",
      "id": "abfallwirtschaftsgesellschaftwuppertal-15b788",
      "locationSet": {
        "include": ["de-nw.geojson"]
      },
      "tags": {
        "amenity": "recycling",
        "operator": "Abfallwirtschaftsgesellschaft Wuppertal",
        "operator:short": "AWG",
        "operator:wikidata": "Q23787400"
      }
    },
    {
      "displayName": "Acea Pinerolese Industriale Spa",
      "id": "aceapineroleseindustrialespa-91c985",
      "locationSet": {"include": ["001"]},
      "tags": {
        "amenity": "recycling",
        "operator": "Acea Pinerolese Industriale Spa"
      }
    },
    {
      "displayName": "AcegasApsAmga",
      "id": "acegasapsamga-91c985",
      "locationSet": {"include": ["001"]},
      "tags": {
        "amenity": "recycling",
        "operator": "AcegasApsAmga"
      }
    },
    {
      "displayName": "Actifrip",
      "id": "actifrip-91c985",
      "locationSet": {"include": ["001"]},
      "tags": {
        "amenity": "recycling",
        "operator": "Actifrip"
      }
    },
    {
      "displayName": "aha",
      "id": "aha-91c985",
      "locationSet": {"include": ["001"]},
      "tags": {
        "amenity": "recycling",
        "operator": "aha"
      }
    },
    {
      "displayName": "AHE",
      "id": "ahe-91c985",
      "locationSet": {"include": ["001"]},
      "tags": {
        "amenity": "recycling",
        "operator": "AHE"
      }
    },
    {
      "displayName": "Ajonc",
      "id": "ajonc-91c985",
      "locationSet": {"include": ["001"]},
      "tags": {
        "amenity": "recycling",
        "operator": "Ajonc"
      }
    },
    {
      "displayName": "Ajuntament de Barcelona",
      "id": "ajuntamentdebarcelona-49dabd",
      "locationSet": {"include": ["es"]},
      "tags": {
        "amenity": "recycling",
        "operator": "Ajuntament de Barcelona"
      }
    },
    {
      "displayName": "Ajuntament de Santa Coloma de Cervelló",
      "id": "ajuntamentdesantacolomadecervello-91c985",
      "locationSet": {"include": ["001"]},
      "tags": {
        "amenity": "recycling",
        "operator": "Ajuntament de Santa Coloma de Cervelló"
      }
    },
    {
      "displayName": "Ajuntament de Santa Coloma de Gramenet",
      "id": "ajuntamentdesantacolomadegramenet-91c985",
      "locationSet": {"include": ["001"]},
      "tags": {
        "amenity": "recycling",
        "operator": "Ajuntament de Santa Coloma de Gramenet"
      }
    },
    {
      "displayName": "Ajuntament Sant Boi de Llobregat",
      "id": "ajuntamentsantboidellobregat-91c985",
      "locationSet": {"include": ["001"]},
      "tags": {
        "amenity": "recycling",
        "operator": "Ajuntament Sant Boi de Llobregat"
      }
    },
    {
      "displayName": "Aktex Rohstoff-Recycling Nord",
      "id": "aktexrohstoffrecyclingnord-6737d9",
      "locationSet": {"include": ["de"]},
      "tags": {
        "amenity": "recycling",
        "operator": "Aktex Rohstoff-Recycling Nord"
      }
    },
    {
      "displayName": "Aktion Hoffnung",
      "id": "aktionhoffnung-6737d9",
      "locationSet": {"include": ["de"]},
      "tags": {
        "amenity": "recycling",
        "operator": "Aktion Hoffnung"
      }
    },
    {
      "displayName": "Alba",
      "id": "alba-91c985",
      "locationSet": {"include": ["001"]},
      "tags": {
        "amenity": "recycling",
        "operator": "Alba"
      }
    },
    {
      "displayName": "Alba AG",
      "id": "albaag-91c985",
      "locationSet": {"include": ["001"]},
      "tags": {
        "amenity": "recycling",
        "operator": "Alba AG"
      }
    },
    {
      "displayName": "ALBA Braunschweig GmbH",
      "id": "albabraunschweiggmbh-91c985",
      "locationSet": {"include": ["001"]},
      "tags": {
        "amenity": "recycling",
        "operator": "ALBA Braunschweig GmbH"
      }
    },
    {
      "displayName": "Algar",
      "id": "algar-91c985",
      "locationSet": {"include": ["001"]},
      "tags": {
        "amenity": "recycling",
        "operator": "Algar"
      }
    },
    {
      "displayName": "Alia",
      "id": "alia-91c985",
      "locationSet": {"include": ["001"]},
      "tags": {
        "amenity": "recycling",
        "operator": "Alia"
      }
    },
    {
      "displayName": "Alisea S.p.A.",
      "id": "aliseaspa-91c985",
      "locationSet": {"include": ["001"]},
      "tags": {
        "amenity": "recycling",
        "operator": "Alisea S.p.A."
      }
    },
    {
      "displayName": "AMA",
      "id": "ama-91c985",
      "locationSet": {"include": ["001"]},
      "tags": {
        "amenity": "recycling",
        "operator": "AMA"
      }
    },
    {
      "displayName": "Amiu",
      "id": "amiu-91c985",
      "locationSet": {"include": ["001"]},
      "tags": {
        "amenity": "recycling",
        "operator": "Amiu"
      }
    },
    {
      "displayName": "AMOS",
      "id": "amos-91c985",
      "locationSet": {"include": ["001"]},
      "tags": {
        "amenity": "recycling",
        "operator": "AMOS"
      }
    },
    {
      "displayName": "Apivet",
      "id": "apivet-91c985",
      "locationSet": {"include": ["001"]},
      "tags": {
        "amenity": "recycling",
        "operator": "Apivet"
      }
    },
    {
      "displayName": "APS",
      "id": "aps-91c985",
      "locationSet": {"include": ["001"]},
      "tags": {
        "amenity": "recycling",
        "operator": "APS"
      }
    },
    {
      "displayName": "ASEKOL PL",
      "id": "asekolpl-91c985",
      "locationSet": {"include": ["001"]},
      "tags": {
        "amenity": "recycling",
        "operator": "ASEKOL PL"
      }
    },
    {
      "displayName": "association Jardin de Traverse",
      "id": "associationjardindetraverse-91c985",
      "locationSet": {"include": ["001"]},
      "tags": {
        "amenity": "recycling",
        "operator": "association Jardin de Traverse"
      }
    },
    {
      "displayName": "Astral",
      "id": "astral-91c985",
      "locationSet": {"include": ["001"]},
      "tags": {
        "amenity": "recycling",
        "operator": "Astral"
      }
    },
    {
      "displayName": "Atrium Optima",
      "id": "atriumoptima-91c985",
      "locationSet": {"include": ["001"]},
      "tags": {
        "amenity": "recycling",
        "operator": "Atrium Optima"
      }
    },
    {
      "displayName": "Attiva",
      "id": "attiva-91c985",
      "locationSet": {"include": ["001"]},
      "tags": {
        "amenity": "recycling",
        "operator": "Attiva"
      }
    },
    {
      "displayName": "Avalex",
      "id": "avalex-91c985",
      "locationSet": {"include": ["001"]},
      "tags": {
        "amenity": "recycling",
        "operator": "Avalex"
      }
    },
    {
      "displayName": "AVE",
      "id": "ave-91c985",
      "locationSet": {"include": ["001"]},
      "tags": {
        "amenity": "recycling",
        "operator": "AVE"
      }
    },
    {
      "displayName": "AVEA",
      "id": "avea-91c985",
      "locationSet": {"include": ["001"]},
      "tags": {
        "amenity": "recycling",
        "operator": "AVEA"
      }
    },
    {
      "displayName": "AWB",
      "id": "awb-91c985",
      "locationSet": {"include": ["001"]},
      "tags": {
        "amenity": "recycling",
        "operator": "AWB"
      }
    },
    {
      "displayName": "AWB Köln",
      "id": "awbkoln-91c985",
      "locationSet": {"include": ["001"]},
      "tags": {
        "amenity": "recycling",
        "operator": "AWB Köln"
      }
    },
    {
      "displayName": "AWG",
      "id": "awg-91c985",
      "locationSet": {"include": ["001"]},
      "tags": {
        "amenity": "recycling",
        "operator": "AWG"
      }
    },
    {
      "displayName": "AWISTA",
      "id": "awista-91c985",
      "locationSet": {"include": ["001"]},
      "tags": {
        "amenity": "recycling",
        "operator": "AWISTA"
      }
    },
    {
      "displayName": "AWISTA GmbH",
      "id": "awistagmbh-91c985",
      "locationSet": {"include": ["001"]},
      "tags": {
        "amenity": "recycling",
        "operator": "AWISTA GmbH"
      }
    },
    {
      "displayName": "AWM",
      "id": "awm-91c985",
      "locationSet": {"include": ["001"]},
      "tags": {
        "amenity": "recycling",
        "operator": "AWM"
      }
    },
    {
      "displayName": "AWU Abfallwirtschafts - Union Oberhavel GmbH",
      "id": "awuabfallwirtschaftsunionoberhavelgmbh-91c985",
      "locationSet": {"include": ["001"]},
      "tags": {
        "amenity": "recycling",
        "operator": "AWU Abfallwirtschafts - Union Oberhavel GmbH"
      }
    },
    {
      "displayName": "AWU Logistik OPR GmbH",
      "id": "awulogistikoprgmbh-91c985",
      "locationSet": {"include": ["001"]},
      "tags": {
        "amenity": "recycling",
        "operator": "AWU Logistik OPR GmbH"
      }
    },
    {
      "displayName": "Ayto Villarcayo MCV",
      "id": "aytovillarcayomcv-91c985",
      "locationSet": {"include": ["001"]},
      "tags": {
        "amenity": "recycling",
        "operator": "Ayto Villarcayo MCV"
      }
    },
    {
      "displayName": "Ayuntamiento de Albacete",
      "id": "ayuntamientodealbacete-91c985",
      "locationSet": {"include": ["001"]},
      "tags": {
        "amenity": "recycling",
        "operator": "Ayuntamiento de Albacete"
      }
    },
    {
      "displayName": "Ayuntamiento de Majadahonda",
      "id": "ayuntamientodemajadahonda-91c985",
      "locationSet": {"include": ["001"]},
      "tags": {
        "amenity": "recycling",
        "operator": "Ayuntamiento de Majadahonda"
      }
    },
    {
      "displayName": "Ayuntamiento de Málaga",
      "id": "ayuntamientodemalaga-91c985",
      "locationSet": {"include": ["001"]},
      "tags": {
        "amenity": "recycling",
        "operator": "Ayuntamiento de Málaga"
      }
    },
    {
      "displayName": "Ayuntamiento de Villarcayo MCV",
      "id": "ayuntamientodevillarcayomcv-91c985",
      "locationSet": {"include": ["001"]},
      "tags": {
        "amenity": "recycling",
        "operator": "Ayuntamiento de Villarcayo MCV"
      }
    },
    {
      "displayName": "Baliz Textilwerke",
      "id": "baliztextilwerke-91c985",
      "locationSet": {"include": ["001"]},
      "tags": {
        "amenity": "recycling",
        "operator": "Baliz Textilwerke"
      }
    },
    {
      "displayName": "Bassin de Pompey",
      "id": "bassindepompey-91c985",
      "locationSet": {"include": ["001"]},
      "tags": {
        "amenity": "recycling",
        "operator": "Bassin de Pompey"
      }
    },
    {
      "displayName": "Berlin-Textilrecycling",
      "id": "berlintextilrecycling-91c985",
      "locationSet": {"include": ["001"]},
      "tags": {
        "amenity": "recycling",
        "operator": "Berlin-Textilrecycling"
      }
    },
    {
      "displayName": "Berliner Stadtreinigungsbetriebe",
      "id": "berlinerstadtreinigungsbetriebe-10028e",
      "locationSet": {
        "include": ["de-be.geojson"]
      },
      "tags": {
        "amenity": "recycling",
        "operator": "Berliner Stadtreinigungsbetriebe",
        "operator:short": "BSR",
        "operator:wikidata": "Q733237"
      }
    },
    {
      "displayName": "Bethel",
      "id": "bethel-91c985",
      "locationSet": {"include": ["001"]},
      "tags": {
        "amenity": "recycling",
        "operator": "Bethel"
      }
    },
    {
      "displayName": "Bil Ta Garbi",
      "id": "biltagarbi-91c985",
      "locationSet": {"include": ["001"]},
      "tags": {
        "amenity": "recycling",
        "operator": "Bil Ta Garbi"
      }
    },
    {
      "displayName": "BIR",
      "id": "bir-91c985",
      "locationSet": {"include": ["001"]},
      "tags": {
        "amenity": "recycling",
        "operator": "BIR"
      }
    },
    {
      "displayName": "bonnorange AöR",
      "id": "bonnorangeaor-91c985",
      "locationSet": {"include": ["001"]},
      "tags": {
        "amenity": "recycling",
        "operator": "bonnorange AöR"
      }
    },
    {
      "displayName": "Bordeaux Métropole",
      "id": "bordeauxmetropole-91c985",
      "locationSet": {"include": ["001"]},
      "tags": {
        "amenity": "recycling",
        "operator": "Bordeaux Métropole"
      }
    },
    {
      "displayName": "Bowling Green State University",
      "id": "bowlinggreenstateuniversity-91c985",
      "locationSet": {"include": ["001"]},
      "tags": {
        "amenity": "recycling",
        "operator": "Bowling Green State University"
      }
    },
    {
      "displayName": "Brighton & Hove City Council",
      "id": "brightonandhovecitycouncil-91c985",
      "locationSet": {"include": ["001"]},
      "tags": {
        "amenity": "recycling",
        "operator": "Brighton & Hove City Council"
      }
    },
    {
      "displayName": "British Heart Foundation",
      "id": "britishheartfoundation-91c985",
      "locationSet": {"include": ["001"]},
      "tags": {
        "amenity": "recycling",
        "operator": "British Heart Foundation"
      }
    },
    {
      "displayName": "Brotex",
      "id": "brotex-91c985",
      "locationSet": {"include": ["001"]},
      "tags": {
        "amenity": "recycling",
        "operator": "Brotex"
      }
    },
    {
      "displayName": "Bruxelles-Propreté - Net Brussel",
      "id": "bruxellespropretenetbrussel-91c985",
      "locationSet": {"include": ["001"]},
      "tags": {
        "amenity": "recycling",
        "operator": "Bruxelles-Propreté - Net Brussel"
      }
    },
    {
      "displayName": "CACL",
      "id": "cacl-91c985",
      "locationSet": {"include": ["001"]},
      "tags": {
        "amenity": "recycling",
        "operator": "CACL"
      }
    },
    {
      "displayName": "Câmara Municipal de Lisboa",
      "id": "camaramunicipaldelisboa-91c985",
      "locationSet": {"include": ["001"]},
      "tags": {
        "amenity": "recycling",
        "operator": "Câmara Municipal de Lisboa"
      }
    },
    {
      "displayName": "Cannone",
      "id": "cannone-91c985",
      "locationSet": {"include": ["001"]},
      "tags": {
        "amenity": "recycling",
        "operator": "Cannone"
      }
    },
    {
      "displayName": "Caritas Ambrosiana",
      "id": "caritasambrosiana-91c985",
      "locationSet": {"include": ["001"]},
      "tags": {
        "amenity": "recycling",
        "operator": "Caritas Ambrosiana"
      }
    },
    {
      "displayName": "CCPRO",
      "id": "ccpro-91c985",
      "locationSet": {"include": ["001"]},
      "tags": {
        "amenity": "recycling",
        "operator": "CCPRO"
      }
    },
    {
      "displayName": "CCVCD",
      "id": "ccvcd-91c985",
      "locationSet": {"include": ["001"]},
      "tags": {
        "amenity": "recycling",
        "operator": "CCVCD"
      }
    },
    {
      "displayName": "CenterParcs",
      "id": "centerparcs-91c985",
      "locationSet": {"include": ["001"]},
      "tags": {
        "amenity": "recycling",
        "operator": "CenterParcs"
      }
    },
    {
      "displayName": "Charlieu-Belmont Communauté",
      "id": "charlieubelmontcommunaute-91c985",
      "locationSet": {"include": ["001"]},
      "tags": {
        "amenity": "recycling",
        "operator": "Charlieu-Belmont Communauté"
      }
    },
    {
      "displayName": "Chrysalide Ressourcerie",
      "id": "chrysalideressourcerie-91c985",
      "locationSet": {"include": ["001"]},
      "tags": {
        "amenity": "recycling",
        "operator": "Chrysalide Ressourcerie"
      }
    },
    {
      "displayName": "City of Boston Public Works",
      "id": "cityofbostonpublicworks-91c985",
      "locationSet": {"include": ["001"]},
      "tags": {
        "amenity": "recycling",
        "operator": "City of Boston Public Works"
      }
    },
    {
      "displayName": "City of Denton",
      "id": "cityofdenton-91c985",
      "locationSet": {"include": ["001"]},
      "tags": {
        "amenity": "recycling",
        "operator": "City of Denton"
      }
    },
    {
      "displayName": "City of Edinburgh Council",
      "id": "cityofedinburghcouncil-91c985",
      "locationSet": {"include": ["001"]},
      "tags": {
        "amenity": "recycling",
        "operator": "City of Edinburgh Council"
      }
    },
    {
      "displayName": "City of Lawrence",
      "id": "cityoflawrence-91c985",
      "locationSet": {"include": ["001"]},
      "tags": {
        "amenity": "recycling",
        "operator": "City of Lawrence"
      }
    },
    {
      "displayName": "CityGreenPoint",
      "id": "citygreenpoint-91c985",
      "locationSet": {"include": ["001"]},
      "tags": {
        "amenity": "recycling",
        "operator": "CityGreenPoint"
      }
    },
    {
      "displayName": "Clermont Auvergne Métropole",
      "id": "clermontauvergnemetropole-91c985",
      "locationSet": {"include": ["001"]},
      "tags": {
        "amenity": "recycling",
        "operator": "Clermont Auvergne Métropole"
      }
    },
    {
      "displayName": "Clisson Sèvre et Maine Agglo",
      "id": "clissonsevreetmaineagglo-91c985",
      "locationSet": {"include": ["001"]},
      "tags": {
        "amenity": "recycling",
        "operator": "Clisson Sèvre et Maine Agglo"
      }
    },
    {
      "displayName": "Club de Huella Ecológica",
      "id": "clubdehuellaecologica-91c985",
      "locationSet": {"include": ["001"]},
      "tags": {
        "amenity": "recycling",
        "operator": "Club de Huella Ecológica"
      }
    },
    {
      "displayName": "Cogersa",
      "id": "cogersa-91c985",
      "locationSet": {"include": ["001"]},
      "tags": {
        "amenity": "recycling",
        "operator": "Cogersa"
      }
    },
    {
      "displayName": "Coliba",
      "id": "coliba-91c985",
      "locationSet": {"include": ["001"]},
      "tags": {
        "amenity": "recycling",
        "operator": "Coliba"
      }
    },
    {
      "displayName": "Communauté d'Agglomération du Cotentin",
      "id": "communautedagglomerationducotentin-91c985",
      "locationSet": {"include": ["001"]},
      "tags": {
        "amenity": "recycling",
        "operator": "Communauté d'Agglomération du Cotentin"
      }
    },
    {
      "displayName": "Communauté de Communes Alpes Provence Verdon, Sources de Lumières",
      "id": "communautedecommunesalpesprovenceverdonsourcesdelumieres-91c985",
      "locationSet": {"include": ["001"]},
      "tags": {
        "amenity": "recycling",
        "operator": "Communauté de Communes Alpes Provence Verdon, Sources de Lumières"
      }
    },
    {
      "displayName": "Communauté de communes du Grand Pontarlier",
      "id": "communautedecommunesdugrandpontarlier-91c985",
      "locationSet": {"include": ["001"]},
      "tags": {
        "amenity": "recycling",
        "operator": "Communauté de communes du Grand Pontarlier"
      }
    },
    {
      "displayName": "Communauté de Communes du Pays de Redon",
      "id": "communautedecommunesdupaysderedon-91c985",
      "locationSet": {"include": ["001"]},
      "tags": {
        "amenity": "recycling",
        "operator": "Communauté de Communes du Pays de Redon"
      }
    },
    {
      "displayName": "Communauté de communes Pévèle Carembault",
      "id": "communautedecommunespevelecarembault-91c985",
      "locationSet": {"include": ["001"]},
      "tags": {
        "amenity": "recycling",
        "operator": "Communauté de communes Pévèle Carembault"
      }
    },
    {
      "displayName": "Communauté de communes Terres Touloises",
      "id": "communautedecommunesterrestouloises-91c985",
      "locationSet": {"include": ["001"]},
      "tags": {
        "amenity": "recycling",
        "operator": "Communauté de communes Terres Touloises"
      }
    },
    {
      "displayName": "Concello de Mugardos",
      "id": "concellodemugardos-91c985",
      "locationSet": {"include": ["001"]},
      "tags": {
        "amenity": "recycling",
        "operator": "Concello de Mugardos"
      }
    },
    {
      "displayName": "Contex",
      "id": "contex-91c985",
      "locationSet": {"include": ["001"]},
      "tags": {
        "amenity": "recycling",
        "operator": "Contex"
      }
    },
    {
      "displayName": "Coop",
      "id": "coop-91c985",
      "locationSet": {"include": ["001"]},
      "tags": {
        "amenity": "recycling",
        "operator": "Coop"
      }
    },
    {
      "displayName": "COPAVO",
      "id": "copavo-91c985",
      "locationSet": {"include": ["001"]},
      "tags": {
        "amenity": "recycling",
        "operator": "COPAVO"
      }
    },
    {
      "displayName": "Cork County Council",
      "id": "corkcountycouncil-91c985",
      "locationSet": {"include": ["001"]},
      "tags": {
        "amenity": "recycling",
        "operator": "Cork County Council"
      }
    },
    {
      "displayName": "Cumbria Waste Management Ltd",
      "id": "cumbriawastemanagementltd-91c985",
      "locationSet": {"include": ["001"]},
      "tags": {
        "amenity": "recycling",
        "operator": "Cumbria Waste Management Ltd"
      }
    },
    {
      "displayName": "Curitas",
      "id": "curitas-91c985",
      "locationSet": {"include": ["001"]},
      "tags": {
        "amenity": "recycling",
        "operator": "Curitas"
      }
    },
    {
      "displayName": "Curitas n.v.",
      "id": "curitasnv-91c985",
      "locationSet": {"include": ["001"]},
      "tags": {
        "amenity": "recycling",
        "operator": "Curitas n.v."
      }
    },
    {
      "displayName": "Darbo Recycling",
      "id": "darborecycling-91c985",
      "locationSet": {"include": ["001"]},
      "tags": {
        "amenity": "recycling",
        "operator": "Darbo Recycling"
      }
    },
    {
      "displayName": "Däsa Wiederverwertungs GmbH",
      "id": "dasawiederverwertungsgmbh-91c985",
      "locationSet": {"include": ["001"]},
      "tags": {
        "amenity": "recycling",
        "operator": "Däsa Wiederverwertungs GmbH"
      }
    },
    {
      "displayName": "De Kringwinkel",
      "id": "dekringwinkel-91c985",
      "locationSet": {"include": ["001"]},
      "tags": {
        "amenity": "recycling",
        "operator": "De Kringwinkel"
      }
    },
    {
      "displayName": "des Jardins et des Hommes",
      "id": "desjardinsetdeshommes-91c985",
      "locationSet": {"include": ["001"]},
      "tags": {
        "amenity": "recycling",
        "operator": "des Jardins et des Hommes"
      }
    },
    {
      "displayName": "DESWOS",
      "id": "deswos-91c985",
      "locationSet": {"include": ["001"]},
      "tags": {
        "amenity": "recycling",
        "operator": "DESWOS"
      }
    },
    {
      "displayName": "Diakoniewerk Essen",
      "id": "diakoniewerkessen-91c985",
      "locationSet": {"include": ["001"]},
      "tags": {
        "amenity": "recycling",
        "operator": "Diakoniewerk Essen"
      }
    },
    {
      "displayName": "DRK Kreisverband Bonn e.V.",
      "id": "drkkreisverbandbonnev-91c985",
      "locationSet": {"include": ["001"]},
      "tags": {
        "amenity": "recycling",
        "operator": "DRK Kreisverband Bonn e.V."
      }
    },
    {
      "displayName": "East-West Textilrecycling Kursun",
      "id": "eastwesttextilrecyclingkursun-91c985",
      "locationSet": {"include": ["001"]},
      "tags": {
        "amenity": "recycling",
        "operator": "East-West Textilrecycling Kursun"
      }
    },
    {
      "displayName": "Eco-Emballages",
      "id": "ecoemballages-91c985",
      "locationSet": {"include": ["001"]},
      "tags": {
        "amenity": "recycling",
        "operator": "Eco-Emballages"
      }
    },
    {
      "displayName": "Ecotextile",
      "id": "ecotextile-91c985",
      "locationSet": {"include": ["001"]},
      "tags": {
        "amenity": "recycling",
        "operator": "Ecotextile"
      }
    },
    {
      "displayName": "Eesti Taaskasutusorganisatsioon MTÜ",
      "id": "eestitaaskasutusorganisatsioonmtu-91c985",
      "locationSet": {"include": ["001"]},
      "tags": {
        "amenity": "recycling",
        "operator": "Eesti Taaskasutusorganisatsioon MTÜ"
      }
    },
    {
      "displayName": "Ekocharita",
      "id": "ekocharita-91c985",
      "locationSet": {"include": ["001"]},
      "tags": {
        "amenity": "recycling",
        "operator": "Ekocharita"
      }
    },
    {
      "displayName": "Ekokymppi",
      "id": "ekokymppi-91c985",
      "locationSet": {"include": ["001"]},
      "tags": {
        "amenity": "recycling",
        "operator": "Ekokymppi"
      }
    },
    {
      "displayName": "Ekorosk Oy",
      "id": "ekoroskoy-91c985",
      "locationSet": {"include": ["001"]},
      "tags": {
        "amenity": "recycling",
        "operator": "Ekorosk Oy"
      }
    },
    {
      "displayName": "Emmaüs",
      "id": "emmaus-91c985",
      "locationSet": {"include": ["001"]},
      "tags": {
        "amenity": "recycling",
        "operator": "Emmaüs"
      }
    },
    {
      "displayName": "Entsorgung Dortmund GmbH",
      "id": "entsorgungdortmundgmbh-15b788",
      "locationSet": {
        "include": ["de-nw.geojson"]
      },
      "tags": {
        "amenity": "recycling",
        "operator": "Entsorgung Dortmund GmbH",
        "operator:short": "EDG",
        "operator:wikidata": "Q1345450"
      }
    },
    {
      "displayName": "Entsorgungsbetriebe Essen",
      "id": "entsorgungsbetriebeessen-15b788",
      "locationSet": {
        "include": ["de-nw.geojson"]
      },
      "matchNames": [
        "essener entsorgungsbetriebe"
      ],
      "tags": {
        "amenity": "recycling",
        "operator": "Entsorgungsbetriebe Essen",
        "operator:short": "EBE",
        "operator:wikidata": "Q1345453"
      }
    },
    {
      "displayName": "Entsorgungsbetriebe Stadt Ulm (EBU)",
      "id": "entsorgungsbetriebestadtulmebu-6737d9",
      "locationSet": {"include": ["de"]},
      "tags": {
        "amenity": "recycling",
        "operator": "Entsorgungsbetriebe Stadt Ulm (EBU)"
      }
    },
    {
      "displayName": "ERZ",
      "id": "erz-91c985",
      "locationSet": {"include": ["001"]},
      "tags": {
        "amenity": "recycling",
        "operator": "ERZ"
      }
    },
    {
      "displayName": "ESB",
      "id": "esb-91c985",
      "locationSet": {"include": ["001"]},
      "tags": {
        "amenity": "recycling",
        "operator": "ESB"
      }
    },
    {
      "displayName": "ETO",
      "id": "eto-91c985",
      "locationSet": {"include": ["001"]},
      "tags": {
        "amenity": "recycling",
        "operator": "ETO"
      }
    },
    {
      "displayName": "Eurocycle GmbH",
      "id": "eurocyclegmbh-91c985",
      "locationSet": {"include": ["001"]},
      "tags": {
        "amenity": "recycling",
        "operator": "Eurocycle GmbH"
      }
    },
    {
      "displayName": "Fa. Rhenus, im Auftrag der Stadt Heidelberg",
      "id": "farhenusimauftragderstadtheidelberg-91c985",
      "locationSet": {"include": ["001"]},
      "tags": {
        "amenity": "recycling",
        "operator": "Fa. Rhenus, im Auftrag der Stadt Heidelberg"
      }
    },
    {
      "displayName": "FBH-NP Nonprofit Kft.",
      "id": "fbhnpnonprofitkft-91c985",
      "locationSet": {"include": ["001"]},
      "tags": {
        "amenity": "recycling",
        "operator": "FBH-NP Nonprofit Kft."
      }
    },
    {
      "displayName": "FCC",
      "id": "fcc-91c985",
      "locationSet": {"include": ["001"]},
      "tags": {
        "amenity": "recycling",
        "operator": "FCC"
      }
    },
    {
      "displayName": "Fehr",
      "id": "fehr-91c985",
      "locationSet": {"include": ["001"]},
      "tags": {
        "amenity": "recycling",
        "operator": "Fehr"
      }
    },
    {
      "displayName": "FES",
      "id": "fes-91c985",
      "locationSet": {"include": ["001"]},
      "tags": {
        "amenity": "recycling",
        "operator": "FES"
      }
    },
    {
      "displayName": "Fife Council",
      "id": "fifecouncil-91c985",
      "locationSet": {"include": ["001"]},
      "tags": {
        "amenity": "recycling",
        "operator": "Fife Council"
      }
    },
    {
      "displayName": "Förpacknings & Tidningsinsamlingen",
      "id": "forpackningsandtidningsinsamlingen-91c985",
      "locationSet": {"include": ["001"]},
      "tags": {
        "amenity": "recycling",
        "operator": "Förpacknings & Tidningsinsamlingen"
      }
    },
    {
      "displayName": "Fretex",
      "id": "fretex-91c985",
      "locationSet": {"include": ["001"]},
      "tags": {
        "amenity": "recycling",
        "operator": "Fretex"
      }
    },
    {
      "displayName": "FWS",
      "id": "fws-91c985",
      "locationSet": {"include": ["001"]},
      "tags": {
        "amenity": "recycling",
        "operator": "FWS"
      }
    },
    {
      "displayName": "GEB",
      "id": "geb-91c985",
      "locationSet": {"include": ["001"]},
      "tags": {
        "amenity": "recycling",
        "operator": "GEB"
      }
    },
    {
      "displayName": "Gemeente Amsterdam",
      "id": "gemeenteamsterdam-91c985",
      "locationSet": {"include": ["001"]},
      "tags": {
        "amenity": "recycling",
        "operator": "Gemeente Amsterdam"
      }
    },
    {
      "displayName": "Gemeente Zaanstad",
      "id": "gemeentezaanstad-91c985",
      "locationSet": {"include": ["001"]},
      "tags": {
        "amenity": "recycling",
        "operator": "Gemeente Zaanstad"
      }
    },
    {
      "displayName": "Gesamb",
      "id": "gesamb-91c985",
      "locationSet": {"include": ["001"]},
      "tags": {
        "amenity": "recycling",
        "operator": "Gesamb"
      }
    },
    {
      "displayName": "Gew. Fa. Mettex",
      "id": "gewfamettex-91c985",
      "locationSet": {"include": ["001"]},
      "tags": {
        "amenity": "recycling",
        "operator": "Gew. Fa. Mettex"
      }
    },
    {
      "displayName": "GIWOG",
      "id": "giwog-91c985",
      "locationSet": {"include": ["001"]},
      "tags": {
        "amenity": "recycling",
        "operator": "GIWOG"
      }
    },
    {
      "displayName": "Glasgow City Council",
      "id": "glasgowcitycouncil-91c985",
      "locationSet": {"include": ["001"]},
      "tags": {
        "amenity": "recycling",
        "operator": "Glasgow City Council"
      }
    },
    {
      "displayName": "GLØR",
      "id": "glor-91c985",
      "locationSet": {"include": ["001"]},
      "tags": {
        "amenity": "recycling",
        "operator": "GLØR"
      }
    },
    {
      "displayName": "GOA",
      "id": "goa-91c985",
      "locationSet": {"include": ["001"]},
      "tags": {
        "amenity": "recycling",
        "operator": "GOA"
      }
    },
    {
      "displayName": "Grand Lyon",
      "id": "grandlyon-91c985",
      "locationSet": {"include": ["001"]},
      "tags": {
        "amenity": "recycling",
        "operator": "Grand Lyon"
      }
    },
    {
      "displayName": "Grenoble Alpes Métropole",
      "id": "grenoblealpesmetropole-91c985",
      "locationSet": {"include": ["001"]},
      "tags": {
        "amenity": "recycling",
        "operator": "Grenoble Alpes Métropole"
      }
    },
    {
      "displayName": "Gruppo HERA",
      "id": "gruppohera-91c985",
      "locationSet": {"include": ["001"]},
      "tags": {
        "amenity": "recycling",
        "operator": "Gruppo HERA"
      }
    },
    {
      "displayName": "GVA Baden",
      "id": "gvabaden-91c985",
      "locationSet": {"include": ["001"]},
      "tags": {
        "amenity": "recycling",
        "operator": "GVA Baden"
      }
    },
    {
      "displayName": "H W Martin Waste Limited",
      "id": "hwmartinwastelimited-91c985",
      "locationSet": {"include": ["001"]},
      "tags": {
        "amenity": "recycling",
        "operator": "H W Martin Waste Limited"
      }
    },
    {
      "displayName": "Hackney Council",
      "id": "hackneycouncil-91c985",
      "locationSet": {"include": ["001"]},
      "tags": {
        "amenity": "recycling",
        "operator": "Hackney Council"
      }
    },
    {
      "displayName": "HeDi",
      "id": "hedi-91c985",
      "locationSet": {"include": ["001"]},
      "tags": {
        "amenity": "recycling",
        "operator": "HeDi"
      }
    },
    {
      "displayName": "HERA",
      "id": "hera-91c985",
      "locationSet": {"include": ["001"]},
      "tags": {
        "amenity": "recycling",
        "operator": "HERA"
      }
    },
    {
      "displayName": "hoelp",
      "id": "hoelp-91c985",
      "locationSet": {"include": ["001"]},
      "tags": {
        "amenity": "recycling",
        "operator": "hoelp"
      }
    },
    {
      "displayName": "Holding Graz",
      "id": "holdinggraz-91c985",
      "locationSet": {"include": ["001"]},
      "tags": {
        "amenity": "recycling",
        "operator": "Holding Graz"
      }
    },
    {
      "displayName": "HSY",
      "id": "hsy-91c985",
      "locationSet": {"include": ["001"]},
      "tags": {
        "amenity": "recycling",
        "operator": "HSY"
      }
    },
    {
      "displayName": "Humana",
      "id": "humana-91c985",
      "locationSet": {"include": ["001"]},
      "tags": {
        "amenity": "recycling",
        "operator": "Humana"
      }
    },
    {
      "displayName": "HUMANA Kleidersammlung GmbH",
      "id": "humanakleidersammlunggmbh-91c985",
      "locationSet": {"include": ["001"]},
      "tags": {
        "amenity": "recycling",
        "operator": "HUMANA Kleidersammlung GmbH"
      }
    },
    {
      "displayName": "HVC",
      "id": "hvc-91c985",
      "locationSet": {"include": ["001"]},
      "tags": {
        "amenity": "recycling",
        "operator": "HVC"
      }
    },
    {
      "displayName": "HVC Groep",
      "id": "hvcgroep-91c985",
      "locationSet": {"include": ["001"]},
      "tags": {
        "amenity": "recycling",
        "operator": "HVC Groep"
      }
    },
    {
      "displayName": "Hygea",
      "id": "hygea-91c985",
      "locationSet": {"include": ["001"]},
      "tags": {
        "amenity": "recycling",
        "operator": "Hygea"
      }
    },
    {
      "displayName": "IDELUX-Environnement",
      "id": "ideluxenvironnement-91c985",
      "locationSet": {"include": ["001"]},
      "tags": {
        "amenity": "recycling",
        "operator": "IDELUX-Environnement"
      }
    },
    {
      "displayName": "IMOG",
      "id": "imog-91c985",
      "locationSet": {"include": ["001"]},
      "tags": {
        "amenity": "recycling",
        "operator": "IMOG"
      }
    },
    {
      "displayName": "Inagra",
      "id": "inagra-91c985",
      "locationSet": {"include": ["001"]},
      "tags": {
        "amenity": "recycling",
        "operator": "Inagra"
      }
    },
    {
      "displayName": "Interco Normandie Sud Eure",
      "id": "interconormandiesudeure-91c985",
      "locationSet": {"include": ["001"]},
      "tags": {
        "amenity": "recycling",
        "operator": "Interco Normandie Sud Eure"
      }
    },
    {
      "displayName": "Intradel",
      "id": "intradel-91c985",
      "locationSet": {"include": ["001"]},
      "tags": {
        "amenity": "recycling",
        "operator": "Intradel"
      }
    },
    {
      "displayName": "IOK",
      "id": "iok-91c985",
      "locationSet": {"include": ["001"]},
      "tags": {
        "amenity": "recycling",
        "operator": "IOK"
      }
    },
    {
      "displayName": "IOK Afvalbeheer",
      "id": "iokafvalbeheer-91c985",
      "locationSet": {"include": ["001"]},
      "tags": {
        "amenity": "recycling",
        "operator": "IOK Afvalbeheer"
      }
    },
    {
      "displayName": "IPALE",
      "id": "ipale-91c985",
      "locationSet": {"include": ["001"]},
      "tags": {
        "amenity": "recycling",
        "operator": "IPALE"
      }
    },
    {
      "displayName": "Irado",
      "id": "irado-fcd61b",
      "locationSet": {"include": ["nl"]},
      "tags": {
        "amenity": "recycling",
        "operator": "Irado",
        "operator:wikidata": "Q57699708"
      }
    },
    {
      "displayName": "ISA Isontina Ambiente",
      "id": "isaisontinaambiente-91c985",
      "locationSet": {"include": ["001"]},
      "tags": {
        "amenity": "recycling",
        "operator": "ISA Isontina Ambiente"
      }
    },
    {
      "displayName": "Isevtex",
      "id": "isevtex-91c985",
      "locationSet": {"include": ["001"]},
      "tags": {
        "amenity": "recycling",
        "operator": "Isevtex"
      }
    },
    {
      "displayName": "Isle of Wight Council",
      "id": "isleofwightcouncil-91c985",
      "locationSet": {"include": ["001"]},
      "tags": {
        "amenity": "recycling",
        "operator": "Isle of Wight Council"
      }
    },
    {
      "displayName": "IVAREM",
      "id": "ivarem-91c985",
      "locationSet": {"include": ["001"]},
      "tags": {
        "amenity": "recycling",
        "operator": "IVAREM"
      }
    },
    {
      "displayName": "Johannes Fehr GmbH & Co. KG",
      "id": "johannesfehrgmbhandcokg-91c985",
      "locationSet": {"include": ["001"]},
      "tags": {
        "amenity": "recycling",
        "operator": "Johannes Fehr GmbH & Co. KG"
      }
    },
    {
      "displayName": "Johanniter",
      "id": "johanniter-91c985",
      "locationSet": {"include": ["001"]},
      "tags": {
        "amenity": "recycling",
        "operator": "Johanniter"
      }
    },
    {
      "displayName": "Kapaklı Belediyesi",
      "id": "kapaklibelediyesi-91c985",
      "locationSet": {"include": ["001"]},
      "tags": {
        "amenity": "recycling",
        "operator": "Kapaklı Belediyesi"
      }
    },
    {
      "displayName": "Karl Meyer Rohstoffverwertung",
      "id": "karlmeyerrohstoffverwertung-91c985",
      "locationSet": {"include": ["001"]},
      "tags": {
        "amenity": "recycling",
        "operator": "Karl Meyer Rohstoffverwertung"
      }
    },
    {
      "displayName": "Keep Athens Limestone Beautiful",
      "id": "keepathenslimestonebeautiful-91c985",
      "locationSet": {"include": ["001"]},
      "tags": {
        "amenity": "recycling",
        "operator": "Keep Athens Limestone Beautiful"
      }
    },
    {
      "displayName": "Kent State University",
      "id": "kentstateuniversity-91c985",
      "locationSet": {"include": ["001"]},
      "tags": {
        "amenity": "recycling",
        "operator": "Kent State University"
      }
    },
    {
      "displayName": "Knettenbrech + Gurdulic Rhein-Neckar GmbH",
      "id": "knettenbrechgurdulicrheinneckargmbh-91c985",
      "locationSet": {"include": ["001"]},
      "tags": {
        "amenity": "recycling",
        "operator": "Knettenbrech + Gurdulic Rhein-Neckar GmbH"
      }
    },
    {
      "displayName": "Knettenbrech+Gurdulic",
      "id": "knettenbrechgurdulic-91c985",
      "locationSet": {"include": ["001"]},
      "tags": {
        "amenity": "recycling",
        "operator": "Knettenbrech+Gurdulic"
      }
    },
    {
      "displayName": "Kreiswerke Cochem-Zell (Abfallwirtschaft)",
      "id": "kreiswerkecochemzellabfallwirtschaft-91c985",
      "locationSet": {"include": ["001"]},
      "tags": {
        "amenity": "recycling",
        "operator": "Kreiswerke Cochem-Zell (Abfallwirtschaft)"
      }
    },
    {
      "displayName": "KuB GmbH",
      "id": "kubgmbh-91c985",
      "locationSet": {"include": ["001"]},
      "tags": {
        "amenity": "recycling",
        "operator": "KuB GmbH"
      }
    },
    {
      "displayName": "La Bouquinerie du Sart",
      "id": "labouquineriedusart-91c985",
      "locationSet": {"include": ["001"]},
      "tags": {
        "amenity": "recycling",
        "operator": "La Bouquinerie du Sart"
      }
    },
    {
      "displayName": "Lancashire County Council",
      "id": "lancashirecountycouncil-91c985",
      "locationSet": {"include": ["001"]},
      "tags": {
        "amenity": "recycling",
        "operator": "Lancashire County Council"
      }
    },
    {
      "displayName": "Landkreis Kaiserslautern",
      "id": "landkreiskaiserslautern-91c985",
      "locationSet": {"include": ["001"]},
      "tags": {
        "amenity": "recycling",
        "operator": "Landkreis Kaiserslautern"
      }
    },
    {
      "displayName": "Landkreis Prignitz",
      "id": "landkreisprignitz-91c985",
      "locationSet": {"include": ["001"]},
      "tags": {
        "amenity": "recycling",
        "operator": "Landkreis Prignitz"
      }
    },
    {
      "displayName": "Laval Agglomération",
      "id": "lavalagglomeration-91c985",
      "locationSet": {"include": ["001"]},
      "tags": {
        "amenity": "recycling",
        "operator": "Laval Agglomération"
      }
    },
    {
      "displayName": "Le Foyer Notre-Dame des sans-abri",
      "id": "lefoyernotredamedessansabri-91c985",
      "locationSet": {"include": ["001"]},
      "tags": {
        "amenity": "recycling",
        "operator": "Le Foyer Notre-Dame des sans-abri"
      }
    },
    {
      "displayName": "Le Relais",
      "id": "lerelais-91c985",
      "locationSet": {"include": ["001"]},
      "tags": {
        "amenity": "recycling",
        "operator": "Le Relais"
      }
    },
    {
      "displayName": "Le Relais 75",
      "id": "lerelais75-91c985",
      "locationSet": {"include": ["001"]},
      "tags": {
        "amenity": "recycling",
        "operator": "Le Relais 75"
      }
    },
    {
      "displayName": "Leger des Heils",
      "id": "legerdesheils-91c985",
      "locationSet": {"include": ["001"]},
      "tags": {
        "amenity": "recycling",
        "operator": "Leger des Heils"
      }
    },
    {
      "displayName": "Les Petits Riens - Spullenhulp",
      "id": "lespetitsriensspullenhulp-91c985",
      "locationSet": {"include": ["001"]},
      "tags": {
        "amenity": "recycling",
        "operator": "Les Petits Riens - Spullenhulp"
      }
    },
    {
      "displayName": "Limasa",
      "id": "limasa-91c985",
      "locationSet": {"include": ["001"]},
      "tags": {
        "amenity": "recycling",
        "operator": "Limasa"
      }
    },
    {
      "displayName": "Limburg.net",
      "id": "limburgnet-91c985",
      "locationSet": {"include": ["001"]},
      "tags": {
        "amenity": "recycling",
        "operator": "Limburg.net"
      }
    },
    {
      "displayName": "Limoges Métropole",
      "id": "limogesmetropole-91c985",
      "locationSet": {"include": ["001"]},
      "tags": {
        "amenity": "recycling",
        "operator": "Limoges Métropole"
      }
    },
    {
      "displayName": "Linz AG Abfall",
      "id": "linzagabfall-91c985",
      "locationSet": {"include": ["001"]},
      "tags": {
        "amenity": "recycling",
        "operator": "Linz AG Abfall"
      }
    },
    {
      "displayName": "Loop",
      "id": "loop-91c985",
      "locationSet": {"include": ["001"]},
      "tags": {
        "amenity": "recycling",
        "operator": "Loop"
      }
    },
    {
      "displayName": "Lorenz Wittmann GmbH",
      "id": "lorenzwittmanngmbh-91c985",
      "locationSet": {"include": ["001"]},
      "tags": {
        "amenity": "recycling",
        "operator": "Lorenz Wittmann GmbH"
      }
    },
    {
      "displayName": "LTC",
      "id": "ltc-91c985",
      "locationSet": {"include": ["001"]},
      "tags": {
        "amenity": "recycling",
        "operator": "LTC"
      }
    },
    {
      "displayName": "Lüleburgaz Belediyesi",
      "id": "luleburgazbelediyesi-91c985",
      "locationSet": {"include": ["001"]},
      "tags": {
        "amenity": "recycling",
        "operator": "Lüleburgaz Belediyesi"
      }
    },
    {
      "displayName": "MA48",
      "id": "ma48-91c985",
      "locationSet": {"include": ["001"]},
      "tags": {
        "amenity": "recycling",
        "operator": "MA48"
      }
    },
    {
      "displayName": "Mairie d'Evry",
      "id": "mairiedevry-91c985",
      "locationSet": {"include": ["001"]},
      "tags": {
        "amenity": "recycling",
        "operator": "Mairie d'Evry"
      }
    },
    {
      "displayName": "Mairie de Paris",
      "id": "mairiedeparis-91c985",
      "locationSet": {"include": ["001"]},
      "tags": {
        "amenity": "recycling",
        "operator": "Mairie de Paris"
      }
    },
    {
      "displayName": "Malteser Hilfsdienst",
      "id": "malteserhilfsdienst-91c985",
      "locationSet": {"include": ["001"]},
      "tags": {
        "amenity": "recycling",
        "operator": "Malteser Hilfsdienst"
      }
    },
    {
      "displayName": "Malteser Hilfsdienst e.V.",
      "id": "malteserhilfsdienstev-91c985",
      "locationSet": {"include": ["001"]},
      "tags": {
        "amenity": "recycling",
        "operator": "Malteser Hilfsdienst e.V."
      }
    },
    {
      "displayName": "MEBRA Märkische Entsorgungsgesellschaft Brandenburg mbH",
      "id": "mebramarkischeentsorgungsgesellschaftbrandenburgmbh-91c985",
      "locationSet": {"include": ["001"]},
      "tags": {
        "amenity": "recycling",
        "operator": "MEBRA Märkische Entsorgungsgesellschaft Brandenburg mbH"
      }
    },
    {
      "displayName": "Město Sokolov",
      "id": "mestosokolov-91c985",
      "locationSet": {"include": ["001"]},
      "tags": {
        "amenity": "recycling",
        "operator": "Město Sokolov"
      }
    },
    {
      "displayName": "Métropole d'Aix-Marseille-Provence",
      "id": "metropoledaixmarseilleprovence-91c985",
      "locationSet": {"include": ["001"]},
      "tags": {
        "amenity": "recycling",
        "operator": "Métropole d'Aix-Marseille-Provence"
      }
    },
    {
      "displayName": "Métropole de Lyon",
      "id": "metropoledelyon-91c985",
      "locationSet": {"include": ["001"]},
      "tags": {
        "amenity": "recycling",
        "operator": "Métropole de Lyon"
      }
    },
    {
      "displayName": "Miejski Zakład Zieleni, Dróg i Ochrony Środowiska w Kołobrzegu Sp. z o.o.",
      "id": "miejskizakladzielenidrogiochronysrodowiskawkolobrzeguspzoo-91c985",
      "locationSet": {"include": ["001"]},
      "tags": {
        "amenity": "recycling",
        "operator": "Miejski Zakład Zieleni, Dróg i Ochrony Środowiska w Kołobrzegu Sp. z o.o."
      }
    },
    {
      "displayName": "Migros",
      "id": "migros-91c985",
      "locationSet": {"include": ["001"]},
      "tags": {
        "amenity": "recycling",
        "operator": "Migros"
      }
    },
    {
      "displayName": "Ministerio de Ambiente y Espacio Público",
      "id": "ministeriodeambienteyespaciopublico-91c985",
      "locationSet": {"include": ["001"]},
      "tags": {
        "amenity": "recycling",
        "operator": "Ministerio de Ambiente y Espacio Público"
      }
    },
    {
      "displayName": "Morlaix Communauté",
      "id": "morlaixcommunaute-91c985",
      "locationSet": {"include": ["001"]},
      "tags": {
        "amenity": "recycling",
        "operator": "Morlaix Communauté"
      }
    },
    {
      "displayName": "Nausicaa",
      "id": "nausicaa-91c985",
      "locationSet": {"include": ["001"]},
      "tags": {
        "amenity": "recycling",
        "operator": "Nausicaa"
      }
    },
    {
      "displayName": "Next Textiles Association",
      "id": "nexttextilesassociation-91c985",
      "locationSet": {"include": ["001"]},
      "tags": {
        "amenity": "recycling",
        "operator": "Next Textiles Association"
      }
    },
    {
      "displayName": "Norfolk County Council",
      "id": "norfolkcountycouncil-91c985",
      "locationSet": {"include": ["001"]},
      "tags": {
        "amenity": "recycling",
        "operator": "Norfolk County Council"
      }
    },
    {
      "displayName": "Nottingham City Council",
      "id": "nottinghamcitycouncil-91c985",
      "locationSet": {"include": ["001"]},
      "tags": {
        "amenity": "recycling",
        "operator": "Nottingham City Council"
      }
    },
    {
      "displayName": "ODEBRECHT",
      "id": "odebrecht-91c985",
      "locationSet": {"include": ["001"]},
      "tags": {
        "amenity": "recycling",
        "operator": "ODEBRECHT"
      }
    },
    {
      "displayName": "Oliobox",
      "id": "oliobox-91c985",
      "locationSet": {"include": ["001"]},
      "tags": {
        "amenity": "recycling",
        "operator": "Oliobox"
      }
    },
    {
      "displayName": "Parish of St. Helier",
      "id": "parishofsthelier-91c985",
      "locationSet": {"include": ["001"]},
      "tags": {
        "amenity": "recycling",
        "operator": "Parish of St. Helier"
      }
    },
    {
      "displayName": "Polski Czerwony Krzyż",
      "id": "polskiczerwonykrzyz-91c985",
      "locationSet": {"include": ["001"]},
      "tags": {
        "amenity": "recycling",
        "operator": "Polski Czerwony Krzyż"
      }
    },
    {
      "displayName": "Porsiete",
      "id": "porsiete-91c985",
      "locationSet": {"include": ["001"]},
      "tags": {
        "amenity": "recycling",
        "operator": "Porsiete"
      }
    },
    {
      "displayName": "Pranta de Reciclaxe da Mancomunidade de Concellos do Barbanza",
      "id": "prantadereciclaxedamancomunidadedeconcellosdobarbanza-91c985",
      "locationSet": {"include": ["001"]},
      "tags": {
        "amenity": "recycling",
        "operator": "Pranta de Reciclaxe da Mancomunidade de Concellos do Barbanza"
      }
    },
    {
      "displayName": "Pražské služby a.s.",
      "id": "prazskesluzbyas-91c985",
      "locationSet": {"include": ["001"]},
      "tags": {
        "amenity": "recycling",
        "operator": "Pražské služby a.s."
      }
    },
    {
      "displayName": "Punto Seguro",
      "id": "puntoseguro-91c985",
      "locationSet": {"include": ["001"]},
      "tags": {
        "amenity": "recycling",
        "operator": "Punto Seguro"
      }
    },
    {
      "displayName": "RAD",
      "id": "rad-91c985",
      "locationSet": {"include": ["001"]},
      "tags": {
        "amenity": "recycling",
        "operator": "RAD"
      }
    },
    {
      "displayName": "RD4",
      "id": "rd4-91c985",
      "locationSet": {"include": ["001"]},
      "tags": {
        "amenity": "recycling",
        "operator": "RD4"
      }
    },
    {
      "displayName": "Récylum",
      "id": "recylum-91c985",
      "locationSet": {"include": ["001"]},
      "tags": {
        "amenity": "recycling",
        "operator": "Récylum"
      }
    },
    {
      "displayName": "reloga",
      "id": "reloga-91c985",
      "locationSet": {"include": ["001"]},
      "tags": {
        "amenity": "recycling",
        "operator": "reloga"
      }
    },
    {
      "displayName": "Remondis",
      "id": "remondis-6737d9",
      "locationSet": {"include": ["de"]},
      "tags": {
        "amenity": "recycling",
        "operator": "Remondis",
        "operator:wikidata": "Q884975"
      }
    },
    {
      "displayName": "Rennes Métropole",
      "id": "rennesmetropole-91c985",
      "locationSet": {"include": ["001"]},
      "tags": {
        "amenity": "recycling",
        "operator": "Rennes Métropole"
      }
    },
    {
      "displayName": "Retextil Recycling International",
      "id": "retextilrecyclinginternational-91c985",
      "locationSet": {"include": ["001"]},
      "tags": {
        "amenity": "recycling",
        "operator": "Retextil Recycling International"
      }
    },
    {
      "displayName": "Rhenus",
      "id": "rhenus-91c985",
      "locationSet": {"include": ["001"]},
      "tags": {
        "amenity": "recycling",
        "operator": "Rhenus"
      }
    },
    {
      "displayName": "Rhenus Logistics",
      "id": "rhenuslogistics-91c985",
      "locationSet": {"include": ["001"]},
      "tags": {
        "amenity": "recycling",
        "operator": "Rhenus Logistics"
      }
    },
    {
      "displayName": "Rhenus Logostics",
      "id": "rhenuslogostics-91c985",
      "locationSet": {"include": ["001"]},
      "tags": {
        "amenity": "recycling",
        "operator": "Rhenus Logostics"
      }
    },
    {
      "displayName": "Rinki",
      "id": "rinki-91c985",
      "locationSet": {"include": ["001"]},
      "tags": {
        "amenity": "recycling",
        "operator": "Rinki"
      }
    },
    {
      "displayName": "Røde Kors",
      "id": "rodekors-91c985",
      "locationSet": {"include": ["001"]},
      "tags": {
        "amenity": "recycling",
        "operator": "Røde Kors"
      }
    },
    {
      "displayName": "Rodez Agglomération",
      "id": "rodezagglomeration-91c985",
      "locationSet": {"include": ["001"]},
      "tags": {
        "amenity": "recycling",
        "operator": "Rodez Agglomération"
      }
    },
    {
      "displayName": "Roteb",
      "id": "roteb-91c985",
      "locationSet": {"include": ["001"]},
      "tags": {
        "amenity": "recycling",
        "operator": "Roteb"
      }
    },
    {
      "displayName": "ROVA",
      "id": "rova-91c985",
      "locationSet": {"include": ["001"]},
      "tags": {
        "amenity": "recycling",
        "operator": "ROVA"
      }
    },
    {
      "displayName": "Saint-Étienne Métropole",
      "id": "saintetiennemetropole-91c985",
      "locationSet": {"include": ["001"]},
      "tags": {
        "amenity": "recycling",
        "operator": "Saint-Étienne Métropole"
      }
    },
    {
      "displayName": "SAKO",
      "id": "sako-91c985",
      "locationSet": {"include": ["001"]},
      "tags": {
        "amenity": "recycling",
        "operator": "SAKO"
      }
    },
    {
      "displayName": "SBA",
      "id": "sba-91c985",
      "locationSet": {"include": ["001"]},
      "tags": {
        "amenity": "recycling",
        "operator": "SBA"
      }
    },
    {
      "displayName": "Schönmackers",
      "id": "schonmackers-91c985",
      "locationSet": {"include": ["001"]},
      "tags": {
        "amenity": "recycling",
        "operator": "Schönmackers"
      }
    },
    {
      "displayName": "Scope",
      "id": "scope-91c985",
      "locationSet": {"include": ["001"]},
      "tags": {
        "amenity": "recycling",
        "operator": "Scope"
      }
    },
    {
      "displayName": "SEA",
      "id": "sea-91c985",
      "locationSet": {"include": ["001"]},
      "tags": {
        "amenity": "recycling",
        "operator": "SEA"
      }
    },
    {
      "displayName": "Seattle University",
      "id": "seattleuniversity-91c985",
      "locationSet": {"include": ["001"]},
      "tags": {
        "amenity": "recycling",
        "operator": "Seattle University"
      }
    },
    {
      "displayName": "Secretaria de Serviços Públicos",
      "id": "secretariadeservicospublicos-91c985",
      "locationSet": {"include": ["001"]},
      "tags": {
        "amenity": "recycling",
        "operator": "Secretaria de Serviços Públicos"
      }
    },
    {
      "displayName": "SEMOCTOM",
      "id": "semoctom-91c985",
      "locationSet": {"include": ["001"]},
      "tags": {
        "amenity": "recycling",
        "operator": "SEMOCTOM"
      }
    },
    {
      "displayName": "Šiaulių regiono atliekų tvarkymo centras",
      "id": "siauliuregionoatliekutvarkymocentras-91c985",
      "locationSet": {"include": ["001"]},
      "tags": {
        "amenity": "recycling",
        "operator": "Šiaulių regiono atliekų tvarkymo centras"
      }
    },
    {
      "displayName": "Sictom du Marsan",
      "id": "sictomdumarsan-91c985",
      "locationSet": {"include": ["001"]},
      "tags": {
        "amenity": "recycling",
        "operator": "Sictom du Marsan"
      }
    },
    {
      "displayName": "Sidefage",
      "id": "sidefage-91c985",
      "locationSet": {"include": ["001"]},
      "tags": {
        "amenity": "recycling",
        "operator": "Sidefage"
      }
    },
    {
      "displayName": "SIEEOM Sud-Quercy",
      "id": "sieeomsudquercy-91c985",
      "locationSet": {"include": ["001"]},
      "tags": {
        "amenity": "recycling",
        "operator": "SIEEOM Sud-Quercy"
      }
    },
    {
      "displayName": "SIETOM de Chalosse",
      "id": "sietomdechalosse-91c985",
      "locationSet": {"include": ["001"]},
      "tags": {
        "amenity": "recycling",
        "operator": "SIETOM de Chalosse"
      }
    },
    {
      "displayName": "Silim Environnement",
      "id": "silimenvironnement-91c985",
      "locationSet": {"include": ["001"]},
      "tags": {
        "amenity": "recycling",
        "operator": "Silim Environnement"
      }
    },
    {
      "displayName": "SIMAR",
      "id": "simar-91c985",
      "locationSet": {"include": ["001"]},
      "tags": {
        "amenity": "recycling",
        "operator": "SIMAR"
      }
    },
    {
      "displayName": "SIRCTOM",
      "id": "sirctom-91c985",
      "locationSet": {"include": ["001"]},
      "tags": {
        "amenity": "recycling",
        "operator": "SIRCTOM"
      }
    },
    {
      "displayName": "SISTO",
      "id": "sisto-91c985",
      "locationSet": {"include": ["001"]},
      "tags": {
        "amenity": "recycling",
        "operator": "SISTO"
      }
    },
    {
      "displayName": "SITCOM - Côte sud des Landes",
      "id": "sitcomcotesuddeslandes-91c985",
      "locationSet": {"include": ["001"]},
      "tags": {
        "amenity": "recycling",
        "operator": "SITCOM - Côte sud des Landes"
      }
    },
    {
      "displayName": "Sitcom du Marsan",
      "id": "sitcomdumarsan-91c985",
      "locationSet": {"include": ["001"]},
      "tags": {
        "amenity": "recycling",
        "operator": "Sitcom du Marsan"
      }
    },
    {
      "displayName": "SIVOM",
      "id": "sivom-91c985",
      "locationSet": {"include": ["001"]},
      "tags": {
        "amenity": "recycling",
        "operator": "SIVOM"
      }
    },
    {
      "displayName": "Služby města Český Krumlov s.r.o.",
      "id": "sluzbymestaceskykrumlovsro-91c985",
      "locationSet": {"include": ["001"]},
      "tags": {
        "amenity": "recycling",
        "operator": "Služby města Český Krumlov s.r.o."
      }
    },
    {
      "displayName": "SMAV",
      "id": "smav-91c985",
      "locationSet": {"include": ["001"]},
      "tags": {
        "amenity": "recycling",
        "operator": "SMAV"
      }
    },
    {
      "displayName": "SMD3",
      "id": "smd3-91c985",
      "locationSet": {"include": ["001"]},
      "tags": {
        "amenity": "recycling",
        "operator": "SMD3"
      }
    },
    {
      "displayName": "SMICOTOM",
      "id": "smicotom-91c985",
      "locationSet": {"include": ["001"]},
      "tags": {
        "amenity": "recycling",
        "operator": "SMICOTOM"
      }
    },
    {
      "displayName": "SMICVAL",
      "id": "smicval-91c985",
      "locationSet": {"include": ["001"]},
      "tags": {
        "amenity": "recycling",
        "operator": "SMICVAL"
      }
    },
    {
      "displayName": "SMND",
      "id": "smnd-91c985",
      "locationSet": {"include": ["001"]},
      "tags": {
        "amenity": "recycling",
        "operator": "SMND"
      }
    },
    {
      "displayName": "SOEX",
      "id": "soex-91c985",
      "locationSet": {"include": ["001"]},
      "tags": {
        "amenity": "recycling",
        "operator": "SOEX"
      }
    },
    {
      "displayName": "Solidarité Textiles",
      "id": "solidaritetextiles-91c985",
      "locationSet": {"include": ["001"]},
      "tags": {
        "amenity": "recycling",
        "operator": "Solidarité Textiles"
      }
    },
    {
      "displayName": "Sorpa",
      "id": "sorpa-91c985",
      "locationSet": {"include": ["001"]},
      "tags": {
        "amenity": "recycling",
        "operator": "Sorpa"
      }
    },
    {
      "displayName": "SP Textilverwertung",
      "id": "sptextilverwertung-91c985",
      "locationSet": {"include": ["001"]},
      "tags": {
        "amenity": "recycling",
        "operator": "SP Textilverwertung"
      }
    },
    {
      "displayName": "Stadswerk 072",
      "id": "stadswerk072-91c985",
      "locationSet": {"include": ["001"]},
      "tags": {
        "amenity": "recycling",
        "operator": "Stadswerk 072"
      }
    },
    {
      "displayName": "Stadt Augsburg (AWS)",
      "id": "stadtaugsburgaws-91c985",
      "locationSet": {"include": ["001"]},
      "tags": {
        "amenity": "recycling",
        "operator": "Stadt Augsburg (AWS)"
      }
    },
    {
      "displayName": "Stadt Bern",
      "id": "stadtbern-91c985",
      "locationSet": {"include": ["001"]},
      "tags": {
        "amenity": "recycling",
        "operator": "Stadt Bern"
      }
    },
    {
      "displayName": "Stadt Hamm",
      "id": "stadthamm-91c985",
      "locationSet": {"include": ["001"]},
      "tags": {
        "amenity": "recycling",
        "operator": "Stadt Hamm"
      }
    },
    {
      "displayName": "Stadt Heidelberg",
      "id": "stadtheidelberg-91c985",
      "locationSet": {"include": ["001"]},
      "tags": {
        "amenity": "recycling",
        "operator": "Stadt Heidelberg"
      }
    },
    {
      "displayName": "Stadt Kamp-Lintfort",
      "id": "stadtkamplintfort-91c985",
      "locationSet": {"include": ["001"]},
      "tags": {
        "amenity": "recycling",
        "operator": "Stadt Kamp-Lintfort"
      }
    },
    {
      "displayName": "Stadt Karlsruhe",
      "id": "stadtkarlsruhe-91c985",
      "locationSet": {"include": ["001"]},
      "tags": {
        "amenity": "recycling",
        "operator": "Stadt Karlsruhe"
      }
    },
    {
      "displayName": "Stadt Karlsruhe Amt für Abfallwirtschaft",
      "id": "stadtkarlsruheamtfurabfallwirtschaft-91c985",
      "locationSet": {"include": ["001"]},
      "tags": {
        "amenity": "recycling",
        "operator": "Stadt Karlsruhe Amt für Abfallwirtschaft"
      }
    },
    {
      "displayName": "Stadt Krems",
      "id": "stadtkrems-91c985",
      "locationSet": {"include": ["001"]},
      "tags": {
        "amenity": "recycling",
        "operator": "Stadt Krems"
      }
    },
    {
      "displayName": "Stadt Landshut",
      "id": "stadtlandshut-91c985",
      "locationSet": {"include": ["001"]},
      "tags": {
        "amenity": "recycling",
        "operator": "Stadt Landshut"
      }
    },
    {
      "displayName": "Stadt Stuttgart",
      "id": "stadtstuttgart-91c985",
      "locationSet": {"include": ["001"]},
      "tags": {
        "amenity": "recycling",
        "operator": "Stadt Stuttgart"
      }
    },
    {
      "displayName": "Stadtfriedhof Göttingen",
      "id": "stadtfriedhofgottingen-91c985",
      "locationSet": {"include": ["001"]},
      "tags": {
        "amenity": "recycling",
        "operator": "Stadtfriedhof Göttingen"
      }
    },
    {
      "displayName": "Stadtreiniger Kassel",
      "id": "stadtreinigerkassel-91c985",
      "locationSet": {"include": ["001"]},
      "tags": {
        "amenity": "recycling",
        "operator": "Stadtreiniger Kassel"
      }
    },
    {
      "displayName": "Stadtreinigung Hamburg",
      "id": "stadtreinigunghamburg-d0aa76",
      "locationSet": {
        "include": ["de-hh.geojson"]
      },
      "tags": {
        "amenity": "recycling",
        "operator": "Stadtreinigung Hamburg",
        "operator:wikidata": "Q1532474"
      }
    },
    {
      "displayName": "Stadtreinigung Leipzig",
      "id": "stadtreinigungleipzig-91c985",
      "locationSet": {"include": ["001"]},
      "tags": {
        "amenity": "recycling",
        "operator": "Stadtreinigung Leipzig"
      }
    },
    {
      "displayName": "Stadtreinigungs-, Transport- und Baubetrieb Lüdenscheid",
      "id": "stadtreinigungstransportundbaubetriebludenscheid-91c985",
      "locationSet": {"include": ["001"]},
      "tags": {
        "amenity": "recycling",
        "operator": "Stadtreinigungs-, Transport- und Baubetrieb Lüdenscheid"
      }
    },
    {
      "displayName": "Step",
      "id": "step-91c985",
      "locationSet": {"include": ["001"]},
      "tags": {
        "amenity": "recycling",
        "operator": "Step"
      }
    },
    {
      "displayName": "Subsecretaria de ambiente y espacio público",
      "id": "subsecretariadeambienteyespaciopublico-91c985",
      "locationSet": {"include": ["001"]},
      "tags": {
        "amenity": "recycling",
        "operator": "Subsecretaria de ambiente y espacio público"
      }
    },
    {
      "displayName": "Suez",
      "id": "suez-91c985",
      "locationSet": {"include": ["001"]},
      "tags": {
        "amenity": "recycling",
        "operator": "Suez"
      }
    },
    {
      "displayName": "Suez Süd GmbH",
      "id": "suezsudgmbh-91c985",
      "locationSet": {"include": ["001"]},
      "tags": {
        "amenity": "recycling",
        "operator": "Suez Süd GmbH"
      }
    },
    {
      "displayName": "SYBERT",
      "id": "sybert-91c985",
      "locationSet": {"include": ["001"]},
      "tags": {
        "amenity": "recycling",
        "operator": "SYBERT"
      }
    },
    {
      "displayName": "SYDED",
      "id": "syded-91c985",
      "locationSet": {"include": ["001"]},
      "tags": {
        "amenity": "recycling",
        "operator": "SYDED"
      }
    },
    {
      "displayName": "Sympany",
      "id": "sympany-91c985",
      "locationSet": {"include": ["001"]},
      "tags": {
        "amenity": "recycling",
        "operator": "Sympany"
      }
    },
    {
      "displayName": "Syndicat d'Elimination des Déchets de la Haute Lande",
      "id": "syndicatdeliminationdesdechetsdelahautelande-91c985",
      "locationSet": {"include": ["001"]},
      "tags": {
        "amenity": "recycling",
        "operator": "Syndicat d'Elimination des Déchets de la Haute Lande"
      }
    },
    {
      "displayName": "Syndicat de traitement des déchets du sud-est du Morbihan",
      "id": "syndicatdetraitementdesdechetsdusudestdumorbihan-91c985",
      "locationSet": {"include": ["001"]},
      "tags": {
        "amenity": "recycling",
        "operator": "Syndicat de traitement des déchets du sud-est du Morbihan"
      }
    },
    {
      "displayName": "Syndicat de traitement des déchets du Sud-Est Morbihan",
      "id": "syndicatdetraitementdesdechetsdusudestmorbihan-91c985",
      "locationSet": {"include": ["001"]},
      "tags": {
        "amenity": "recycling",
        "operator": "Syndicat de traitement des déchets du Sud-Est Morbihan"
      }
    },
    {
      "displayName": "Syndicat mixte d’élimination des déchets de l’arrondissement de Rouen",
      "id": "syndicatmixtedeliminationdesdechetsdelarrondissementderouen-91c985",
      "locationSet": {"include": ["001"]},
      "tags": {
        "amenity": "recycling",
        "operator": "Syndicat mixte d’élimination des déchets de l’arrondissement de Rouen"
      }
    },
    {
      "displayName": "Syndicat Mixte du Point Fort",
      "id": "syndicatmixtedupointfort-91c985",
      "locationSet": {"include": ["001"]},
      "tags": {
        "amenity": "recycling",
        "operator": "Syndicat Mixte du Point Fort"
      }
    },
    {
      "displayName": "Syndicat mixte intercommunal de collecte et de traitement des ordures ménagères des Pays de Vilaine",
      "id": "syndicatmixteintercommunaldecollecteetdetraitementdesorduresmenageresdespaysdevilaine-91c985",
      "locationSet": {"include": ["001"]},
      "tags": {
        "amenity": "recycling",
        "operator": "Syndicat mixte intercommunal de collecte et de traitement des ordures ménagères des Pays de Vilaine"
      }
    },
    {
      "displayName": "Syndicat mixte intercommunal pour la collecte et le traitement des ordures ménagères Sud-Est 35",
      "id": "syndicatmixteintercommunalpourlacollecteetletraitementdesorduresmenageressudest35-91c985",
      "locationSet": {"include": ["001"]},
      "tags": {
        "amenity": "recycling",
        "operator": "Syndicat mixte intercommunal pour la collecte et le traitement des ordures ménagères Sud-Est 35"
      }
    },
    {
      "displayName": "Szegedi Hulladékgazdálkodási Nonprofit Kft.",
      "id": "szegedihulladekgazdalkodasinonprofitkft-91c985",
      "locationSet": {"include": ["001"]},
      "tags": {
        "amenity": "recycling",
        "operator": "Szegedi Hulladékgazdálkodási Nonprofit Kft."
      }
    },
    {
      "displayName": "TBS",
      "id": "tbs-91c985",
      "locationSet": {"include": ["001"]},
      "tags": {
        "amenity": "recycling",
        "operator": "TBS"
      }
    },
    {
      "displayName": "team orange",
      "id": "teamorange-91c985",
      "locationSet": {"include": ["001"]},
      "tags": {
        "amenity": "recycling",
        "operator": "team orange"
      }
    },
    {
      "displayName": "Technische Betriebe Remscheid",
      "id": "technischebetrieberemscheid-91c985",
      "locationSet": {"include": ["001"]},
      "tags": {
        "amenity": "recycling",
        "operator": "Technische Betriebe Remscheid"
      }
    },
    {
      "displayName": "Technische Betriebe Velbert AöR",
      "id": "technischebetriebevelbertaor-91c985",
      "locationSet": {"include": ["001"]},
      "tags": {
        "amenity": "recycling",
        "operator": "Technische Betriebe Velbert AöR"
      }
    },
    {
      "displayName": "Tekniska verken",
      "id": "tekniskaverken-91c985",
      "locationSet": {"include": ["001"]},
      "tags": {
        "amenity": "recycling",
        "operator": "Tekniska verken"
      }
    },
    {
      "displayName": "Terre",
      "id": "terre-91c985",
      "locationSet": {"include": ["001"]},
      "tags": {
        "amenity": "recycling",
        "operator": "Terre"
      }
    },
    {
      "displayName": "Terre ASBL",
      "id": "terreasbl-91c985",
      "locationSet": {"include": ["001"]},
      "tags": {
        "amenity": "recycling",
        "operator": "Terre ASBL"
      }
    },
    {
      "displayName": "Texaid",
      "id": "texaid-91c985",
      "locationSet": {"include": ["001"]},
      "tags": {
        "amenity": "recycling",
        "operator": "Texaid"
      }
    },
    {
      "displayName": "TEXAID Collection GmbH",
      "id": "texaidcollectiongmbh-91c985",
      "locationSet": {"include": ["001"]},
      "tags": {
        "amenity": "recycling",
        "operator": "TEXAID Collection GmbH"
      }
    },
    {
      "displayName": "TEXAID Deutschland GmbH",
      "id": "texaiddeutschlandgmbh-91c985",
      "locationSet": {"include": ["001"]},
      "tags": {
        "amenity": "recycling",
        "operator": "TEXAID Deutschland GmbH"
      }
    },
    {
      "displayName": "Texcycle",
      "id": "texcycle-91c985",
      "locationSet": {"include": ["001"]},
      "tags": {
        "amenity": "recycling",
        "operator": "Texcycle"
      }
    },
    {
      "displayName": "The Fire Fighters Charity",
      "id": "thefirefighterscharity-91c985",
      "locationSet": {"include": ["001"]},
      "tags": {
        "amenity": "recycling",
        "operator": "The Fire Fighters Charity"
      }
    },
    {
      "displayName": "Tibi",
      "id": "tibi-91c985",
      "locationSet": {"include": ["001"]},
      "tags": {
        "amenity": "recycling",
        "operator": "Tibi"
      }
    },
    {
      "displayName": "Toulouse Métropole",
      "id": "toulousemetropole-91c985",
      "locationSet": {"include": ["001"]},
      "tags": {
        "amenity": "recycling",
        "operator": "Toulouse Métropole"
      }
    },
    {
      "displayName": "Tours Métropole Val de Loire",
      "id": "toursmetropolevaldeloire-91c985",
      "locationSet": {"include": ["001"]},
      "tags": {
        "amenity": "recycling",
        "operator": "Tours Métropole Val de Loire"
      }
    },
    {
      "displayName": "TVO",
      "id": "tvo-91c985",
      "locationSet": {"include": ["001"]},
      "tags": {
        "amenity": "recycling",
        "operator": "TVO"
      }
    },
    {
      "displayName": "Twente Milieu",
      "id": "twentemilieu-91c985",
      "locationSet": {"include": ["001"]},
      "tags": {
        "amenity": "recycling",
        "operator": "Twente Milieu"
      }
    },
    {
      "displayName": "UFF",
      "id": "uff-91c985",
      "locationSet": {"include": ["001"]},
      "tags": {
        "amenity": "recycling",
        "operator": "UFF"
      }
    },
    {
      "displayName": "UIC",
      "id": "uic-91c985",
      "locationSet": {"include": ["001"]},
      "tags": {
        "amenity": "recycling",
        "operator": "UIC"
      }
    },
    {
      "displayName": "Umweltservice Bochum",
      "id": "umweltservicebochum-91c985",
      "locationSet": {"include": ["001"]},
      "tags": {
        "amenity": "recycling",
        "operator": "Umweltservice Bochum"
      }
    },
    {
      "displayName": "University of Cambridge",
      "id": "universityofcambridge-91c985",
      "locationSet": {"include": ["001"]},
      "tags": {
        "amenity": "recycling",
        "operator": "University of Cambridge"
      }
    },
    {
      "displayName": "Urbarser",
      "id": "urbarser-91c985",
      "locationSet": {"include": ["001"]},
      "tags": {
        "amenity": "recycling",
        "operator": "Urbarser"
      }
    },
    {
      "displayName": "UROLA ERDIKO MANKOMUNITATEA",
      "id": "urolaerdikomankomunitatea-91c985",
      "locationSet": {"include": ["001"]},
      "tags": {
        "amenity": "recycling",
        "operator": "UROLA ERDIKO MANKOMUNITATEA"
      }
    },
    {
      "displayName": "Urząd Miasta Opola",
      "id": "urzadmiastaopola-91c985",
      "locationSet": {"include": ["001"]},
      "tags": {
        "amenity": "recycling",
        "operator": "Urząd Miasta Opola"
      }
    },
    {
      "displayName": "USB",
      "id": "usb-91c985",
      "locationSet": {"include": ["001"]},
      "tags": {
        "amenity": "recycling",
        "operator": "USB"
      }
    },
    {
      "displayName": "USB Bochum",
      "id": "usbbochum-91c985",
      "locationSet": {"include": ["001"]},
      "tags": {
        "amenity": "recycling",
        "operator": "USB Bochum"
      }
    },
    {
      "displayName": "UW Facilities",
      "id": "uwfacilities-91c985",
      "locationSet": {"include": ["001"]},
      "tags": {
        "amenity": "recycling",
        "operator": "UW Facilities"
      }
    },
    {
      "displayName": "V.H.S. Europ",
      "id": "vhseurop-91c985",
      "locationSet": {"include": ["001"]},
      "tags": {
        "amenity": "recycling",
        "operator": "V.H.S. Europ"
      }
    },
    {
      "displayName": "Valorlis",
      "id": "valorlis-91c985",
      "locationSet": {"include": ["001"]},
      "tags": {
        "amenity": "recycling",
        "operator": "Valorlis"
      }
    },
    {
      "displayName": "Veolia",
      "id": "veolia-91c985",
      "locationSet": {"include": ["001"]},
      "tags": {
        "amenity": "recycling",
        "operator": "Veolia"
      }
    },
    {
      "displayName": "Veolia Environmental Services ( U K ) Plc",
      "id": "veoliaenvironmentalservicesukplc-91c985",
      "locationSet": {"include": ["001"]},
      "tags": {
        "amenity": "recycling",
        "operator": "Veolia Environmental Services ( U K ) Plc"
      }
    },
    {
      "displayName": "Vichy Communauté",
      "id": "vichycommunaute-91c985",
      "locationSet": {"include": ["001"]},
      "tags": {
        "amenity": "recycling",
        "operator": "Vichy Communauté"
      }
    },
    {
      "displayName": "Ville de Geneve",
      "id": "villedegeneve-91c985",
      "locationSet": {"include": ["001"]},
      "tags": {
        "amenity": "recycling",
        "operator": "Ville de Geneve"
      }
    },
    {
      "displayName": "Ville de Sevran",
      "id": "villedesevran-91c985",
      "locationSet": {"include": ["001"]},
      "tags": {
        "amenity": "recycling",
        "operator": "Ville de Sevran"
      }
    },
    {
      "displayName": "Vlaams Internationaal Centrum",
      "id": "vlaamsinternationaalcentrum-91c985",
      "locationSet": {"include": ["001"]},
      "tags": {
        "amenity": "recycling",
        "operator": "Vlaams Internationaal Centrum"
      }
    },
    {
      "displayName": "Vlaams Inzamel Centrum Textiel",
      "id": "vlaamsinzamelcentrumtextiel-91c985",
      "locationSet": {"include": ["001"]},
      "tags": {
        "amenity": "recycling",
        "operator": "Vlaams Inzamel Centrum Textiel"
      }
    },
    {
      "displayName": "Vorwerker Diakonie",
      "id": "vorwerkerdiakonie-91c985",
      "locationSet": {"include": ["001"]},
      "tags": {
        "amenity": "recycling",
        "operator": "Vorwerker Diakonie"
      }
    },
    {
      "displayName": "Waste Management",
      "id": "wastemanagement-91c985",
      "locationSet": {"include": ["001"]},
      "tags": {
        "amenity": "recycling",
        "operator": "Waste Management"
      }
    },
    {
      "displayName": "Waste4Think",
      "id": "waste4think-91c985",
      "locationSet": {"include": ["001"]},
      "tags": {
        "amenity": "recycling",
        "operator": "Waste4Think"
      }
    },
    {
      "displayName": "Wereld Missie Hulp",
      "id": "wereldmissiehulp-91c985",
      "locationSet": {"include": ["001"]},
      "tags": {
        "amenity": "recycling",
        "operator": "Wereld Missie Hulp"
      }
    },
    {
      "displayName": "Wirtschaftsbetriebe Duisburg",
      "id": "wirtschaftsbetriebeduisburg-15b788",
      "locationSet": {
        "include": ["de-nw.geojson"]
      },
      "tags": {
        "amenity": "recycling",
        "operator": "Wirtschaftsbetriebe Duisburg",
        "operator:wikidata": "Q1264552"
      }
    },
    {
      "displayName": "Wittmann",
      "id": "wittmann-91c985",
      "locationSet": {"include": ["001"]},
      "tags": {
        "amenity": "recycling",
        "operator": "Wittmann"
      }
    },
    {
      "displayName": "www.lerelais.org",
      "id": "wwwlerelaisorg-91c985",
      "locationSet": {"include": ["001"]},
      "tags": {
        "amenity": "recycling",
        "operator": "www.lerelais.org"
      }
    },
    {
      "displayName": "ZAW",
      "id": "zaw-91c985",
      "locationSet": {"include": ["001"]},
      "tags": {
        "amenity": "recycling",
        "operator": "ZAW"
      }
    },
    {
      "displayName": "Zeeuwse ReinigingsDienst B.V.",
      "id": "zeeuwsereinigingsdienstbv-91c985",
      "locationSet": {"include": ["001"]},
      "tags": {
        "amenity": "recycling",
        "operator": "Zeeuwse ReinigingsDienst B.V."
      }
    },
    {
      "displayName": "ZKE",
      "id": "zke-91c985",
      "locationSet": {"include": ["001"]},
      "tags": {
        "amenity": "recycling",
        "operator": "ZKE"
      }
    },
    {
      "displayName": "Zweckverband Abfallwirtschaft Region Hannover",
      "id": "zweckverbandabfallwirtschaftregionhannover-7d4127",
      "locationSet": {
        "include": ["de-ni.geojson"]
      },
      "matchNames": [
        "aha zweckverband abfallwirtschaft region hannover"
      ],
      "tags": {
        "amenity": "recycling",
        "operator": "Zweckverband Abfallwirtschaft Region Hannover",
        "operator:short": "aha",
        "operator:wikidata": "Q231836"
      }
    },
    {
      "displayName": "Zweckverband Abfallwirtschaft Region Trier",
      "id": "zweckverbandabfallwirtschaftregiontrier-886dbb",
      "locationSet": {
        "include": ["de-rp.geojson"]
      },
      "tags": {
        "amenity": "recycling",
        "operator": "Zweckverband Abfallwirtschaft Region Trier",
        "operator:wikidata": "Q82980882"
      }
    },
    {
      "displayName": "Zweckverband Abfallwirtschaft Straubing Stadt und Land",
      "id": "zweckverbandabfallwirtschaftstraubingstadtundland-91c985",
      "locationSet": {"include": ["001"]},
      "tags": {
        "amenity": "recycling",
        "operator": "Zweckverband Abfallwirtschaft Straubing Stadt und Land"
      }
    },
    {
      "displayName": "Zweckverband für Abfallbeseitigung Iserlohn",
      "id": "zweckverbandfurabfallbeseitigungiserlohn-91c985",
      "locationSet": {"include": ["001"]},
      "tags": {
        "amenity": "recycling",
        "operator": "Zweckverband für Abfallbeseitigung Iserlohn"
      }
    },
    {
      "displayName": "Zweckverband für Abfallwirtschaft Kempten",
      "id": "zweckverbandfurabfallwirtschaftkempten-4fb837",
      "locationSet": {
        "include": ["de-by.geojson"]
      },
      "tags": {
        "amenity": "recycling",
        "operator": "Zweckverband für Abfallwirtschaft Kempten",
        "operator:wikidata": "Q55192476"
      }
    },
    {
      "displayName": "АРТИКА СИТИ",
      "id": "48cffe-91c985",
      "locationSet": {"include": ["001"]},
      "tags": {
        "amenity": "recycling",
        "operator": "АРТИКА СИТИ"
      }
    },
    {
      "displayName": "БЕЛВТИ",
      "id": "274478-91c985",
      "locationSet": {"include": ["001"]},
      "tags": {
        "amenity": "recycling",
        "operator": "БЕЛВТИ"
      }
    },
    {
      "displayName": "БЕЛГИПС-ЭКО",
      "id": "6265fe-91c985",
      "locationSet": {"include": ["001"]},
      "tags": {
        "amenity": "recycling",
        "operator": "БЕЛГИПС-ЭКО"
      }
    },
    {
      "displayName": "Втормет",
      "id": "b8aefb-91c985",
      "locationSet": {"include": ["001"]},
      "tags": {
        "amenity": "recycling",
        "operator": "Втормет"
      }
    },
    {
      "displayName": "Екопак България",
      "id": "1f055f-91c985",
      "locationSet": {"include": ["001"]},
      "tags": {
        "amenity": "recycling",
        "operator": "Екопак България"
      }
    },
    {
      "displayName": "Київкомунсервіс",
      "id": "56168c-91c985",
      "locationSet": {"include": ["001"]},
      "tags": {
        "amenity": "recycling",
        "operator": "Київкомунсервіс"
      }
    },
    {
      "displayName": "Мегаполисресурс",
      "id": "d92cd2-91c985",
      "locationSet": {"include": ["001"]},
      "tags": {
        "amenity": "recycling",
        "operator": "Мегаполисресурс"
      }
    },
    {
      "displayName": "МКМ Логистика",
      "id": "7a158b-91c985",
      "locationSet": {"include": ["001"]},
      "tags": {
        "amenity": "recycling",
        "operator": "МКМ Логистика"
      }
    },
    {
      "displayName": "МЭБОО \"Зелёный полюс\"",
      "id": "a14179-91c985",
      "locationSet": {"include": ["001"]},
      "tags": {
        "amenity": "recycling",
        "operator": "МЭБОО \"Зелёный полюс\""
      }
    },
    {
      "displayName": "ОАО \"Белвторресурсы\"",
      "id": "44a1a7-91c985",
      "locationSet": {"include": ["001"]},
      "tags": {
        "amenity": "recycling",
        "operator": "ОАО \"Белвторресурсы\""
      }
    },
    {
      "displayName": "ООО \"АМПК\"",
      "id": "7e78eb-91c985",
      "locationSet": {"include": ["001"]},
      "tags": {
        "amenity": "recycling",
        "operator": "ООО \"АМПК\""
      }
    },
    {
      "displayName": "ООО \"Архангельский мусороперерабатывающий комбинат\"",
      "id": "8f7652-91c985",
      "locationSet": {"include": ["001"]},
      "tags": {
        "amenity": "recycling",
        "operator": "ООО \"Архангельский мусороперерабатывающий комбинат\""
      }
    },
    {
      "displayName": "ООО \"Созвездие\"",
      "id": "6f963b-91c985",
      "locationSet": {"include": ["001"]},
      "tags": {
        "amenity": "recycling",
        "operator": "ООО \"Созвездие\""
      }
    },
    {
      "displayName": "ООО «Спецтранс»",
      "id": "7d01b8-91c985",
      "locationSet": {"include": ["001"]},
      "tags": {
        "amenity": "recycling",
        "operator": "ООО «Спецтранс»"
      }
    },
    {
      "displayName": "ООО «Уралтелеком-С»",
      "id": "473d2f-91c985",
      "locationSet": {"include": ["001"]},
      "tags": {
        "amenity": "recycling",
        "operator": "ООО «Уралтелеком-С»"
      }
    },
    {
      "displayName": "ПП «Экогород»",
      "id": "783f33-91c985",
      "locationSet": {"include": ["001"]},
      "tags": {
        "amenity": "recycling",
        "operator": "ПП «Экогород»"
      }
    },
    {
      "displayName": "Сбербанк",
      "id": "fdcab6-91c985",
      "locationSet": {"include": ["001"]},
      "tags": {
        "amenity": "recycling",
        "operator": "Сбербанк"
      }
    },
    {
      "displayName": "Спецтранс",
      "id": "88f812-91c985",
      "locationSet": {"include": ["001"]},
      "tags": {
        "amenity": "recycling",
        "operator": "Спецтранс"
      }
    },
    {
      "displayName": "Чистое дело",
      "id": "110c7f-91c985",
      "locationSet": {"include": ["001"]},
      "tags": {
        "amenity": "recycling",
        "operator": "Чистое дело"
      }
    },
    {
      "displayName": "Экобокс",
      "id": "89a4e1-91c985",
      "locationSet": {"include": ["001"]},
      "tags": {
        "amenity": "recycling",
        "operator": "Экобокс"
      }
    },
    {
      "displayName": "Экотехпром",
      "id": "41e993-91c985",
      "locationSet": {"include": ["001"]},
      "tags": {
        "amenity": "recycling",
        "operator": "Экотехпром"
      }
    }
  ]
}
