{
  "properties": {
    "path": "operators/amenity/telephone",
    "preserveTags": ["^name"],
    "exclude": {
      "generic": [
        "^-$",
        "^(tele)?phone$",
        "^Locutorio$",
        "^Telecom$"
      ]
    }
  },
  "items": [
    {
      "displayName": "A1",
      "id": "a1-2be02b",
      "locationSet": {"include": ["at"]},
      "matchNames": ["telekom", "telekom austria", "a1 telekom austria", "telekom ag"],
      "tags": {
        "amenity": "telephone",
        "operator": "A1",
        "operator:wikidata": "Q279847"
      }
    },
    {
      "displayName": "Altice Portugal",
      "id": "altice-2be02b",
      "locationSet": {"include": ["pt"]},
      "matchNames": ["pt", "Portugal Telecom", "altice"],
      "tags": {
        "amenity": "telephone",
        "operator": "Altice Portugal",
        "operator:wikidata": "Q2105426"
      }
    },
    {
      "displayName": "Antel",
      "id": "antel-2be02b",
      "locationSet": {"include": ["uy"]},
      "tags": {
        "amenity": "telephone",
        "operator": "Antel",
        "operator:wikidata": "Q295780"
      }
    },
    {
      "displayName": "Arqiva",
      "id": "arqiva-2be02b",
      "locationSet": {"include": ["gb"]},
      "tags": {
        "amenity": "telephone",
        "operator": "Arqiva",
        "operator:wikidata": "Q4795774"
      }
    },
    {
      "displayName": "Bell Canada",
      "id": "bellcanada-25374a",
      "locationSet": {"include": ["ca"]},
      "matchNames": ["bell"],
      "tags": {
        "amenity": "telephone",
        "operator": "Bell Canada",
        "operator:wikidata": "Q815694"
      }
    },
    {
      "displayName": "Bezeq",
      "id": "bezeq-2be02b",
      "locationSet": {"include": ["il"]},
      "tags": {
        "amenity": "telephone",
        "operator": "Bezeq",
        "operator:wikidata": "Q853619"
      }
    },
    {
      "displayName": "Brasil Telecom",
      "id": "brasiltelecom-2be02b",
      "locationSet": {"include": ["br"]},
      "tags": {
        "amenity": "telephone",
        "operator": "Brasil Telecom",
        "operator:wikidata": "Q899130"
      }
    },
    {
      "displayName": "BSNL",
      "id": "bsnl-2be02b",
      "locationSet": {"include": ["in"]},
      "tags": {
        "amenity": "telephone",
        "operator": "BSNL",
        "operator:wikidata": "Q278834"
      }
    },
    {
      "displayName": "BT (British Telecom)",
      "id": "bt-2be02b",
      "locationSet": {"include": ["001"]},
      "matchNames": [
        "british telecom",
        "british telecommunications plc",
        "bt plc"
      ],
      "tags": {
        "amenity": "telephone",
        "operator": "BT",
        "operator:wikidata": "Q593786"
      }
    },
    {
      "displayName": "CANTV",
      "id": "cantv-2be02b",
      "locationSet": {"include": ["ve"]},
      "tags": {
        "amenity": "telephone",
        "operator": "CANTV",
        "operator:wikidata": "Q4302263"
      }
    },
    {
      "displayName": "Claro",
      "id": "claro-2be02b",
      "locationSet": {"include": ["001"]},
      "tags": {
        "amenity": "telephone",
        "operator": "Claro"
      }
    },
    {
      "displayName": "CRT/Brasil Telecom",
      "id": "crtbrasiltelecom-2be02b",
      "locationSet": {"include": ["br"]},
      "tags": {
        "amenity": "telephone",
        "operator": "CRT/Brasil Telecom"
      }
    },
    {
      "displayName": "Cyta",
      "id": "cyta-2be02b",
      "locationSet": {"include": ["Q644636"]},
      "tags": {
        "amenity": "telephone",
        "operator": "Cyta",
        "operator:wikidata": "Q3565273"
      }
    },
    {
      "displayName": "Deutsche Telekom",
      "id": "deutschetelekomag-fe847d",
      "locationSet": {"include": ["de"]},
      "matchNames": [
        "deutsche post",
        "deutsche post ag",
        "post",
        "t-com",
        "telekom",
        "telekom ag",
        "telekom deutschland",
        "telekom deutschland gmbh",
        "telecom"
      ],
      "tags": {
        "amenity": "telephone",
        "brand": "Deutsche Telekom",
        "brand:wikidata": "Q9396",
        "operator": "Deutsche Telekom AG",
        "operator:wikidata": "Q9396"
      }
    },
    {
      "displayName": "Eir",
      "id": "eir-2be02b",
      "locationSet": {"include": ["ie"]},
      "tags": {
        "amenity": "telephone",
        "operator": "Eir",
        "operator:wikidata": "Q3049473"
      }
    },
    {
      "displayName": "ethio telecom",
      "id": "etc-2be02b",
      "locationSet": {"include": ["et"]},
      "matchNames": ["etc", "Ethiopian Telecommunications Corporation"],
      "tags": {
        "amenity": "telephone",
        "operator": "ethio telecom",
        "operator:wikidata": "Q5403583"
      }
    },
    {
      "displayName": "ETECSA",
      "id": "etecsa-2be02b",
      "locationSet": {"include": ["cu"]},
      "tags": {
        "amenity": "telephone",
        "operator": "ETECSA",
        "operator:wikidata": "Q490323"
      }
    },
    {
      "displayName": "Futel",
      "id": "futel-2be02b",
      "locationSet": {"include": ["us"]},
      "tags": {
        "amenity": "telephone",
        "operator": "Futel"
      }
    },
    {
      "displayName": "Infocus Public Networks Ltd",
      "id": "infocuspublicnetworksltd-2be02b",
      "locationSet": {"include": ["gb"]},
      "tags": {
        "amenity": "telephone",
        "operator": "Infocus Public Networks Ltd"
      }
    },
    {
      "displayName": "Invitel",
      "id": "invitel-2be02b",
      "locationSet": {"include": ["hu"]},
      "tags": {
        "amenity": "telephone",
        "operator": "Invitel",
        "operator:wikidata": "Q372983"
      }
    },
    {
      "displayName": "KCom",
      "id": "kcom-2be02b",
      "locationSet": {"include": ["gb"]},
      "tags": {
        "amenity": "telephone",
        "operator": "KCom",
        "operator:wikidata": "Q15995238"
      }
    },
    {
      "displayName": "kt링커스",
      "id": "80505e-2be02b",
      "locationSet": {"include": ["kr"]},
      "tags": {
        "amenity": "telephone",
        "operator": "kt링커스",
        "operator:ko": "kt링커스"
      }
    },
    {
      "displayName": "Logitel",
      "id": "logitel-2be02b",
      "locationSet": {"include": ["mx"]},
      "tags": {
        "amenity": "telephone",
        "operator": "Logitel"
      }
    },
    {
      "displayName": "Magyar Telekom",
      "id": "magyartelekom-2be02b",
      "locationSet": {"include": ["hu"]},
      "matchNames": ["Magyar Telekom Nyrt."],
      "tags": {
        "amenity": "telephone",
        "operator": "Magyar Telekom",
        "operator:wikidata": "Q458944"
      }
    },
    {
      "displayName": "Movistar",
      "id": "movistar-2be02b",
      "locationSet": {"include": ["001"]},
      "tags": {
        "amenity": "telephone",
        "operator": "Movistar",
        "operator:wikidata": "Q967735"
      }
    },
    {
      "displayName": "Bell MTS",
      "id": "mts-2be02b",
      "locationSet": {"include": ["ca"]},
      "matchNames": ["mts"],
      "tags": {
        "amenity": "telephone",
        "operator": "Bell MTS",
        "operator:wikidata": "Q1890462"
      }
    },
    {
      "displayName": "MTS Allstream",
      "id": "mtsallstream-2be02b",
      "locationSet": {"include": ["ca"]},
      "tags": {
        "amenity": "telephone",
        "operator": "MTS Allstream"
      }
    },
    {
      "displayName": "New World Payphones",
      "id": "newworldpayphones-2be02b",
      "locationSet": {"include": ["gb"]},
      "tags": {
        "amenity": "telephone",
        "operator": "New World Payphones"
      }
    },
    {
      "displayName": "NTT東日本",
      "id": "nippontelegraphandtelephoneeast-a6a893",
      "locationSet": {
        "include": ["jp-ntt-east.geojson"]
      },
      "matchNames": ["東日本電信電話"],
      "tags": {
        "amenity": "telephone",
        "operator": "東日本電信電話株式会社",
        "operator:en": "Nippon Telegraph and Telephone East",
        "operator:ja": "東日本電信電話株式会社",
        "operator:short": "NTT東日本",
        "operator:wikidata": "Q11527212"
      }
    },
    {
      "displayName": "NTT西日本",
      "id": "nippontelegraphandtelephonewest-ff8e1b",
      "locationSet": {
        "include": ["jp-ntt-west.geojson"]
      },
      "matchNames": ["ntt西日本 (ntt east)"],
      "tags": {
        "amenity": "telephone",
        "operator": "西日本電信電話株式会社",
        "operator:en": "Nippon Telegraph and Telephone West",
        "operator:ja": "西日本電信電話株式会社",
        "operator:short": "NTT西日本",
        "operator:wikidata": "Q11628418"
      }
    },
    {
      "displayName": "O2",
      "id": "o2-2be02b",
      "locationSet": {"include": ["cz"]},
      "tags": {
        "amenity": "telephone",
        "operator": "O2"
      }
    },
    {
      "displayName": "Oi",
      "id": "oi-2be02b",
      "locationSet": {"include": ["br"]},
      "matchNames": ["Telemar"],
      "tags": {
        "amenity": "telephone",
        "operator": "Oi",
        "operator:wikidata": "Q1538731"
      }
    },
    {
      "displayName": "OPT",
      "id": "opt-2be02b",
      "locationSet": {"include": ["001"]},
      "tags": {
        "amenity": "telephone",
        "operator": "OPT"
      }
    },
    {
      "displayName": "Orange",
      "id": "orange-2be02b",
      "locationSet": {"include": ["001"]},
      "tags": {
        "amenity": "telephone",
        "operator": "Orange",
        "operator:wikidata": "Q1431486"
      }
    },
    {
      "displayName": "OTE",
      "id": "ote-2be02b",
      "locationSet": {"include": ["gr"]},
      "tags": {
        "amenity": "telephone",
        "operator": "OTE",
        "operator:wikidata": "Q206678"
      }
    },
    {
      "displayName": "POST Luxembourg",
      "id": "pandt-2be02b",
      "locationSet": {"include": ["lu"]},
      "matchNames": ["P&T"],
      "tags": {
        "amenity": "telephone",
        "operator": "POST Luxembourg",
        "operator:wikidata": "Q1570910"
      }
    },
    {
      "displayName": "PTS",
      "id": "pacifictelemanagementservices-2be02b",
      "locationSet": {"include": ["us"]},
      "matchNames": ["Pacific Telemanagement Services"],
      "tags": {
        "amenity": "telephone",
        "operator": "PTS",
        "operator:wikidata": "Q7122727"
      }
    },
    {
      "displayName": "PLDT",
      "id": "pldt-2be02b",
      "locationSet": {"include": ["ph"]},
      "tags": {
        "amenity": "telephone",
        "operator": "PLDT",
        "operator:wikidata": "Q644167"
      }
    },
    {
      "displayName": "Post",
      "id": "post-2be02b",
      "locationSet": {"include": ["001"]},
      "tags": {
        "amenity": "telephone",
        "operator": "Post"
      }
    },
    {
      "displayName": "Ooredoo",
      "id": "qtel-2be02b",
      "locationSet": {"include": ["qa"]},
      "matchNames": ["qtel"],
      "tags": {
        "amenity": "telephone",
        "operator": "Ooredoo",
        "operator:wikidata": "Q919935"
      }
    },
    {
      "displayName": "R",
      "id": "r-2be02b",
      "locationSet": {"include": ["es"]},
      "tags": {
        "amenity": "telephone",
        "operator": "R",
        "operator:wikidata": "Q3326234"
      }
    },
    {
      "displayName": "RBL Telecom",
      "id": "rbltelecom-2be02b",
      "locationSet": {"include": ["nl"]},
      "tags": {
        "amenity": "telephone",
        "operator": "RBL Telecom"
      }
    },
    {
      "displayName": "Romtelecom",
      "id": "romtelecom-2be02b",
      "locationSet": {"include": ["ro"]},
      "tags": {
        "amenity": "telephone",
        "operator": "Romtelecom",
        "operator:wikidata": "Q4118400"
      }
    },
    {
      "displayName": "Spark New Zealand",
      "id": "sparknewzealand-2be02b",
      "locationSet": {"include": ["nz"]},
      "matchNames": ["spark", "spark nz"],
      "tags": {
        "amenity": "telephone",
        "operator": "Spark New Zealand",
        "operator:wikidata": "Q1549526"
      }
    },
    {
      "displayName": "Spectrum Interactive",
      "id": "spectruminteractive-2be02b",
      "locationSet": {"include": ["gb"]},
      "tags": {
        "amenity": "telephone",
        "operator": "Spectrum Interactive"
      }
    },
    {
      "displayName": "Swisscom",
      "id": "swisscom-2be02b",
      "locationSet": {"include": ["ch"]},
      "matchNames": ["Swisscom (Schweiz) AG"],
      "tags": {
        "amenity": "telephone",
        "operator": "Swisscom",
        "operator:wikidata": "Q644324"
      }
    },
    {
      "displayName": "TIM (Italia)",
      "id": "telecomitalia-2be02b",
      "locationSet": {"include": ["it"]},
      "matchNames": ["Telecom Italia", "TIM S.p.A."],
      "tags": {
        "amenity": "telephone",
        "operator": "TIM",
        "operator:wikidata": "Q144617"
      }
    },
    {
      "displayName": "Telefónica",
      "id": "telefonica-2be02b",
      "locationSet": {"include": ["001"]},
      "tags": {
        "amenity": "telephone",
        "operator": "Telefónica",
        "operator:wikidata": "Q160229"
      }
    },
    {
      "displayName": "Telefónica de Argentina S.A.",
      "id": "telefonicadeargentinasa-2be02b",
      "locationSet": {"include": ["ar"]},
      "tags": {
        "amenity": "telephone",
        "operator": "Telefónica de Argentina S.A.",
        "operator:wikidata": "Q3517292"
      }
    },
    {
      "displayName": "Telefónica de España, SAU",
      "id": "telefonicadeespanasau-2be02b",
      "locationSet": {"include": ["001"]},
      "tags": {
        "amenity": "telephone",
        "operator": "Telefónica de España, SAU"
      }
    },
    {
      "displayName": "Telefónica España",
      "id": "telefonicaespana-2be02b",
      "locationSet": {"include": ["001"]},
      "tags": {
        "amenity": "telephone",
        "operator": "Telefónica España"
      }
    },
    {
      "displayName": "Telefónica O2",
      "id": "telefonicao2-2be02b",
      "locationSet": {"include": ["001"]},
      "tags": {
        "amenity": "telephone",
        "operator": "Telefónica O2"
      }
    },
    {
      "displayName": "Telefónica S. A.",
      "id": "telefonicasa-2be02b",
      "locationSet": {"include": ["001"]},
      "tags": {
        "amenity": "telephone",
        "operator": "Telefónica S. A."
      }
    },
    {
      "displayName": "Telenor",
      "id": "telenor-2be02b",
      "locationSet": {"include": ["001"]},
      "tags": {
        "amenity": "telephone",
        "operator": "Telenor",
        "operator:wikidata": "Q3517292"
      }
    },
    {
      "displayName": "Telkom",
      "id": "telkom-2be02b",
      "locationSet": {"include": ["za"]},
      "tags": {
        "amenity": "telephone",
        "operator": "Telkom",
        "operator:wikidata": "Q1818970"
      }
    },
    {
      "displayName": "Telmex",
      "id": "telmex-2be02b",
      "locationSet": {"include": ["mx"]},
      "tags": {
        "amenity": "telephone",
        "operator": "Telmex",
        "operator:wikidata": "Q1420164"
      }
    },
    {
      "displayName": "Telstra",
      "id": "telstra-2be02b",
      "locationSet": {"include": ["au"]},
      "tags": {
        "amenity": "telephone",
        "operator": "Telstra",
        "operator:wikidata": "Q721162"
      }
    },
    {
      "displayName": "Telus",
      "id": "telus-25374a",
      "locationSet": {"include": ["ca"]},
      "tags": {
        "amenity": "telephone",
        "operator": "Telus",
        "operator:wikidata": "Q165858"
      }
    },
    {
      "displayName": "Telecom Malaysia",
      "id": "tm-2be02b",
      "locationSet": {"include": ["my"]},
      "tags": {
        "amenity": "telephone",
        "operator": "Telecom Malaysia",
        "operator:short": "TM",
        "operator:wikidata": "Q1640639"
      }
    },
    {
      "displayName": "TOT",
      "id": "tot-2be02b",
      "locationSet": {"include": ["th"]},
      "tags": {
        "amenity": "telephone",
        "operator": "TOT",
        "operator:wikidata": "Q1590599"
      }
    },
    {
      "displayName": "Türk Telekom",
      "id": "turktelekom-2be02b",
      "locationSet": {"include": ["tr"]},
      "tags": {
        "amenity": "telephone",
        "operator": "Türk Telekom",
        "operator:wikidata": "Q263700"
      }
    },
    {
      "displayName": "Tigo",
      "id": "une-2be02b",
      "locationSet": {"include": ["co"]},
      "matchNames": ["une"],
      "tags": {
        "amenity": "telephone",
        "operator": "Tigo",
        "operator:wikidata": "Q6155026"
      }
    },
    {
      "displayName": "Uni Stuttgart",
      "id": "unistuttgart-2be02b",
      "locationSet": {"include": ["de-bw.geojson"]},
      "tags": {
        "amenity": "telephone",
        "operator": "Uni Stuttgart"
      }
    },
    {
      "displayName": "Vivo",
      "id": "vivo-2be02b",
      "locationSet": {"include": ["br"]},
      "tags": {
        "amenity": "telephone",
        "operator": "Vivo",
        "operator:wikidata": "Q1428656"
      }
    },
    {
      "displayName": "ΟΤΕ",
      "id": "387537-2be02b",
      "locationSet": {"include": ["gr"]},
      "tags": {
        "amenity": "telephone",
        "operator": "ΟΤΕ",
        "operator:wikidata": "Q206678"
      }
    },
    {
      "displayName": "АТС",
      "id": "534afc-2be02b",
      "locationSet": {"include": ["ru"]},
      "tags": {
        "amenity": "telephone",
        "operator": "АТС"
      }
    },
    {
      "displayName": "Башинформсвязь",
      "id": "137ef4-2be02b",
      "locationSet": {"include": ["ru"]},
      "tags": {
        "amenity": "telephone",
        "operator": "Башинформсвязь",
        "operator:wikidata": "Q4080105"
      }
    },
    {
      "displayName": "Белтелеком",
      "id": "672155-2be02b",
      "locationSet": {"include": ["by"]},
      "matchNames": ["РУП «Белтелеком»"],
      "tags": {
        "amenity": "telephone",
        "operator": "Белтелеком",
        "operator:wikidata": "Q4082979"
      }
    },
    {
      "displayName": "Ростелеком",
      "id": "489110-2be02b",
      "locationSet": {"include": ["ru"]},
      "matchNames": ["ОАО \"Ростелеком\"", "ПАО «Ростелеком»", "Центртелеком"],
      "tags": {
        "amenity": "telephone",
        "operator": "Ростелеком",
        "operator:wikidata": "Q1477012"
      }
    },
    {
      "displayName": "Россвязь",
      "id": "9c761b-2be02b",
      "locationSet": {"include": ["ru"]},
      "tags": {
        "amenity": "telephone",
        "operator": "Россвязь"
      }
    },
    {
      "displayName": "בזק",
      "id": "4272eb-2be02b",
      "locationSet": {"include": ["il"]},
      "tags": {
        "amenity": "telephone",
        "operator": "בזק",
        "operator:en": "Bezeq",
        "operator:he": "בזק",
        "operator:wikidata": "Q853619"
      }
    },
    {
      "displayName": "中華電信",
      "id": "chunghwatelecom-ac3b33",
      "locationSet": {"include": ["tw"]},
      "tags": {
        "amenity": "telephone",
        "operator": "中華電信",
        "operator:en": "Chunghwa Telecom",
        "operator:wikidata": "Q717531",
        "operator:zh": "中華電信"
      }
    }
  ]
}
