{
  "properties": {
    "path": "operators/amenity/ticket_validator",
    "exclude": {"generic": ["^ticket_validator$"]}
  },
  "items": [
    {
      "displayName": "AT HOP Validator",
      "id": "at-8269c0",
      "locationSet": {"include": ["nz"]},
      "matchNames": ["auckland transport"],
      "tags": {
        "amenity": "ticket_validator",
        "operator": "AT",
        "operator:wikidata": "Q4819567"
      }
    },
    {
      "displayName": "Caltrain",
      "id": "caltrain-883676",
      "locationSet": {
        "include": [[-122.4, 37.1, 80]]
      },
      "tags": {
        "amenity": "ticket_validator",
        "network:wikidata": "Q166817",
        "operator": "Caltrain"
      }
    },
    {
      "displayName": "CTS",
      "id": "cts-9fdb02",
      "locationSet": {"include": ["001"]},
      "tags": {
        "amenity": "ticket_validator",
        "operator": "CTS"
      }
    },
    {
      "displayName": "DB Vertrieb GmbH",
      "id": "dbvertriebgmbh-9fdb02",
      "locationSet": {"include": ["001"]},
      "tags": {
        "amenity": "ticket_validator",
        "operator": "DB Vertrieb GmbH"
      }
    },
    {
      "displayName": "Deutsche Bahn",
      "id": "deutschebahn-9fdb02",
      "locationSet": {"include": ["001"]},
      "tags": {
        "amenity": "ticket_validator",
        "operator": "Deutsche Bahn"
      }
    },
    {
      "displayName": "Keolis Rennes",
      "id": "keolisrennes-9fdb02",
      "locationSet": {"include": ["001"]},
      "tags": {
        "amenity": "ticket_validator",
        "operator": "Keolis Rennes"
      }
    },
    {
      "displayName": "NS",
      "id": "ns-9fdb02",
      "locationSet": {"include": ["001"]},
      "tags": {
        "amenity": "ticket_validator",
        "operator": "NS"
      }
    },
    {
      "displayName": "Regional Transportation District",
      "id": "regionaltransportationdistrict-9fdb02",
      "locationSet": {"include": ["001"]},
      "tags": {
        "amenity": "ticket_validator",
        "operator": "Regional Transportation District"
      }
    },
    {
      "displayName": "S-Bahn Berlin GmbH",
      "id": "sbahnberlingmbh-9fdb02",
      "locationSet": {"include": ["001"]},
      "tags": {
        "amenity": "ticket_validator",
        "operator": "S-Bahn Berlin GmbH"
      }
    },
    {
      "displayName": "SBB CFF FFS",
      "id": "sbbcffffs-9fdb02",
      "locationSet": {"include": ["001"]},
      "tags": {
        "amenity": "ticket_validator",
        "operator": "SBB CFF FFS"
      }
    },
    {
      "displayName": "Schweizerische Bundesbahnen AG",
      "id": "schweizerischebundesbahnenag-9fdb02",
      "locationSet": {"include": ["001"]},
      "tags": {
        "amenity": "ticket_validator",
        "operator": "Schweizerische Bundesbahnen AG"
      }
    },
    {
      "displayName": "SNCF",
      "id": "sncf-9fdb02",
      "locationSet": {"include": ["001"]},
      "tags": {
        "amenity": "ticket_validator",
        "operator": "SNCF"
      }
    },
    {
      "displayName": "SNCF TER Bretagne",
      "id": "sncfterbretagne-9fdb02",
      "locationSet": {"include": ["001"]},
      "tags": {
        "amenity": "ticket_validator",
        "operator": "SNCF TER Bretagne"
      }
    },
    {
      "displayName": "Transdev Vertrieb GmbH",
      "id": "transdevvertriebgmbh-9fdb02",
      "locationSet": {"include": ["001"]},
      "tags": {
        "amenity": "ticket_validator",
        "operator": "Transdev Vertrieb GmbH"
      }
    },
    {
      "displayName": "Transport for NSW",
      "id": "transportfornsw-9fdb02",
      "locationSet": {"include": ["001"]},
      "tags": {
        "amenity": "ticket_validator",
        "operator": "Transport for NSW"
      }
    },
    {
      "displayName": "Trenes Argentinos",
      "id": "trenesargentinos-9fdb02",
      "locationSet": {"include": ["001"]},
      "tags": {
        "amenity": "ticket_validator",
        "operator": "Trenes Argentinos"
      }
    },
    {
      "displayName": "Trenitalia",
      "id": "trenitalia-9fdb02",
      "locationSet": {"include": ["001"]},
      "tags": {
        "amenity": "ticket_validator",
        "operator": "Trenitalia"
      }
    },
    {
      "displayName": "Trenord",
      "id": "trenord-9fdb02",
      "locationSet": {"include": ["001"]},
      "tags": {
        "amenity": "ticket_validator",
        "operator": "Trenord"
      }
    },
    {
      "displayName": "WSW",
      "id": "wsw-9fdb02",
      "locationSet": {"include": ["001"]},
      "tags": {
        "amenity": "ticket_validator",
        "operator": "WSW"
      }
    }
  ]
}
