{
  "properties": {
    "path": "operators/amenity/townhall",
    "exclude": {
      "generic": [
        "^commune$",
        "^gemeinde$",
        "^gradska uprava$",
        "^mairie$",
        "^općinska uprava$",
        "^mairie$",
        "^public$",
        "^townhall$"
      ]
    }
  },
  "items": [
    {
      "displayName": "City of Ekurhuleni",
      "id": "cityofekurhuleni-0f3e41",
      "locationSet": {"include": ["za"]},
      "tags": {
        "amenity": "townhall",
        "operator": "City of Ekurhuleni"
      }
    },
    {
      "displayName": "Gvern ta' Malta",
      "id": "gverntamalta-0f3e41",
      "locationSet": {"include": ["mt"]},
      "tags": {
        "amenity": "townhall",
        "operator": "Gvern ta' Malta"
      }
    },
    {
      "displayName": "Mairie de Toulouse",
      "id": "mairiedetoulouse-0f3e41",
      "locationSet": {"include": ["fx"]},
      "tags": {
        "amenity": "townhall",
        "operator": "Mairie de Toulouse"
      }
    },
    {
      "displayName": "Mjesni odbor Grada Zagreba",
      "id": "mjesniodborgradazagreba-0f3e41",
      "locationSet": {"include": ["hr"]},
      "tags": {
        "amenity": "townhall",
        "operator": "Mjesni odbor Grada Zagreba"
      }
    },
    {
      "displayName": "RU-VGG-2-23",
      "id": "ruvgg223-0f3e41",
      "locationSet": {"include": ["ru"]},
      "tags": {
        "amenity": "townhall",
        "operator": "RU-VGG-2-23"
      }
    },
    {
      "displayName": "RU-VGG-9-60",
      "id": "ruvgg960-0f3e41",
      "locationSet": {"include": ["ru"]},
      "tags": {
        "amenity": "townhall",
        "operator": "RU-VGG-9-60"
      }
    },
    {
      "displayName": "Община Варна",
      "id": "ef66ae-a72f79",
      "locationSet": {"include": ["bg"]},
      "tags": {
        "amenity": "townhall",
        "operator": "Община Варна",
        "operator:wikidata": "Q748965"
      }
    },
    {
      "displayName": "Община Пловдив",
      "id": "4d455f-a72f79",
      "locationSet": {"include": ["bg"]},
      "tags": {
        "amenity": "townhall",
        "operator": "Община Пловдив",
        "operator:wikidata": "Q4365146"
      }
    },
    {
      "displayName": "Столична община",
      "id": "4c66bf-a72f79",
      "locationSet": {"include": ["bg"]},
      "tags": {
        "amenity": "townhall",
        "operator": "Столична община",
        "operator:wikidata": "Q4442915"
      }
    },
    {
      "displayName": "臺中市政府",
      "id": "f4942c-0f3e41",
      "locationSet": {"include": ["tw"]},
      "tags": {
        "amenity": "townhall",
        "operator": "臺中市政府"
      }
    }
  ]
}
