{
  "properties": {
    "path": "operators/amenity/vending_machine",
    "skipCollection": true,
    "exclude": {"generic": ["^vending machine$"]}
  },
  "items": [
    {
      "displayName": "7-Eleven",
      "id": "7eleven-915a28",
      "locationSet": {"include": ["001"]},
      "tags": {
        "amenity": "vending_machine",
        "operator": "7-Eleven"
      }
    },
    {
      "displayName": "A.P.M.",
      "id": "apm-915a28",
      "locationSet": {"include": ["001"]},
      "tags": {
        "amenity": "vending_machine",
        "operator": "A.P.M."
      }
    },
    {
      "displayName": "AATE",
      "id": "aate-915a28",
      "locationSet": {"include": ["001"]},
      "tags": {
        "amenity": "vending_machine",
        "operator": "AATE"
      }
    },
    {
      "displayName": "abellio",
      "id": "abellio-915a28",
      "locationSet": {"include": ["001"]},
      "tags": {
        "amenity": "vending_machine",
        "operator": "abellio"
      }
    },
    {
      "displayName": "Administration Communale de Bastogne",
      "id": "administrationcommunaledebastogne-915a28",
      "locationSet": {"include": ["001"]},
      "tags": {
        "amenity": "vending_machine",
        "operator": "Administration Communale de Bastogne"
      }
    },
    {
      "displayName": "ADNOC",
      "id": "adnoc-915a28",
      "locationSet": {"include": ["001"]},
      "tags": {
        "amenity": "vending_machine",
        "operator": "ADNOC"
      }
    },
    {
      "displayName": "Ajuntament del Prat de Llobregat",
      "id": "ajuntamentdelpratdellobregat-915a28",
      "locationSet": {"include": ["001"]},
      "tags": {
        "amenity": "vending_machine",
        "operator": "Ajuntament del Prat de Llobregat"
      }
    },
    {
      "displayName": "AKN",
      "id": "akn-915a28",
      "locationSet": {"include": ["001"]},
      "tags": {
        "amenity": "vending_machine",
        "operator": "AKN"
      }
    },
    {
      "displayName": "AKN Eisenbahn",
      "id": "akneisenbahn-915a28",
      "locationSet": {"include": ["001"]},
      "tags": {
        "amenity": "vending_machine",
        "operator": "AKN Eisenbahn"
      }
    },
    {
      "displayName": "AKN Eisenbahn AG",
      "id": "akneisenbahnag-915a28",
      "locationSet": {"include": ["001"]},
      "tags": {
        "amenity": "vending_machine",
        "operator": "AKN Eisenbahn AG"
      }
    },
    {
      "displayName": "Albtal-Verkehrs-Gesellschaft mbH",
      "id": "albtalverkehrsgesellschaftmbh-915a28",
      "locationSet": {"include": ["001"]},
      "tags": {
        "amenity": "vending_machine",
        "operator": "Albtal-Verkehrs-Gesellschaft mbH"
      }
    },
    {
      "displayName": "Allegro",
      "id": "allegro-915a28",
      "locationSet": {"include": ["001"]},
      "tags": {
        "amenity": "vending_machine",
        "operator": "Allegro"
      }
    },
    {
      "displayName": "Alza",
      "id": "alza-915a28",
      "locationSet": {"include": ["001"]},
      "tags": {
        "amenity": "vending_machine",
        "operator": "Alza"
      }
    },
    {
      "displayName": "Alza.cz",
      "id": "alzacz-915a28",
      "locationSet": {"include": ["001"]},
      "tags": {
        "amenity": "vending_machine",
        "operator": "Alza.cz"
      }
    },
    {
      "displayName": "Alza.cz a.s.",
      "id": "alzaczas-915a28",
      "locationSet": {"include": ["001"]},
      "tags": {
        "amenity": "vending_machine",
        "operator": "Alza.cz a.s."
      }
    },
    {
      "displayName": "Alza.sk",
      "id": "alzask-915a28",
      "locationSet": {"include": ["001"]},
      "tags": {
        "amenity": "vending_machine",
        "operator": "Alza.sk"
      }
    },
    {
      "displayName": "ama",
      "id": "ama-915a28",
      "locationSet": {"include": ["001"]},
      "tags": {
        "amenity": "vending_machine",
        "operator": "ama"
      }
    },
    {
      "displayName": "Ametis",
      "id": "ametis-915a28",
      "locationSet": {"include": ["001"]},
      "tags": {
        "amenity": "vending_machine",
        "operator": "Ametis"
      }
    },
    {
      "displayName": "AMTS",
      "id": "amts-915a28",
      "locationSet": {"include": ["001"]},
      "tags": {
        "amenity": "vending_machine",
        "operator": "AMTS"
      }
    },
    {
      "displayName": "Apcoa",
      "id": "apcoa-915a28",
      "locationSet": {"include": ["001"]},
      "tags": {
        "amenity": "vending_machine",
        "operator": "Apcoa"
      }
    },
    {
      "displayName": "APCOA Parking Deutschland GmbH",
      "id": "apcoaparkingdeutschlandgmbh-915a28",
      "locationSet": {"include": ["001"]},
      "tags": {
        "amenity": "vending_machine",
        "operator": "APCOA Parking Deutschland GmbH"
      }
    },
    {
      "displayName": "Aqualux",
      "id": "aqualux-915a28",
      "locationSet": {"include": ["001"]},
      "tags": {
        "amenity": "vending_machine",
        "operator": "Aqualux"
      }
    },
    {
      "displayName": "Arcobaleno",
      "id": "arcobaleno-915a28",
      "locationSet": {"include": ["001"]},
      "tags": {
        "amenity": "vending_machine",
        "operator": "Arcobaleno"
      }
    },
    {
      "displayName": "arp",
      "id": "arp-915a28",
      "locationSet": {"include": ["001"]},
      "tags": {
        "amenity": "vending_machine",
        "operator": "arp"
      }
    },
    {
      "displayName": "Arriva",
      "id": "arriva-915a28",
      "locationSet": {"include": ["001"]},
      "tags": {
        "amenity": "vending_machine",
        "operator": "Arriva"
      }
    },
    {
      "displayName": "ATAC",
      "id": "atac-915a28",
      "locationSet": {"include": ["001"]},
      "tags": {
        "amenity": "vending_machine",
        "operator": "ATAC"
      }
    },
    {
      "displayName": "ATM",
      "id": "atm-915a28",
      "locationSet": {"include": ["001"]},
      "tags": {
        "amenity": "vending_machine",
        "operator": "ATM"
      }
    },
    {
      "displayName": "AWZ Tabakservice GmbH",
      "id": "awztabakservicegmbh-915a28",
      "locationSet": {"include": ["001"]},
      "tags": {
        "amenity": "vending_machine",
        "operator": "AWZ Tabakservice GmbH"
      }
    },
    {
      "displayName": "Axel Heyligenstaedt Automatenaufstellung",
      "id": "axelheyligenstaedtautomatenaufstellung-915a28",
      "locationSet": {"include": ["001"]},
      "tags": {
        "amenity": "vending_machine",
        "operator": "Axel Heyligenstaedt Automatenaufstellung"
      }
    },
    {
      "displayName": "Ayuntamiento de Madrid",
      "id": "ayuntamientodemadrid-915a28",
      "locationSet": {"include": ["001"]},
      "tags": {
        "amenity": "vending_machine",
        "operator": "Ayuntamiento de Madrid"
      }
    },
    {
      "displayName": "Ayuntamiento de Majadahonda",
      "id": "ayuntamientodemajadahonda-915a28",
      "locationSet": {"include": ["001"]},
      "tags": {
        "amenity": "vending_machine",
        "operator": "Ayuntamiento de Majadahonda"
      }
    },
    {
      "displayName": "Bayerische Oberlandbahn GmbH",
      "id": "bayerischeoberlandbahngmbh-915a28",
      "locationSet": {"include": ["001"]},
      "tags": {
        "amenity": "vending_machine",
        "operator": "Bayerische Oberlandbahn GmbH"
      }
    },
    {
      "displayName": "Beiwinkel",
      "id": "beiwinkel-915a28",
      "locationSet": {"include": ["001"]},
      "tags": {
        "amenity": "vending_machine",
        "operator": "Beiwinkel"
      }
    },
    {
      "displayName": "belloo",
      "id": "belloo-915a28",
      "locationSet": {"include": ["001"]},
      "tags": {
        "amenity": "vending_machine",
        "operator": "belloo"
      }
    },
    {
      "displayName": "Bergischer Automatenservice",
      "id": "bergischerautomatenservice-915a28",
      "locationSet": {"include": ["001"]},
      "tags": {
        "amenity": "vending_machine",
        "operator": "Bergischer Automatenservice"
      }
    },
    {
      "displayName": "Berliner Verkehrsbetriebe",
      "id": "berlinerverkehrsbetriebe-915a28",
      "locationSet": {"include": ["001"]},
      "tags": {
        "amenity": "vending_machine",
        "operator": "Berliner Verkehrsbetriebe"
      }
    },
    {
      "displayName": "Bernmobil",
      "id": "bernmobil-915a28",
      "locationSet": {"include": ["001"]},
      "tags": {
        "amenity": "vending_machine",
        "operator": "Bernmobil"
      }
    },
    {
      "displayName": "Bezirksamt Mitte von Berlin",
      "id": "bezirksamtmittevonberlin-915a28",
      "locationSet": {"include": ["001"]},
      "tags": {
        "amenity": "vending_machine",
        "operator": "Bezirksamt Mitte von Berlin"
      }
    },
    {
      "displayName": "BistroBox GmbH",
      "id": "bistroboxgmbh-915a28",
      "locationSet": {"include": ["001"]},
      "tags": {
        "amenity": "vending_machine",
        "operator": "BistroBox GmbH"
      }
    },
    {
      "displayName": "Biuro Strefy Płatnego Parkowania",
      "id": "biurostrefyplatnegoparkowania-915a28",
      "locationSet": {"include": ["001"]},
      "tags": {
        "amenity": "vending_machine",
        "operator": "Biuro Strefy Płatnego Parkowania"
      }
    },
    {
      "displayName": "BKK",
      "id": "bkk-915a28",
      "locationSet": {"include": ["001"]},
      "tags": {
        "amenity": "vending_machine",
        "operator": "BKK"
      }
    },
    {
      "displayName": "Bochum-Gelsenkirchener Straßenbahnen AG",
      "id": "bochumgelsenkirchenerstrassenbahnenag-915a28",
      "locationSet": {"include": ["001"]},
      "tags": {
        "amenity": "vending_machine",
        "operator": "Bochum-Gelsenkirchener Straßenbahnen AG"
      }
    },
    {
      "displayName": "Boston Transportation Department (BTD) Parking Clerk",
      "id": "bostontransportationdepartmentbtdparkingclerk-915a28",
      "locationSet": {"include": ["001"]},
      "tags": {
        "amenity": "vending_machine",
        "operator": "Boston Transportation Department (BTD) Parking Clerk"
      }
    },
    {
      "displayName": "Bowling Green State University",
      "id": "bowlinggreenstateuniversity-915a28",
      "locationSet": {"include": ["001"]},
      "tags": {
        "amenity": "vending_machine",
        "operator": "Bowling Green State University"
      }
    },
    {
      "displayName": "BP",
      "id": "bp-915a28",
      "locationSet": {"include": ["001"]},
      "tags": {
        "amenity": "vending_machine",
        "operator": "BP"
      }
    },
    {
      "displayName": "bpost",
      "id": "bpost-915a28",
      "locationSet": {"include": ["001"]},
      "tags": {
        "amenity": "vending_machine",
        "operator": "bpost"
      }
    },
    {
      "displayName": "Bravo",
      "id": "bravo-915a28",
      "locationSet": {"include": ["001"]},
      "tags": {
        "amenity": "vending_machine",
        "operator": "Bravo"
      }
    },
    {
      "displayName": "BrestAim",
      "id": "brestaim-915a28",
      "locationSet": {"include": ["001"]},
      "tags": {
        "amenity": "vending_machine",
        "operator": "BrestAim"
      }
    },
    {
      "displayName": "BSAG",
      "id": "bsag-915a28",
      "locationSet": {"include": ["001"]},
      "tags": {
        "amenity": "vending_machine",
        "operator": "BSAG"
      }
    },
    {
      "displayName": "Calgary Parking Authority",
      "id": "calgaryparkingauthority-915a28",
      "locationSet": {"include": ["001"]},
      "tags": {
        "amenity": "vending_machine",
        "operator": "Calgary Parking Authority"
      }
    },
    {
      "displayName": "Calgary Transit",
      "id": "calgarytransit-915a28",
      "locationSet": {"include": ["001"]},
      "tags": {
        "amenity": "vending_machine",
        "operator": "Calgary Transit"
      }
    },
    {
      "displayName": "Caltrain",
      "id": "caltrain-915a28",
      "locationSet": {"include": ["001"]},
      "tags": {
        "amenity": "vending_machine",
        "operator": "Caltrain"
      }
    },
    {
      "displayName": "CASE Catering & Service",
      "id": "casecateringandservice-915a28",
      "locationSet": {"include": ["001"]},
      "tags": {
        "amenity": "vending_machine",
        "operator": "CASE Catering & Service"
      }
    },
    {
      "displayName": "CFF",
      "id": "cff-915a28",
      "locationSet": {"include": ["001"]},
      "tags": {
        "amenity": "vending_machine",
        "operator": "CFF"
      }
    },
    {
      "displayName": "CFL",
      "id": "cfl-915a28",
      "locationSet": {"include": ["001"]},
      "tags": {
        "amenity": "vending_machine",
        "operator": "CFL"
      }
    },
    {
      "displayName": "cigaretten ostermeier",
      "id": "cigarettenostermeier-915a28",
      "locationSet": {"include": ["001"]},
      "tags": {
        "amenity": "vending_machine",
        "operator": "cigaretten ostermeier"
      }
    },
    {
      "displayName": "Cigaretten Ostermeier GmbH & Co. KG",
      "id": "cigarettenostermeiergmbhandcokg-915a28",
      "locationSet": {"include": ["001"]},
      "tags": {
        "amenity": "vending_machine",
        "operator": "Cigaretten Ostermeier GmbH & Co. KG"
      }
    },
    {
      "displayName": "Cigaretten Ostermeier GmbH & Co. KG Tabakwaren-Großvertrieb",
      "id": "cigarettenostermeiergmbhandcokgtabakwarengrossvertrieb-915a28",
      "locationSet": {"include": ["001"]},
      "tags": {
        "amenity": "vending_machine",
        "operator": "Cigaretten Ostermeier GmbH & Co. KG Tabakwaren-Großvertrieb"
      }
    },
    {
      "displayName": "City of Denton",
      "id": "cityofdenton-915a28",
      "locationSet": {"include": ["001"]},
      "tags": {
        "amenity": "vending_machine",
        "operator": "City of Denton"
      }
    },
    {
      "displayName": "City of Edinburgh Council",
      "id": "cityofedinburghcouncil-915a28",
      "locationSet": {"include": ["001"]},
      "tags": {
        "amenity": "vending_machine",
        "operator": "City of Edinburgh Council"
      }
    },
    {
      "displayName": "City of Lowell",
      "id": "cityoflowell-915a28",
      "locationSet": {"include": ["001"]},
      "tags": {
        "amenity": "vending_machine",
        "operator": "City of Lowell"
      }
    },
    {
      "displayName": "City of Ottawa",
      "id": "cityofottawa-915a28",
      "locationSet": {"include": ["001"]},
      "tags": {
        "amenity": "vending_machine",
        "operator": "City of Ottawa"
      }
    },
    {
      "displayName": "City Parking Group",
      "id": "cityparkinggroup-915a28",
      "locationSet": {"include": ["001"]},
      "tags": {
        "amenity": "vending_machine",
        "operator": "City Parking Group"
      }
    },
    {
      "displayName": "Compagnie des Transports Strasbourgeois",
      "id": "compagniedestransportsstrasbourgeois-915a28",
      "locationSet": {"include": ["001"]},
      "tags": {
        "amenity": "vending_machine",
        "operator": "Compagnie des Transports Strasbourgeois"
      }
    },
    {
      "displayName": "Comune di Arenzano",
      "id": "comunediarenzano-915a28",
      "locationSet": {"include": ["001"]},
      "tags": {
        "amenity": "vending_machine",
        "operator": "Comune di Arenzano"
      }
    },
    {
      "displayName": "Comune di Ciampino",
      "id": "comunediciampino-915a28",
      "locationSet": {"include": ["001"]},
      "tags": {
        "amenity": "vending_machine",
        "operator": "Comune di Ciampino"
      }
    },
    {
      "displayName": "Comunità Cooperativa Melpignano",
      "id": "comunitacooperativamelpignano-915a28",
      "locationSet": {"include": ["001"]},
      "tags": {
        "amenity": "vending_machine",
        "operator": "Comunità Cooperativa Melpignano"
      }
    },
    {
      "displayName": "Công ty TNHH Máy Bán Hàng Tự Động Minh Lâm",
      "id": "congtytnhhmaybanhangtudongminhlam-915a28",
      "locationSet": {"include": ["001"]},
      "tags": {
        "amenity": "vending_machine",
        "operator": "Công ty TNHH Máy Bán Hàng Tự Động Minh Lâm"
      }
    },
    {
      "displayName": "Costa Coffee",
      "id": "costacoffee-915a28",
      "locationSet": {"include": ["001"]},
      "tags": {
        "amenity": "vending_machine",
        "operator": "Costa Coffee"
      }
    },
    {
      "displayName": "Cottbusverkehr GmbH",
      "id": "cottbusverkehrgmbh-915a28",
      "locationSet": {"include": ["001"]},
      "tags": {
        "amenity": "vending_machine",
        "operator": "Cottbusverkehr GmbH"
      }
    },
    {
      "displayName": "CROUS",
      "id": "crous-915a28",
      "locationSet": {"include": ["001"]},
      "tags": {
        "amenity": "vending_machine",
        "operator": "CROUS"
      }
    },
    {
      "displayName": "CTS",
      "id": "cts-915a28",
      "locationSet": {"include": ["001"]},
      "tags": {
        "amenity": "vending_machine",
        "operator": "CTS"
      }
    },
    {
      "displayName": "CVAG",
      "id": "cvag-915a28",
      "locationSet": {"include": ["001"]},
      "tags": {
        "amenity": "vending_machine",
        "operator": "CVAG"
      }
    },
    {
      "displayName": "cz:DPO",
      "id": "czdpo-915a28",
      "locationSet": {"include": ["001"]},
      "tags": {
        "amenity": "vending_machine",
        "operator": "cz:DPO"
      }
    },
    {
      "displayName": "DB",
      "id": "db-915a28",
      "locationSet": {"include": ["001"]},
      "tags": {
        "amenity": "vending_machine",
        "operator": "DB"
      }
    },
    {
      "displayName": "DB AG",
      "id": "dbag-915a28",
      "locationSet": {"include": ["001"]},
      "tags": {
        "amenity": "vending_machine",
        "operator": "DB AG"
      }
    },
    {
      "displayName": "DB BahnPark GmbH",
      "id": "dbbahnparkgmbh-915a28",
      "locationSet": {"include": ["001"]},
      "tags": {
        "amenity": "vending_machine",
        "operator": "DB BahnPark GmbH"
      }
    },
    {
      "displayName": "DB Netz",
      "id": "dbnetz-915a28",
      "locationSet": {"include": ["001"]},
      "tags": {
        "amenity": "vending_machine",
        "operator": "DB Netz"
      }
    },
    {
      "displayName": "DB Netz AG",
      "id": "dbnetzag-915a28",
      "locationSet": {"include": ["001"]},
      "tags": {
        "amenity": "vending_machine",
        "operator": "DB Netz AG"
      }
    },
    {
      "displayName": "DB Station&Service AG",
      "id": "dbstationandserviceag-915a28",
      "locationSet": {"include": ["001"]},
      "tags": {
        "amenity": "vending_machine",
        "operator": "DB Station&Service AG"
      }
    },
    {
      "displayName": "DB Vertrieb",
      "id": "dbvertrieb-915a28",
      "locationSet": {"include": ["001"]},
      "tags": {
        "amenity": "vending_machine",
        "operator": "DB Vertrieb"
      }
    },
    {
      "displayName": "De Lijn",
      "id": "delijn-915a28",
      "locationSet": {"include": ["001"]},
      "tags": {
        "amenity": "vending_machine",
        "operator": "De Lijn"
      }
    },
    {
      "displayName": "Derby City Council",
      "id": "derbycitycouncil-915a28",
      "locationSet": {"include": ["001"]},
      "tags": {
        "amenity": "vending_machine",
        "operator": "Derby City Council"
      }
    },
    {
      "displayName": "Deutsche Bahn AG",
      "id": "deutschebahnag-915a28",
      "locationSet": {"include": ["001"]},
      "tags": {
        "amenity": "vending_machine",
        "operator": "Deutsche Bahn AG"
      }
    },
    {
      "displayName": "Deutsche Post DHL",
      "id": "deutschepostdhl-915a28",
      "locationSet": {"include": ["001"]},
      "tags": {
        "amenity": "vending_machine",
        "operator": "Deutsche Post DHL"
      }
    },
    {
      "displayName": "DHL International GmbH",
      "id": "dhlinternationalgmbh-915a28",
      "locationSet": {"include": ["001"]},
      "tags": {
        "amenity": "vending_machine",
        "operator": "DHL International GmbH"
      }
    },
    {
      "displayName": "DHL Paket GmbH",
      "id": "dhlpaketgmbh-915a28",
      "locationSet": {"include": ["001"]},
      "tags": {
        "amenity": "vending_machine",
        "operator": "DHL Paket GmbH"
      }
    },
    {
      "displayName": "Die Post",
      "id": "diepost-915a28",
      "locationSet": {"include": ["001"]},
      "tags": {
        "amenity": "vending_machine",
        "operator": "Die Post"
      }
    },
    {
      "displayName": "Dietz",
      "id": "dietz-915a28",
      "locationSet": {"include": ["001"]},
      "tags": {
        "amenity": "vending_machine",
        "operator": "Dietz"
      }
    },
    {
      "displayName": "Dietz Tabakwaren GmbH",
      "id": "dietztabakwarengmbh-915a28",
      "locationSet": {"include": ["001"]},
      "tags": {
        "amenity": "vending_machine",
        "operator": "Dietz Tabakwaren GmbH"
      }
    },
    {
      "displayName": "Dietz Tabakwaren-Großhandel",
      "id": "dietztabakwarengrosshandel-915a28",
      "locationSet": {"include": ["001"]},
      "tags": {
        "amenity": "vending_machine",
        "operator": "Dietz Tabakwaren-Großhandel"
      }
    },
    {
      "displayName": "Distribox",
      "id": "distribox-915a28",
      "locationSet": {"include": ["001"]},
      "tags": {
        "amenity": "vending_machine",
        "operator": "Distribox"
      }
    },
    {
      "displayName": "Dopravní podnik Karlovy Vary, a. s.",
      "id": "dopravnipodnikkarlovyvaryas-915a28",
      "locationSet": {"include": ["001"]},
      "tags": {
        "amenity": "vending_machine",
        "operator": "Dopravní podnik Karlovy Vary, a. s."
      }
    },
    {
      "displayName": "Dopravní podnik města Olomouce, a. s.",
      "id": "dopravnipodnikmestaolomouceas-915a28",
      "locationSet": {"include": ["001"]},
      "tags": {
        "amenity": "vending_machine",
        "operator": "Dopravní podnik města Olomouce, a. s."
      }
    },
    {
      "displayName": "DPB",
      "id": "dpb-915a28",
      "locationSet": {"include": ["001"]},
      "tags": {
        "amenity": "vending_machine",
        "operator": "DPB"
      }
    },
    {
      "displayName": "DPD",
      "id": "dpd-915a28",
      "locationSet": {"include": ["001"]},
      "tags": {
        "amenity": "vending_machine",
        "operator": "DPD"
      }
    },
    {
      "displayName": "DPMB",
      "id": "dpmb-915a28",
      "locationSet": {"include": ["001"]},
      "tags": {
        "amenity": "vending_machine",
        "operator": "DPMB"
      }
    },
    {
      "displayName": "DPMCB",
      "id": "dpmcb-915a28",
      "locationSet": {"include": ["001"]},
      "tags": {
        "amenity": "vending_machine",
        "operator": "DPMCB"
      }
    },
    {
      "displayName": "DPMK",
      "id": "dpmk-915a28",
      "locationSet": {"include": ["001"]},
      "tags": {
        "amenity": "vending_machine",
        "operator": "DPMK"
      }
    },
    {
      "displayName": "DPMP",
      "id": "dpmp-915a28",
      "locationSet": {"include": ["001"]},
      "tags": {
        "amenity": "vending_machine",
        "operator": "DPMP"
      }
    },
    {
      "displayName": "DPP",
      "id": "dpp-915a28",
      "locationSet": {"include": ["001"]},
      "tags": {
        "amenity": "vending_machine",
        "operator": "DPP"
      }
    },
    {
      "displayName": "DPP, a.s.",
      "id": "dppas-915a28",
      "locationSet": {"include": ["001"]},
      "tags": {
        "amenity": "vending_machine",
        "operator": "DPP, a.s."
      }
    },
    {
      "displayName": "Dresdner Verkehrsbetriebe",
      "id": "dresdnerverkehrsbetriebe-915a28",
      "locationSet": {"include": ["001"]},
      "tags": {
        "amenity": "vending_machine",
        "operator": "Dresdner Verkehrsbetriebe"
      }
    },
    {
      "displayName": "DSB",
      "id": "dsb-915a28",
      "locationSet": {"include": ["001"]},
      "tags": {
        "amenity": "vending_machine",
        "operator": "DSB"
      }
    },
    {
      "displayName": "DTV-Tabakwaren GmbH & Co. KG",
      "id": "dtvtabakwarengmbhandcokg-915a28",
      "locationSet": {"include": ["001"]},
      "tags": {
        "amenity": "vending_machine",
        "operator": "DTV-Tabakwaren GmbH & Co. KG"
      }
    },
    {
      "displayName": "Dublin City Council",
      "id": "dublincitycouncil-915a28",
      "locationSet": {"include": ["001"]},
      "tags": {
        "amenity": "vending_machine",
        "operator": "Dublin City Council"
      }
    },
    {
      "displayName": "Dukaten",
      "id": "dukaten-915a28",
      "locationSet": {"include": ["001"]},
      "tags": {
        "amenity": "vending_machine",
        "operator": "Dukaten"
      }
    },
    {
      "displayName": "Durex",
      "id": "durex-915a28",
      "locationSet": {"include": ["001"]},
      "tags": {
        "amenity": "vending_machine",
        "operator": "Durex"
      }
    },
    {
      "displayName": "Durham County Council",
      "id": "durhamcountycouncil-915a28",
      "locationSet": {"include": ["001"]},
      "tags": {
        "amenity": "vending_machine",
        "operator": "Durham County Council"
      }
    },
    {
      "displayName": "DVB",
      "id": "dvb-915a28",
      "locationSet": {"include": ["001"]},
      "tags": {
        "amenity": "vending_machine",
        "operator": "DVB"
      }
    },
    {
      "displayName": "East Sussex County Council",
      "id": "eastsussexcountycouncil-915a28",
      "locationSet": {"include": ["001"]},
      "tags": {
        "amenity": "vending_machine",
        "operator": "East Sussex County Council"
      }
    },
    {
      "displayName": "EasyPark",
      "id": "easypark-915a28",
      "locationSet": {"include": ["001"]},
      "tags": {
        "amenity": "vending_machine",
        "operator": "EasyPark"
      }
    },
    {
      "displayName": "EEI",
      "id": "eei-915a28",
      "locationSet": {"include": ["001"]},
      "tags": {
        "amenity": "vending_machine",
        "operator": "EEI"
      }
    },
    {
      "displayName": "Ehmann",
      "id": "ehmann-915a28",
      "locationSet": {"include": ["001"]},
      "tags": {
        "amenity": "vending_machine",
        "operator": "Ehmann"
      }
    },
    {
      "displayName": "eMAG",
      "id": "emag-915a28",
      "locationSet": {"include": ["001"]},
      "tags": {
        "amenity": "vending_machine",
        "operator": "eMAG"
      }
    },
    {
      "displayName": "EMEL",
      "id": "emel-915a28",
      "locationSet": {"include": ["001"]},
      "tags": {
        "amenity": "vending_machine",
        "operator": "EMEL"
      }
    },
    {
      "displayName": "Entsorgungsbetriebe Lübeck",
      "id": "entsorgungsbetriebelubeck-915a28",
      "locationSet": {"include": ["001"]},
      "tags": {
        "amenity": "vending_machine",
        "operator": "Entsorgungsbetriebe Lübeck"
      }
    },
    {
      "displayName": "ESTACIONAMIENTOS Y SERVICIOS S.A.",
      "id": "estacionamientosyserviciossa-915a28",
      "locationSet": {"include": ["001"]},
      "tags": {
        "amenity": "vending_machine",
        "operator": "ESTACIONAMIENTOS Y SERVICIOS S.A."
      }
    },
    {
      "displayName": "eti-medals",
      "id": "etimedals-915a28",
      "locationSet": {"include": ["001"]},
      "tags": {
        "amenity": "vending_machine",
        "operator": "eti-medals"
      }
    },
    {
      "displayName": "euroscope",
      "id": "euroscope-915a28",
      "locationSet": {"include": ["001"]},
      "tags": {
        "amenity": "vending_machine",
        "operator": "euroscope"
      }
    },
    {
      "displayName": "Express",
      "id": "express-915a28",
      "locationSet": {"include": ["001"]},
      "tags": {
        "amenity": "vending_machine",
        "operator": "Express"
      }
    },
    {
      "displayName": "FHH",
      "id": "fhh-915a28",
      "locationSet": {"include": ["001"]},
      "tags": {
        "amenity": "vending_machine",
        "operator": "FHH"
      }
    },
    {
      "displayName": "Fisersa",
      "id": "fisersa-915a28",
      "locationSet": {"include": ["001"]},
      "tags": {
        "amenity": "vending_machine",
        "operator": "Fisersa"
      }
    },
    {
      "displayName": "FoxPost Zrt.",
      "id": "foxpostzrt-915a28",
      "locationSet": {"include": ["001"]},
      "tags": {
        "amenity": "vending_machine",
        "operator": "FoxPost Zrt."
      }
    },
    {
      "displayName": "Fritz Steinhaus KG",
      "id": "fritzsteinhauskg-915a28",
      "locationSet": {"include": ["001"]},
      "tags": {
        "amenity": "vending_machine",
        "operator": "Fritz Steinhaus KG"
      }
    },
    {
      "displayName": "G.C.B.A.",
      "id": "gcba-915a28",
      "locationSet": {"include": ["001"]},
      "tags": {
        "amenity": "vending_machine",
        "operator": "G.C.B.A."
      }
    },
    {
      "displayName": "Galway County Council",
      "id": "galwaycountycouncil-915a28",
      "locationSet": {"include": ["001"]},
      "tags": {
        "amenity": "vending_machine",
        "operator": "Galway County Council"
      }
    },
    {
      "displayName": "Geile Warenautomaten",
      "id": "geilewarenautomaten-915a28",
      "locationSet": {"include": ["001"]},
      "tags": {
        "amenity": "vending_machine",
        "operator": "Geile Warenautomaten"
      }
    },
    {
      "displayName": "Geile Warenautomaten GmbH",
      "id": "geilewarenautomatengmbh-915a28",
      "locationSet": {"include": ["001"]},
      "tags": {
        "amenity": "vending_machine",
        "operator": "Geile Warenautomaten GmbH"
      }
    },
    {
      "displayName": "Gemeente Amsterdam",
      "id": "gemeenteamsterdam-915a28",
      "locationSet": {"include": ["001"]},
      "tags": {
        "amenity": "vending_machine",
        "operator": "Gemeente Amsterdam"
      }
    },
    {
      "displayName": "Gemeente Den Haag",
      "id": "gemeentedenhaag-915a28",
      "locationSet": {"include": ["001"]},
      "tags": {
        "amenity": "vending_machine",
        "operator": "Gemeente Den Haag"
      }
    },
    {
      "displayName": "Gemeente Groningen",
      "id": "gemeentegroningen-915a28",
      "locationSet": {"include": ["001"]},
      "tags": {
        "amenity": "vending_machine",
        "operator": "Gemeente Groningen"
      }
    },
    {
      "displayName": "Gemeente Utrecht",
      "id": "gemeenteutrecht-915a28",
      "locationSet": {"include": ["001"]},
      "tags": {
        "amenity": "vending_machine",
        "operator": "Gemeente Utrecht"
      }
    },
    {
      "displayName": "Gemeinde",
      "id": "gemeinde-915a28",
      "locationSet": {"include": ["001"]},
      "tags": {
        "amenity": "vending_machine",
        "operator": "Gemeinde"
      }
    },
    {
      "displayName": "Gemeinde Bellenberg",
      "id": "gemeindebellenberg-915a28",
      "locationSet": {"include": ["001"]},
      "tags": {
        "amenity": "vending_machine",
        "operator": "Gemeinde Bellenberg"
      }
    },
    {
      "displayName": "Gemeinde Heddesheim",
      "id": "gemeindeheddesheim-915a28",
      "locationSet": {"include": ["001"]},
      "tags": {
        "amenity": "vending_machine",
        "operator": "Gemeinde Heddesheim"
      }
    },
    {
      "displayName": "Gemeinde Henstedt-Ulzburg",
      "id": "gemeindehenstedtulzburg-915a28",
      "locationSet": {"include": ["001"]},
      "tags": {
        "amenity": "vending_machine",
        "operator": "Gemeinde Henstedt-Ulzburg"
      }
    },
    {
      "displayName": "Gemeinde Lonsee",
      "id": "gemeindelonsee-915a28",
      "locationSet": {"include": ["001"]},
      "tags": {
        "amenity": "vending_machine",
        "operator": "Gemeinde Lonsee"
      }
    },
    {
      "displayName": "Gemeinde Oberuzwil",
      "id": "gemeindeoberuzwil-915a28",
      "locationSet": {"include": ["001"]},
      "tags": {
        "amenity": "vending_machine",
        "operator": "Gemeinde Oberuzwil"
      }
    },
    {
      "displayName": "Gemeinde Partschins",
      "id": "gemeindepartschins-915a28",
      "locationSet": {"include": ["001"]},
      "tags": {
        "amenity": "vending_machine",
        "operator": "Gemeinde Partschins"
      }
    },
    {
      "displayName": "Gemeinde Petershausen",
      "id": "gemeindepetershausen-915a28",
      "locationSet": {"include": ["001"]},
      "tags": {
        "amenity": "vending_machine",
        "operator": "Gemeinde Petershausen"
      }
    },
    {
      "displayName": "Gemeinde Thalheim",
      "id": "gemeindethalheim-915a28",
      "locationSet": {"include": ["001"]},
      "tags": {
        "amenity": "vending_machine",
        "operator": "Gemeinde Thalheim"
      }
    },
    {
      "displayName": "Gemeinde Uzwil",
      "id": "gemeindeuzwil-915a28",
      "locationSet": {"include": ["001"]},
      "tags": {
        "amenity": "vending_machine",
        "operator": "Gemeinde Uzwil"
      }
    },
    {
      "displayName": "Gemeinde Wertach",
      "id": "gemeindewertach-915a28",
      "locationSet": {"include": ["001"]},
      "tags": {
        "amenity": "vending_machine",
        "operator": "Gemeinde Wertach"
      }
    },
    {
      "displayName": "Gengenbach",
      "id": "gengenbach-915a28",
      "locationSet": {"include": ["001"]},
      "tags": {
        "amenity": "vending_machine",
        "operator": "Gengenbach"
      }
    },
    {
      "displayName": "geoherst",
      "id": "geoherst-915a28",
      "locationSet": {"include": ["001"]},
      "tags": {
        "amenity": "vending_machine",
        "operator": "geoherst"
      }
    },
    {
      "displayName": "GO Transit",
      "id": "gotransit-915a28",
      "locationSet": {"include": ["001"]},
      "tags": {
        "amenity": "vending_machine",
        "operator": "GO Transit"
      }
    },
    {
      "displayName": "Gramepark",
      "id": "gramepark-915a28",
      "locationSet": {"include": ["001"]},
      "tags": {
        "amenity": "vending_machine",
        "operator": "Gramepark"
      }
    },
    {
      "displayName": "Graz Linien",
      "id": "grazlinien-915a28",
      "locationSet": {"include": ["001"]},
      "tags": {
        "amenity": "vending_machine",
        "operator": "Graz Linien"
      }
    },
    {
      "displayName": "Greater Anglia",
      "id": "greateranglia-915a28",
      "locationSet": {"include": ["001"]},
      "tags": {
        "amenity": "vending_machine",
        "operator": "Greater Anglia"
      }
    },
    {
      "displayName": "GTT",
      "id": "gtt-915a28",
      "locationSet": {"include": ["001"]},
      "tags": {
        "amenity": "vending_machine",
        "operator": "GTT"
      }
    },
    {
      "displayName": "GVB Görlitzer Verkehrsbetriebe",
      "id": "gvbgorlitzerverkehrsbetriebe-915a28",
      "locationSet": {"include": ["001"]},
      "tags": {
        "amenity": "vending_machine",
        "operator": "GVB Görlitzer Verkehrsbetriebe"
      }
    },
    {
      "displayName": "Hagemann",
      "id": "hagemann-915a28",
      "locationSet": {"include": ["001"]},
      "tags": {
        "amenity": "vending_machine",
        "operator": "Hagemann"
      }
    },
    {
      "displayName": "Halifax Regional Municipality",
      "id": "halifaxregionalmunicipality-915a28",
      "locationSet": {"include": ["001"]},
      "tags": {
        "amenity": "vending_machine",
        "operator": "Halifax Regional Municipality"
      }
    },
    {
      "displayName": "Hall",
      "id": "hall-915a28",
      "locationSet": {"include": ["001"]},
      "tags": {
        "amenity": "vending_machine",
        "operator": "Hall"
      }
    },
    {
      "displayName": "Hall Tabakwaren",
      "id": "halltabakwaren-915a28",
      "locationSet": {"include": ["001"]},
      "tags": {
        "amenity": "vending_machine",
        "operator": "Hall Tabakwaren"
      }
    },
    {
      "displayName": "Hall Tabakwaren e.K.",
      "id": "halltabakwarenek-915a28",
      "locationSet": {"include": ["001"]},
      "tags": {
        "amenity": "vending_machine",
        "operator": "Hall Tabakwaren e.K."
      }
    },
    {
      "displayName": "Hall Tabakwaren, Sulzbach",
      "id": "halltabakwarensulzbach-915a28",
      "locationSet": {"include": ["001"]},
      "tags": {
        "amenity": "vending_machine",
        "operator": "Hall Tabakwaren, Sulzbach"
      }
    },
    {
      "displayName": "Hamburger Hochbahn AG",
      "id": "hamburgerhochbahnag-915a28",
      "locationSet": {"include": ["001"]},
      "tags": {
        "amenity": "vending_machine",
        "operator": "Hamburger Hochbahn AG"
      }
    },
    {
      "displayName": "Hamburger Verkehrsverbund GmbH",
      "id": "hamburgerverkehrsverbundgmbh-915a28",
      "locationSet": {"include": ["001"]},
      "tags": {
        "amenity": "vending_machine",
        "operator": "Hamburger Verkehrsverbund GmbH"
      }
    },
    {
      "displayName": "Hampton Beach State Park",
      "id": "hamptonbeachstatepark-915a28",
      "locationSet": {"include": ["001"]},
      "tags": {
        "amenity": "vending_machine",
        "operator": "Hampton Beach State Park"
      }
    },
    {
      "displayName": "Hanauer Parkhaus GmbH",
      "id": "hanauerparkhausgmbh-915a28",
      "locationSet": {"include": ["001"]},
      "tags": {
        "amenity": "vending_machine",
        "operator": "Hanauer Parkhaus GmbH"
      }
    },
    {
      "displayName": "Hans Hoffelner GmbH",
      "id": "hanshoffelnergmbh-915a28",
      "locationSet": {"include": ["001"]},
      "tags": {
        "amenity": "vending_machine",
        "operator": "Hans Hoffelner GmbH"
      }
    },
    {
      "displayName": "Hermes",
      "id": "hermes-915a28",
      "locationSet": {"include": ["001"]},
      "tags": {
        "amenity": "vending_machine",
        "operator": "Hermes"
      }
    },
    {
      "displayName": "HKR",
      "id": "hkr-915a28",
      "locationSet": {"include": ["001"]},
      "tags": {
        "amenity": "vending_machine",
        "operator": "HKR"
      }
    },
    {
      "displayName": "HSL",
      "id": "hsl-915a28",
      "locationSet": {"include": ["001"]},
      "tags": {
        "amenity": "vending_machine",
        "operator": "HSL"
      }
    },
    {
      "displayName": "Huissel Tabak GmbH",
      "id": "huisseltabakgmbh-915a28",
      "locationSet": {"include": ["001"]},
      "tags": {
        "amenity": "vending_machine",
        "operator": "Huissel Tabak GmbH"
      }
    },
    {
      "displayName": "Ilbertz",
      "id": "ilbertz-915a28",
      "locationSet": {"include": ["001"]},
      "tags": {
        "amenity": "vending_machine",
        "operator": "Ilbertz"
      }
    },
    {
      "displayName": "Impark",
      "id": "impark-915a28",
      "locationSet": {"include": ["001"]},
      "tags": {
        "amenity": "vending_machine",
        "operator": "Impark"
      }
    },
    {
      "displayName": "Indigo",
      "id": "indigo-915a28",
      "locationSet": {"include": ["001"]},
      "tags": {
        "amenity": "vending_machine",
        "operator": "Indigo"
      }
    },
    {
      "displayName": "INFRA, VGN",
      "id": "infravgn-915a28",
      "locationSet": {"include": ["001"]},
      "tags": {
        "amenity": "vending_machine",
        "operator": "INFRA, VGN"
      }
    },
    {
      "displayName": "Innsbrucker Verkehrsbetriebe und Stubaitalbahn GmbH",
      "id": "innsbruckerverkehrsbetriebeundstubaitalbahngmbh-915a28",
      "locationSet": {"include": ["001"]},
      "tags": {
        "amenity": "vending_machine",
        "operator": "Innsbrucker Verkehrsbetriebe und Stubaitalbahn GmbH"
      }
    },
    {
      "displayName": "InPost S.A.",
      "id": "inpostsa-915a28",
      "locationSet": {"include": ["001"]},
      "tags": {
        "amenity": "vending_machine",
        "operator": "InPost S.A."
      }
    },
    {
      "displayName": "Instabox",
      "id": "instabox-915a28",
      "locationSet": {"include": ["001"]},
      "tags": {
        "amenity": "vending_machine",
        "operator": "Instabox"
      }
    },
    {
      "displayName": "Irish Rail",
      "id": "irishrail-915a28",
      "locationSet": {"include": ["001"]},
      "tags": {
        "amenity": "vending_machine",
        "operator": "Irish Rail"
      }
    },
    {
      "displayName": "Itella",
      "id": "itella-915a28",
      "locationSet": {"include": ["001"]},
      "tags": {
        "amenity": "vending_machine",
        "operator": "Itella"
      }
    },
    {
      "displayName": "IVB",
      "id": "ivb-915a28",
      "locationSet": {"include": ["001"]},
      "tags": {
        "amenity": "vending_machine",
        "operator": "IVB"
      }
    },
    {
      "displayName": "Kaufland",
      "id": "kaufland-915a28",
      "locationSet": {"include": ["001"]},
      "tags": {
        "amenity": "vending_machine",
        "operator": "Kaufland"
      }
    },
    {
      "displayName": "KBS GmbH",
      "id": "kbsgmbh-915a28",
      "locationSet": {"include": ["001"]},
      "tags": {
        "amenity": "vending_machine",
        "operator": "KBS GmbH"
      }
    },
    {
      "displayName": "Keolis",
      "id": "keolis-915a28",
      "locationSet": {"include": ["001"]},
      "tags": {
        "amenity": "vending_machine",
        "operator": "Keolis"
      }
    },
    {
      "displayName": "Keolis Besançon Mobilités",
      "id": "keolisbesanconmobilites-915a28",
      "locationSet": {"include": ["001"]},
      "tags": {
        "amenity": "vending_machine",
        "operator": "Keolis Besançon Mobilités"
      }
    },
    {
      "displayName": "Keolis Tours",
      "id": "keolistours-915a28",
      "locationSet": {"include": ["001"]},
      "tags": {
        "amenity": "vending_machine",
        "operator": "Keolis Tours"
      }
    },
    {
      "displayName": "Kerner",
      "id": "kerner-915a28",
      "locationSet": {"include": ["001"]},
      "tags": {
        "amenity": "vending_machine",
        "operator": "Kerner"
      }
    },
    {
      "displayName": "Klaus Bergmann, Kleinblittersdorf",
      "id": "klausbergmannkleinblittersdorf-915a28",
      "locationSet": {"include": ["001"]},
      "tags": {
        "amenity": "vending_machine",
        "operator": "Klaus Bergmann, Kleinblittersdorf"
      }
    },
    {
      "displayName": "Klömpkes",
      "id": "klompkes-915a28",
      "locationSet": {"include": ["001"]},
      "tags": {
        "amenity": "vending_machine",
        "operator": "Klömpkes"
      }
    },
    {
      "displayName": "Knauf Automaten",
      "id": "knaufautomaten-915a28",
      "locationSet": {"include": ["001"]},
      "tags": {
        "amenity": "vending_machine",
        "operator": "Knauf Automaten"
      }
    },
    {
      "displayName": "Koleje Mazowieckie",
      "id": "kolejemazowieckie-915a28",
      "locationSet": {"include": ["001"]},
      "tags": {
        "amenity": "vending_machine",
        "operator": "Koleje Mazowieckie"
      }
    },
    {
      "displayName": "Komunikacja Miejska Kołobrzeg",
      "id": "komunikacjamiejskakolobrzeg-915a28",
      "locationSet": {"include": ["001"]},
      "tags": {
        "amenity": "vending_machine",
        "operator": "Komunikacja Miejska Kołobrzeg"
      }
    },
    {
      "displayName": "Komunikacja Miejska w Kołobrzegu",
      "id": "komunikacjamiejskawkolobrzegu-915a28",
      "locationSet": {"include": ["001"]},
      "tags": {
        "amenity": "vending_machine",
        "operator": "Komunikacja Miejska w Kołobrzegu"
      }
    },
    {
      "displayName": "KVB",
      "id": "kvb-915a28",
      "locationSet": {"include": ["001"]},
      "tags": {
        "amenity": "vending_machine",
        "operator": "KVB"
      }
    },
    {
      "displayName": "Kwik Trip",
      "id": "kwiktrip-915a28",
      "locationSet": {"include": ["001"]},
      "tags": {
        "amenity": "vending_machine",
        "operator": "Kwik Trip"
      }
    },
    {
      "displayName": "KWL",
      "id": "kwl-915a28",
      "locationSet": {"include": ["001"]},
      "tags": {
        "amenity": "vending_machine",
        "operator": "KWL"
      }
    },
    {
      "displayName": "La Poste",
      "id": "laposte-915a28",
      "locationSet": {"include": ["001"]},
      "tags": {
        "amenity": "vending_machine",
        "operator": "La Poste"
      }
    },
    {
      "displayName": "Landeshaupstadt Potsdam",
      "id": "landeshaupstadtpotsdam-915a28",
      "locationSet": {"include": ["001"]},
      "tags": {
        "amenity": "vending_machine",
        "operator": "Landeshaupstadt Potsdam"
      }
    },
    {
      "displayName": "Landeshauptstadt Dresden",
      "id": "landeshauptstadtdresden-915a28",
      "locationSet": {"include": ["001"]},
      "tags": {
        "amenity": "vending_machine",
        "operator": "Landeshauptstadt Dresden"
      }
    },
    {
      "displayName": "Landeshauptstadt Düsseldorf",
      "id": "landeshauptstadtdusseldorf-915a28",
      "locationSet": {"include": ["001"]},
      "tags": {
        "amenity": "vending_machine",
        "operator": "Landeshauptstadt Düsseldorf"
      }
    },
    {
      "displayName": "Landeshauptstadt Stuttgart",
      "id": "landeshauptstadtstuttgart-915a28",
      "locationSet": {"include": ["001"]},
      "tags": {
        "amenity": "vending_machine",
        "operator": "Landeshauptstadt Stuttgart"
      }
    },
    {
      "displayName": "Lavazza",
      "id": "lavazza-915a28",
      "locationSet": {"include": ["001"]},
      "tags": {
        "amenity": "vending_machine",
        "operator": "Lavazza"
      }
    },
    {
      "displayName": "Le Grand Lyon",
      "id": "legrandlyon-915a28",
      "locationSet": {"include": ["001"]},
      "tags": {
        "amenity": "vending_machine",
        "operator": "Le Grand Lyon"
      }
    },
    {
      "displayName": "Lidl",
      "id": "lidl-915a28",
      "locationSet": {"include": ["001"]},
      "tags": {
        "amenity": "vending_machine",
        "operator": "Lidl"
      }
    },
    {
      "displayName": "Limoges Métropole",
      "id": "limogesmetropole-915a28",
      "locationSet": {"include": ["001"]},
      "tags": {
        "amenity": "vending_machine",
        "operator": "Limoges Métropole"
      }
    },
    {
      "displayName": "Linz AG Linien",
      "id": "linzaglinien-915a28",
      "locationSet": {"include": ["001"]},
      "tags": {
        "amenity": "vending_machine",
        "operator": "Linz AG Linien"
      }
    },
    {
      "displayName": "Linzmarket",
      "id": "linzmarket-915a28",
      "locationSet": {"include": ["001"]},
      "tags": {
        "amenity": "vending_machine",
        "operator": "Linzmarket"
      }
    },
    {
      "displayName": "Lomberg",
      "id": "lomberg-915a28",
      "locationSet": {"include": ["001"]},
      "tags": {
        "amenity": "vending_machine",
        "operator": "Lomberg"
      }
    },
    {
      "displayName": "Luas - Transdev Dublin Light Rail Limited",
      "id": "luastransdevdublinlightraillimited-915a28",
      "locationSet": {"include": ["001"]},
      "tags": {
        "amenity": "vending_machine",
        "operator": "Luas - Transdev Dublin Light Rail Limited"
      }
    },
    {
      "displayName": "Lufthansa",
      "id": "lufthansa-915a28",
      "locationSet": {"include": ["001"]},
      "tags": {
        "amenity": "vending_machine",
        "operator": "Lufthansa"
      }
    },
    {
      "displayName": "LVB",
      "id": "lvb-915a28",
      "locationSet": {"include": ["001"]},
      "tags": {
        "amenity": "vending_machine",
        "operator": "LVB"
      }
    },
    {
      "displayName": "Mac Valley Oil",
      "id": "macvalleyoil-915a28",
      "locationSet": {"include": ["001"]},
      "tags": {
        "amenity": "vending_machine",
        "operator": "Mac Valley Oil"
      }
    },
    {
      "displayName": "Macheroux",
      "id": "macheroux-915a28",
      "locationSet": {"include": ["001"]},
      "tags": {
        "amenity": "vending_machine",
        "operator": "Macheroux"
      }
    },
    {
      "displayName": "Magdeburger Verkehrsbetriebe GmbH & Co. KG",
      "id": "magdeburgerverkehrsbetriebegmbhandcokg-915a28",
      "locationSet": {"include": ["001"]},
      "tags": {
        "amenity": "vending_machine",
        "operator": "Magdeburger Verkehrsbetriebe GmbH & Co. KG"
      }
    },
    {
      "displayName": "Magyar Posta",
      "id": "magyarposta-915a28",
      "locationSet": {"include": ["001"]},
      "tags": {
        "amenity": "vending_machine",
        "operator": "Magyar Posta"
      }
    },
    {
      "displayName": "Mairie d'Orange",
      "id": "mairiedorange-915a28",
      "locationSet": {"include": ["001"]},
      "tags": {
        "amenity": "vending_machine",
        "operator": "Mairie d'Orange"
      }
    },
    {
      "displayName": "Mairie de Megeve",
      "id": "mairiedemegeve-915a28",
      "locationSet": {"include": ["001"]},
      "tags": {
        "amenity": "vending_machine",
        "operator": "Mairie de Megeve"
      }
    },
    {
      "displayName": "Mairie de Montrouge",
      "id": "mairiedemontrouge-915a28",
      "locationSet": {"include": ["001"]},
      "tags": {
        "amenity": "vending_machine",
        "operator": "Mairie de Montrouge"
      }
    },
    {
      "displayName": "Mairie de Nanterre",
      "id": "mairiedenanterre-915a28",
      "locationSet": {"include": ["001"]},
      "tags": {
        "amenity": "vending_machine",
        "operator": "Mairie de Nanterre"
      }
    },
    {
      "displayName": "Mairie de Pagny-sur-Moselle",
      "id": "mairiedepagnysurmoselle-915a28",
      "locationSet": {"include": ["001"]},
      "tags": {
        "amenity": "vending_machine",
        "operator": "Mairie de Pagny-sur-Moselle"
      }
    },
    {
      "displayName": "Mairie de Rennes",
      "id": "mairiederennes-915a28",
      "locationSet": {"include": ["001"]},
      "tags": {
        "amenity": "vending_machine",
        "operator": "Mairie de Rennes"
      }
    },
    {
      "displayName": "Mairie de Saint-Paul-lès-Dax",
      "id": "mairiedesaintpaullesdax-915a28",
      "locationSet": {"include": ["001"]},
      "tags": {
        "amenity": "vending_machine",
        "operator": "Mairie de Saint-Paul-lès-Dax"
      }
    },
    {
      "displayName": "Manix",
      "id": "manix-915a28",
      "locationSet": {"include": ["001"]},
      "tags": {
        "amenity": "vending_machine",
        "operator": "Manix"
      }
    },
    {
      "displayName": "Marktgemeinde Kammern im Liesingtal",
      "id": "marktgemeindekammernimliesingtal-915a28",
      "locationSet": {"include": ["001"]},
      "tags": {
        "amenity": "vending_machine",
        "operator": "Marktgemeinde Kammern im Liesingtal"
      }
    },
    {
      "displayName": "Marktgemeinde St. Johann in Tirol",
      "id": "marktgemeindestjohannintirol-915a28",
      "locationSet": {"include": ["001"]},
      "tags": {
        "amenity": "vending_machine",
        "operator": "Marktgemeinde St. Johann in Tirol"
      }
    },
    {
      "displayName": "MÁV",
      "id": "mav-915a28",
      "locationSet": {"include": ["001"]},
      "tags": {
        "amenity": "vending_machine",
        "operator": "MÁV"
      }
    },
    {
      "displayName": "MBTA",
      "id": "mbta-915a28",
      "locationSet": {"include": ["001"]},
      "tags": {
        "amenity": "vending_machine",
        "operator": "MBTA"
      }
    },
    {
      "displayName": "Mennica Polska",
      "id": "mennicapolska-915a28",
      "locationSet": {"include": ["001"]},
      "tags": {
        "amenity": "vending_machine",
        "operator": "Mennica Polska"
      }
    },
    {
      "displayName": "Meridian",
      "id": "meridian-915a28",
      "locationSet": {"include": ["001"]},
      "tags": {
        "amenity": "vending_machine",
        "operator": "Meridian"
      }
    },
    {
      "displayName": "Mestna občina Maribor",
      "id": "mestnaobcinamaribor-915a28",
      "locationSet": {"include": ["001"]},
      "tags": {
        "amenity": "vending_machine",
        "operator": "Mestna občina Maribor"
      }
    },
    {
      "displayName": "Mesto Košice",
      "id": "mestokosice-915a28",
      "locationSet": {"include": ["001"]},
      "tags": {
        "amenity": "vending_machine",
        "operator": "Mesto Košice"
      }
    },
    {
      "displayName": "Mesto Trenčín",
      "id": "mestotrencin-915a28",
      "locationSet": {"include": ["001"]},
      "tags": {
        "amenity": "vending_machine",
        "operator": "Mesto Trenčín"
      }
    },
    {
      "displayName": "Metra",
      "id": "metra-915a28",
      "locationSet": {"include": ["001"]},
      "tags": {
        "amenity": "vending_machine",
        "operator": "Metra"
      }
    },
    {
      "displayName": "Metro",
      "id": "metro-915a28",
      "locationSet": {"include": ["001"]},
      "tags": {
        "amenity": "vending_machine",
        "operator": "Metro"
      }
    },
    {
      "displayName": "Metronom",
      "id": "metronom-915a28",
      "locationSet": {"include": ["001"]},
      "tags": {
        "amenity": "vending_machine",
        "operator": "Metronom"
      }
    },
    {
      "displayName": "metronom Eisenbahngesellschaft mbH",
      "id": "metronomeisenbahngesellschaftmbh-915a28",
      "locationSet": {"include": ["001"]},
      "tags": {
        "amenity": "vending_machine",
        "operator": "metronom Eisenbahngesellschaft mbH"
      }
    },
    {
      "displayName": "Miasto Łańcut",
      "id": "miastolancut-915a28",
      "locationSet": {"include": ["001"]},
      "tags": {
        "amenity": "vending_machine",
        "operator": "Miasto Łańcut"
      }
    },
    {
      "displayName": "Miejska Infrastruktura Sp. z o.o.",
      "id": "miejskainfrastrukturaspzoo-915a28",
      "locationSet": {"include": ["001"]},
      "tags": {
        "amenity": "vending_machine",
        "operator": "Miejska Infrastruktura Sp. z o.o."
      }
    },
    {
      "displayName": "Miejski Zarząd Dróg w Kielcach",
      "id": "miejskizarzaddrogwkielcach-915a28",
      "locationSet": {"include": ["001"]},
      "tags": {
        "amenity": "vending_machine",
        "operator": "Miejski Zarząd Dróg w Kielcach"
      }
    },
    {
      "displayName": "MIKA Hunde-WC",
      "id": "mikahundewc-915a28",
      "locationSet": {"include": ["001"]},
      "tags": {
        "amenity": "vending_machine",
        "operator": "MIKA Hunde-WC"
      }
    },
    {
      "displayName": "MMB",
      "id": "mmb-915a28",
      "locationSet": {"include": ["001"]},
      "tags": {
        "amenity": "vending_machine",
        "operator": "MMB"
      }
    },
    {
      "displayName": "moBiel GmbH",
      "id": "mobielgmbh-915a28",
      "locationSet": {"include": ["001"]},
      "tags": {
        "amenity": "vending_machine",
        "operator": "moBiel GmbH"
      }
    },
    {
      "displayName": "Mobil",
      "id": "mobil-915a28",
      "locationSet": {"include": ["001"]},
      "tags": {
        "amenity": "vending_machine",
        "operator": "Mobil"
      }
    },
    {
      "displayName": "Mobiliteitsbedrijf Stad Gent",
      "id": "mobiliteitsbedrijfstadgent-915a28",
      "locationSet": {"include": ["001"]},
      "tags": {
        "amenity": "vending_machine",
        "operator": "Mobiliteitsbedrijf Stad Gent"
      }
    },
    {
      "displayName": "mohorn",
      "id": "mohorn-915a28",
      "locationSet": {"include": ["001"]},
      "tags": {
        "amenity": "vending_machine",
        "operator": "mohorn"
      }
    },
    {
      "displayName": "Movs",
      "id": "movs-915a28",
      "locationSet": {"include": ["001"]},
      "tags": {
        "amenity": "vending_machine",
        "operator": "Movs"
      }
    },
    {
      "displayName": "MPK Kraków",
      "id": "mpkkrakow-915a28",
      "locationSet": {"include": ["001"]},
      "tags": {
        "amenity": "vending_machine",
        "operator": "MPK Kraków"
      }
    },
    {
      "displayName": "MPK-Łódź",
      "id": "mpklodz-915a28",
      "locationSet": {"include": ["001"]},
      "tags": {
        "amenity": "vending_machine",
        "operator": "MPK-Łódź"
      }
    },
    {
      "displayName": "Münchner Verkehrsgesellschaft",
      "id": "munchnerverkehrsgesellschaft-915a28",
      "locationSet": {"include": ["001"]},
      "tags": {
        "amenity": "vending_machine",
        "operator": "Münchner Verkehrsgesellschaft"
      }
    },
    {
      "displayName": "Municipalidad de Rosario",
      "id": "municipalidadderosario-915a28",
      "locationSet": {"include": ["001"]},
      "tags": {
        "amenity": "vending_machine",
        "operator": "Municipalidad de Rosario"
      }
    },
    {
      "displayName": "MVG",
      "id": "mvg-915a28",
      "locationSet": {"include": ["001"]},
      "tags": {
        "amenity": "vending_machine",
        "operator": "MVG"
      }
    },
    {
      "displayName": "MVV",
      "id": "mvv-915a28",
      "locationSet": {"include": ["001"]},
      "tags": {
        "amenity": "vending_machine",
        "operator": "MVV"
      }
    },
    {
      "displayName": "MZD Cieszyn",
      "id": "mzdcieszyn-915a28",
      "locationSet": {"include": ["001"]},
      "tags": {
        "amenity": "vending_machine",
        "operator": "MZD Cieszyn"
      }
    },
    {
      "displayName": "MZDiK",
      "id": "mzdik-915a28",
      "locationSet": {"include": ["001"]},
      "tags": {
        "amenity": "vending_machine",
        "operator": "MZDiK"
      }
    },
    {
      "displayName": "Neapolis",
      "id": "neapolis-915a28",
      "locationSet": {"include": ["001"]},
      "tags": {
        "amenity": "vending_machine",
        "operator": "Neapolis"
      }
    },
    {
      "displayName": "Nederlandse Spoorwegen",
      "id": "nederlandsespoorwegen-915a28",
      "locationSet": {"include": ["001"]},
      "tags": {
        "amenity": "vending_machine",
        "operator": "Nederlandse Spoorwegen"
      }
    },
    {
      "displayName": "Network Rail",
      "id": "networkrail-915a28",
      "locationSet": {"include": ["001"]},
      "tags": {
        "amenity": "vending_machine",
        "operator": "Network Rail"
      }
    },
    {
      "displayName": "NMBS",
      "id": "nmbs-915a28",
      "locationSet": {"include": ["001"]},
      "tags": {
        "amenity": "vending_machine",
        "operator": "NMBS"
      }
    },
    {
      "displayName": "NMBS/SNCB",
      "id": "nmbssncb-915a28",
      "locationSet": {"include": ["001"]},
      "tags": {
        "amenity": "vending_machine",
        "operator": "NMBS/SNCB"
      }
    },
    {
      "displayName": "NordWestBahn",
      "id": "nordwestbahn-915a28",
      "locationSet": {"include": ["001"]},
      "tags": {
        "amenity": "vending_machine",
        "operator": "NordWestBahn"
      }
    },
    {
      "displayName": "Northern",
      "id": "northern-915a28",
      "locationSet": {"include": ["001"]},
      "tags": {
        "amenity": "vending_machine",
        "operator": "Northern"
      }
    },
    {
      "displayName": "NS",
      "id": "ns-915a28",
      "locationSet": {"include": ["001"]},
      "tags": {
        "amenity": "vending_machine",
        "operator": "NS"
      }
    },
    {
      "displayName": "NYÍRVV Nonprofit Kft.",
      "id": "nyirvvnonprofitkft-915a28",
      "locationSet": {"include": ["001"]},
      "tags": {
        "amenity": "vending_machine",
        "operator": "NYÍRVV Nonprofit Kft."
      }
    },
    {
      "displayName": "ÖBB",
      "id": "obb-915a28",
      "locationSet": {"include": ["001"]},
      "tags": {
        "amenity": "vending_machine",
        "operator": "ÖBB"
      }
    },
    {
      "displayName": "OC Transpo",
      "id": "octranspo-915a28",
      "locationSet": {"include": ["001"]},
      "tags": {
        "amenity": "vending_machine",
        "operator": "OC Transpo"
      }
    },
    {
      "displayName": "Omniva",
      "id": "omniva-915a28",
      "locationSet": {"include": ["001"]},
      "tags": {
        "amenity": "vending_machine",
        "operator": "Omniva"
      }
    },
    {
      "displayName": "Ostermeier",
      "id": "ostermeier-915a28",
      "locationSet": {"include": ["001"]},
      "tags": {
        "amenity": "vending_machine",
        "operator": "Ostermeier"
      }
    },
    {
      "displayName": "Österreichische Post AG",
      "id": "osterreichischepostag-915a28",
      "locationSet": {"include": ["001"]},
      "tags": {
        "amenity": "vending_machine",
        "operator": "Österreichische Post AG"
      }
    },
    {
      "displayName": "Otto Ilbertz Tabakwaren e.K.",
      "id": "ottoilbertztabakwarenek-915a28",
      "locationSet": {"include": ["001"]},
      "tags": {
        "amenity": "vending_machine",
        "operator": "Otto Ilbertz Tabakwaren e.K."
      }
    },
    {
      "displayName": "OV-Chipkaart",
      "id": "ovchipkaart-915a28",
      "locationSet": {"include": ["001"]},
      "tags": {
        "amenity": "vending_machine",
        "operator": "OV-Chipkaart"
      }
    },
    {
      "displayName": "ozon",
      "id": "ozon-915a28",
      "locationSet": {"include": ["001"]},
      "tags": {
        "amenity": "vending_machine",
        "operator": "ozon"
      }
    },
    {
      "displayName": "Packcity Japan",
      "id": "packcityjapan-915a28",
      "locationSet": {"include": ["001"]},
      "tags": {
        "amenity": "vending_machine",
        "operator": "Packcity Japan"
      }
    },
    {
      "displayName": "Padersprinter",
      "id": "padersprinter-915a28",
      "locationSet": {"include": ["001"]},
      "tags": {
        "amenity": "vending_machine",
        "operator": "Padersprinter"
      }
    },
    {
      "displayName": "Parcel Motel",
      "id": "parcelmotel-915a28",
      "locationSet": {"include": ["001"]},
      "tags": {
        "amenity": "vending_machine",
        "operator": "Parcel Motel"
      }
    },
    {
      "displayName": "ParcelLock GmbH",
      "id": "parcellockgmbh-915a28",
      "locationSet": {"include": ["001"]},
      "tags": {
        "amenity": "vending_machine",
        "operator": "ParcelLock GmbH"
      }
    },
    {
      "displayName": "Parkeer Service",
      "id": "parkeerservice-915a28",
      "locationSet": {"include": ["001"]},
      "tags": {
        "amenity": "vending_machine",
        "operator": "Parkeer Service"
      }
    },
    {
      "displayName": "PBG Parkhaus Betriebsgesellschaft mbH",
      "id": "pbgparkhausbetriebsgesellschaftmbh-915a28",
      "locationSet": {"include": ["001"]},
      "tags": {
        "amenity": "vending_machine",
        "operator": "PBG Parkhaus Betriebsgesellschaft mbH"
      }
    },
    {
      "displayName": "pennypress",
      "id": "pennypress-915a28",
      "locationSet": {"include": ["001"]},
      "tags": {
        "amenity": "vending_machine",
        "operator": "pennypress"
      }
    },
    {
      "displayName": "Pepsi",
      "id": "pepsi-915a28",
      "locationSet": {"include": ["001"]},
      "tags": {
        "amenity": "vending_machine",
        "operator": "Pepsi"
      }
    },
    {
      "displayName": "Peter Weinig",
      "id": "peterweinig-915a28",
      "locationSet": {"include": ["001"]},
      "tags": {
        "amenity": "vending_machine",
        "operator": "Peter Weinig"
      }
    },
    {
      "displayName": "Post",
      "id": "post-915a28",
      "locationSet": {"include": ["001"]},
      "tags": {
        "amenity": "vending_machine",
        "operator": "Post"
      }
    },
    {
      "displayName": "Posti",
      "id": "posti-915a28",
      "locationSet": {"include": ["001"]},
      "tags": {
        "amenity": "vending_machine",
        "operator": "Posti"
      }
    },
    {
      "displayName": "PostNL",
      "id": "postnl-915a28",
      "locationSet": {"include": ["001"]},
      "tags": {
        "amenity": "vending_machine",
        "operator": "PostNL"
      }
    },
    {
      "displayName": "PostNord Danmark",
      "id": "postnorddanmark-915a28",
      "locationSet": {"include": ["001"]},
      "tags": {
        "amenity": "vending_machine",
        "operator": "PostNord Danmark"
      }
    },
    {
      "displayName": "progenta",
      "id": "progenta-915a28",
      "locationSet": {"include": ["001"]},
      "tags": {
        "amenity": "vending_machine",
        "operator": "progenta"
      }
    },
    {
      "displayName": "Projekt Parking Sp. z o.o.",
      "id": "projektparkingspzoo-915a28",
      "locationSet": {"include": ["001"]},
      "tags": {
        "amenity": "vending_machine",
        "operator": "Projekt Parking Sp. z o.o."
      }
    },
    {
      "displayName": "Proskurin",
      "id": "proskurin-915a28",
      "locationSet": {"include": ["001"]},
      "tags": {
        "amenity": "vending_machine",
        "operator": "Proskurin"
      }
    },
    {
      "displayName": "provider",
      "id": "provider-915a28",
      "locationSet": {"include": ["001"]},
      "tags": {
        "amenity": "vending_machine",
        "operator": "provider"
      }
    },
    {
      "displayName": "Public Transport Victoria",
      "id": "publictransportvictoria-915a28",
      "locationSet": {"include": ["001"]},
      "tags": {
        "amenity": "vending_machine",
        "operator": "Public Transport Victoria"
      }
    },
    {
      "displayName": "Q-Park",
      "id": "qpark-915a28",
      "locationSet": {"include": ["001"]},
      "tags": {
        "amenity": "vending_machine",
        "operator": "Q-Park"
      }
    },
    {
      "displayName": "Qiwi",
      "id": "qiwi-915a28",
      "locationSet": {"include": ["001"]},
      "tags": {
        "amenity": "vending_machine",
        "operator": "Qiwi"
      }
    },
    {
      "displayName": "RATP",
      "id": "ratp-915a28",
      "locationSet": {"include": ["001"]},
      "tags": {
        "amenity": "vending_machine",
        "operator": "RATP"
      }
    },
    {
      "displayName": "RBS",
      "id": "rbs-915a28",
      "locationSet": {"include": ["001"]},
      "tags": {
        "amenity": "vending_machine",
        "operator": "RBS"
      }
    },
    {
      "displayName": "Regional Transportation District",
      "id": "regionaltransportationdistrict-915a28",
      "locationSet": {"include": ["001"]},
      "tags": {
        "amenity": "vending_machine",
        "operator": "Regional Transportation District"
      }
    },
    {
      "displayName": "Rek Parking",
      "id": "rekparking-915a28",
      "locationSet": {"include": ["001"]},
      "tags": {
        "amenity": "vending_machine",
        "operator": "Rek Parking"
      }
    },
    {
      "displayName": "Réseau Astuce",
      "id": "reseauastuce-915a28",
      "locationSet": {"include": ["001"]},
      "tags": {
        "amenity": "vending_machine",
        "operator": "Réseau Astuce"
      }
    },
    {
      "displayName": "Rhein-Neckar-Verkehr GmbH",
      "id": "rheinneckarverkehrgmbh-915a28",
      "locationSet": {"include": ["001"]},
      "tags": {
        "amenity": "vending_machine",
        "operator": "Rhein-Neckar-Verkehr GmbH"
      }
    },
    {
      "displayName": "Rheinbahn",
      "id": "rheinbahn-915a28",
      "locationSet": {"include": ["001"]},
      "tags": {
        "amenity": "vending_machine",
        "operator": "Rheinbahn"
      }
    },
    {
      "displayName": "Rīgas satiksme",
      "id": "rigassatiksme-915a28",
      "locationSet": {"include": ["001"]},
      "tags": {
        "amenity": "vending_machine",
        "operator": "Rīgas satiksme"
      }
    },
    {
      "displayName": "RingGo",
      "id": "ringgo-6fe21e",
      "locationSet": {"include": ["gb"]},
      "tags": {
        "amenity": "vending_machine",
        "operator": "RingGo",
        "operator:wikidata": "Q7334684",
        "operator:wikipedia": "en:RingGo",
        "vending": "parking_tickets"
      }
    },
    {
      "displayName": "RMV",
      "id": "rmv-915a28",
      "locationSet": {"include": ["001"]},
      "tags": {
        "amenity": "vending_machine",
        "operator": "RMV"
      }
    },
    {
      "displayName": "Robert Fleischmann",
      "id": "robertfleischmann-915a28",
      "locationSet": {"include": ["001"]},
      "tags": {
        "amenity": "vending_machine",
        "operator": "Robert Fleischmann"
      }
    },
    {
      "displayName": "Robidog AG",
      "id": "robidogag-915a28",
      "locationSet": {"include": ["001"]},
      "tags": {
        "amenity": "vending_machine",
        "operator": "Robidog AG"
      }
    },
    {
      "displayName": "roos",
      "id": "roos-915a28",
      "locationSet": {"include": ["001"]},
      "tags": {
        "amenity": "vending_machine",
        "operator": "roos"
      }
    },
    {
      "displayName": "ross",
      "id": "ross-915a28",
      "locationSet": {"include": ["001"]},
      "tags": {
        "amenity": "vending_machine",
        "operator": "ross"
      }
    },
    {
      "displayName": "Rozetka",
      "id": "rozetka-915a28",
      "locationSet": {"include": ["001"]},
      "tags": {
        "amenity": "vending_machine",
        "operator": "Rozetka"
      }
    },
    {
      "displayName": "RSAG",
      "id": "rsag-915a28",
      "locationSet": {"include": ["001"]},
      "tags": {
        "amenity": "vending_machine",
        "operator": "RSAG"
      }
    },
    {
      "displayName": "Ruhrbahn",
      "id": "ruhrbahn-915a28",
      "locationSet": {"include": ["001"]},
      "tags": {
        "amenity": "vending_machine",
        "operator": "Ruhrbahn"
      }
    },
    {
      "displayName": "S-Bahn Berlin",
      "id": "sbahnberlin-915a28",
      "locationSet": {"include": ["001"]},
      "tags": {
        "amenity": "vending_machine",
        "operator": "S-Bahn Berlin"
      }
    },
    {
      "displayName": "S-Bahn Berlin GmbH",
      "id": "sbahnberlingmbh-915a28",
      "locationSet": {"include": ["001"]},
      "tags": {
        "amenity": "vending_machine",
        "operator": "S-Bahn Berlin GmbH"
      }
    },
    {
      "displayName": "S.C.T. Group",
      "id": "sctgroup-915a28",
      "locationSet": {"include": ["001"]},
      "tags": {
        "amenity": "vending_machine",
        "operator": "S.C.T. Group"
      }
    },
    {
      "displayName": "Saarbahn GmbH",
      "id": "saarbahngmbh-915a28",
      "locationSet": {"include": ["001"]},
      "tags": {
        "amenity": "vending_machine",
        "operator": "Saarbahn GmbH"
      }
    },
    {
      "displayName": "SAGS",
      "id": "sags-915a28",
      "locationSet": {"include": ["001"]},
      "tags": {
        "amenity": "vending_machine",
        "operator": "SAGS"
      }
    },
    {
      "displayName": "Sameday",
      "id": "sameday-915a28",
      "locationSet": {"include": ["001"]},
      "tags": {
        "amenity": "vending_machine",
        "operator": "Sameday"
      }
    },
    {
      "displayName": "SBB",
      "id": "sbb-915a28",
      "locationSet": {"include": ["001"]},
      "tags": {
        "amenity": "vending_machine",
        "operator": "SBB"
      }
    },
    {
      "displayName": "Schlief",
      "id": "schlief-915a28",
      "locationSet": {"include": ["001"]},
      "tags": {
        "amenity": "vending_machine",
        "operator": "Schlief"
      }
    },
    {
      "displayName": "Schuhmann",
      "id": "schuhmann-915a28",
      "locationSet": {"include": ["001"]},
      "tags": {
        "amenity": "vending_machine",
        "operator": "Schuhmann"
      }
    },
    {
      "displayName": "SDOT",
      "id": "sdot-915a28",
      "locationSet": {"include": ["001"]},
      "tags": {
        "amenity": "vending_machine",
        "operator": "SDOT"
      }
    },
    {
      "displayName": "SEAB",
      "id": "seab-915a28",
      "locationSet": {"include": ["001"]},
      "tags": {
        "amenity": "vending_machine",
        "operator": "SEAB"
      }
    },
    {
      "displayName": "Selecta AG",
      "id": "selectaag-915a28",
      "locationSet": {"include": ["001"]},
      "tags": {
        "amenity": "vending_machine",
        "operator": "Selecta AG"
      }
    },
    {
      "displayName": "Selecta Deutschland GmbH",
      "id": "selectadeutschlandgmbh-915a28",
      "locationSet": {"include": ["001"]},
      "tags": {
        "amenity": "vending_machine",
        "operator": "Selecta Deutschland GmbH"
      }
    },
    {
      "displayName": "SEMITAN",
      "id": "semitan-915a28",
      "locationSet": {"include": ["001"]},
      "tags": {
        "amenity": "vending_machine",
        "operator": "SEMITAN"
      }
    },
    {
      "displayName": "Shell",
      "id": "shell-915a28",
      "locationSet": {"include": ["001"]},
      "tags": {
        "amenity": "vending_machine",
        "operator": "Shell"
      }
    },
    {
      "displayName": "Skånetrafiken",
      "id": "skanetrafiken-915a28",
      "locationSet": {"include": ["001"]},
      "tags": {
        "amenity": "vending_machine",
        "operator": "Skånetrafiken"
      }
    },
    {
      "displayName": "SKM",
      "id": "skm-915a28",
      "locationSet": {"include": ["001"]},
      "tags": {
        "amenity": "vending_machine",
        "operator": "SKM"
      }
    },
    {
      "displayName": "Skyss",
      "id": "skyss-915a28",
      "locationSet": {"include": ["001"]},
      "tags": {
        "amenity": "vending_machine",
        "operator": "Skyss"
      }
    },
    {
      "displayName": "SL",
      "id": "sl-915a28",
      "locationSet": {"include": ["001"]},
      "tags": {
        "amenity": "vending_machine",
        "operator": "SL"
      }
    },
    {
      "displayName": "Śląska Sieć Metropolitalna",
      "id": "slaskasiecmetropolitalna-915a28",
      "locationSet": {"include": ["001"]},
      "tags": {
        "amenity": "vending_machine",
        "operator": "Śląska Sieć Metropolitalna"
      }
    },
    {
      "displayName": "Slovenská pošta",
      "id": "slovenskaposta-915a28",
      "locationSet": {"include": ["001"]},
      "tags": {
        "amenity": "vending_machine",
        "operator": "Slovenská pošta"
      }
    },
    {
      "displayName": "Slovenská pošta, a.s.",
      "id": "slovenskapostaas-915a28",
      "locationSet": {"include": ["001"]},
      "tags": {
        "amenity": "vending_machine",
        "operator": "Slovenská pošta, a.s."
      }
    },
    {
      "displayName": "SMAT",
      "id": "smat-915a28",
      "locationSet": {"include": ["001"]},
      "tags": {
        "amenity": "vending_machine",
        "operator": "SMAT"
      }
    },
    {
      "displayName": "SNCB",
      "id": "sncb-915a28",
      "locationSet": {"include": ["001"]},
      "tags": {
        "amenity": "vending_machine",
        "operator": "SNCB"
      }
    },
    {
      "displayName": "SNCF",
      "id": "sncf-915a28",
      "locationSet": {"include": ["001"]},
      "tags": {
        "amenity": "vending_machine",
        "operator": "SNCF"
      }
    },
    {
      "displayName": "SPL Rouen Normandie Stationnement",
      "id": "splrouennormandiestationnement-915a28",
      "locationSet": {"include": ["001"]},
      "tags": {
        "amenity": "vending_machine",
        "operator": "SPL Rouen Normandie Stationnement"
      }
    },
    {
      "displayName": "SPP",
      "id": "spp-915a28",
      "locationSet": {"include": ["001"]},
      "tags": {
        "amenity": "vending_machine",
        "operator": "SPP"
      }
    },
    {
      "displayName": "SSB",
      "id": "ssb-915a28",
      "locationSet": {"include": ["001"]},
      "tags": {
        "amenity": "vending_machine",
        "operator": "SSB"
      }
    },
    {
      "displayName": "SSB AG",
      "id": "ssbag-915a28",
      "locationSet": {"include": ["001"]},
      "tags": {
        "amenity": "vending_machine",
        "operator": "SSB AG"
      }
    },
    {
      "displayName": "Stadt Aichach",
      "id": "stadtaichach-915a28",
      "locationSet": {"include": ["001"]},
      "tags": {
        "amenity": "vending_machine",
        "operator": "Stadt Aichach"
      }
    },
    {
      "displayName": "Stadt Augsburg",
      "id": "stadtaugsburg-915a28",
      "locationSet": {"include": ["001"]},
      "tags": {
        "amenity": "vending_machine",
        "operator": "Stadt Augsburg"
      }
    },
    {
      "displayName": "Stadt Augsburg - AGNF",
      "id": "stadtaugsburgagnf-915a28",
      "locationSet": {"include": ["001"]},
      "tags": {
        "amenity": "vending_machine",
        "operator": "Stadt Augsburg - AGNF"
      }
    },
    {
      "displayName": "Stadt Augsburg - AWS",
      "id": "stadtaugsburgaws-915a28",
      "locationSet": {"include": ["001"]},
      "tags": {
        "amenity": "vending_machine",
        "operator": "Stadt Augsburg - AWS"
      }
    },
    {
      "displayName": "Stadt Bad Homburg",
      "id": "stadtbadhomburg-915a28",
      "locationSet": {"include": ["001"]},
      "tags": {
        "amenity": "vending_machine",
        "operator": "Stadt Bad Homburg"
      }
    },
    {
      "displayName": "Stadt Bielefeld",
      "id": "stadtbielefeld-915a28",
      "locationSet": {"include": ["001"]},
      "tags": {
        "amenity": "vending_machine",
        "operator": "Stadt Bielefeld"
      }
    },
    {
      "displayName": "Stadt Billerbeck",
      "id": "stadtbillerbeck-915a28",
      "locationSet": {"include": ["001"]},
      "tags": {
        "amenity": "vending_machine",
        "operator": "Stadt Billerbeck"
      }
    },
    {
      "displayName": "Stadt Braunschweig",
      "id": "stadtbraunschweig-915a28",
      "locationSet": {"include": ["001"]},
      "tags": {
        "amenity": "vending_machine",
        "operator": "Stadt Braunschweig"
      }
    },
    {
      "displayName": "Stadt Burg",
      "id": "stadtburg-915a28",
      "locationSet": {"include": ["001"]},
      "tags": {
        "amenity": "vending_machine",
        "operator": "Stadt Burg"
      }
    },
    {
      "displayName": "Stadt Cochem",
      "id": "stadtcochem-915a28",
      "locationSet": {"include": ["001"]},
      "tags": {
        "amenity": "vending_machine",
        "operator": "Stadt Cochem"
      }
    },
    {
      "displayName": "Stadt Colditz",
      "id": "stadtcolditz-915a28",
      "locationSet": {"include": ["001"]},
      "tags": {
        "amenity": "vending_machine",
        "operator": "Stadt Colditz"
      }
    },
    {
      "displayName": "Stadt Cuxhaven",
      "id": "stadtcuxhaven-915a28",
      "locationSet": {"include": ["001"]},
      "tags": {
        "amenity": "vending_machine",
        "operator": "Stadt Cuxhaven"
      }
    },
    {
      "displayName": "Stadt Dessau-Roßlau",
      "id": "stadtdessaurosslau-915a28",
      "locationSet": {"include": ["001"]},
      "tags": {
        "amenity": "vending_machine",
        "operator": "Stadt Dessau-Roßlau"
      }
    },
    {
      "displayName": "Stadt Dormagen",
      "id": "stadtdormagen-915a28",
      "locationSet": {"include": ["001"]},
      "tags": {
        "amenity": "vending_machine",
        "operator": "Stadt Dormagen"
      }
    },
    {
      "displayName": "Stadt Dresden",
      "id": "stadtdresden-915a28",
      "locationSet": {"include": ["001"]},
      "tags": {
        "amenity": "vending_machine",
        "operator": "Stadt Dresden"
      }
    },
    {
      "displayName": "Stadt Düsseldorf",
      "id": "stadtdusseldorf-915a28",
      "locationSet": {"include": ["001"]},
      "tags": {
        "amenity": "vending_machine",
        "operator": "Stadt Düsseldorf"
      }
    },
    {
      "displayName": "Stadt Endingen Bauhof",
      "id": "stadtendingenbauhof-915a28",
      "locationSet": {"include": ["001"]},
      "tags": {
        "amenity": "vending_machine",
        "operator": "Stadt Endingen Bauhof"
      }
    },
    {
      "displayName": "Stadt Erding",
      "id": "stadterding-915a28",
      "locationSet": {"include": ["001"]},
      "tags": {
        "amenity": "vending_machine",
        "operator": "Stadt Erding"
      }
    },
    {
      "displayName": "Stadt Fürstenwalde/Spree",
      "id": "stadtfurstenwaldespree-915a28",
      "locationSet": {"include": ["001"]},
      "tags": {
        "amenity": "vending_machine",
        "operator": "Stadt Fürstenwalde/Spree"
      }
    },
    {
      "displayName": "Stadt Gießen",
      "id": "stadtgiessen-915a28",
      "locationSet": {"include": ["001"]},
      "tags": {
        "amenity": "vending_machine",
        "operator": "Stadt Gießen"
      }
    },
    {
      "displayName": "Stadt Göttingen",
      "id": "stadtgottingen-915a28",
      "locationSet": {"include": ["001"]},
      "tags": {
        "amenity": "vending_machine",
        "operator": "Stadt Göttingen"
      }
    },
    {
      "displayName": "Stadt Graz",
      "id": "stadtgraz-915a28",
      "locationSet": {"include": ["001"]},
      "tags": {
        "amenity": "vending_machine",
        "operator": "Stadt Graz"
      }
    },
    {
      "displayName": "Stadt Hamm",
      "id": "stadthamm-915a28",
      "locationSet": {"include": ["001"]},
      "tags": {
        "amenity": "vending_machine",
        "operator": "Stadt Hamm"
      }
    },
    {
      "displayName": "Stadt Illertissen",
      "id": "stadtillertissen-915a28",
      "locationSet": {"include": ["001"]},
      "tags": {
        "amenity": "vending_machine",
        "operator": "Stadt Illertissen"
      }
    },
    {
      "displayName": "Stadt Ingolstadt",
      "id": "stadtingolstadt-915a28",
      "locationSet": {"include": ["001"]},
      "tags": {
        "amenity": "vending_machine",
        "operator": "Stadt Ingolstadt"
      }
    },
    {
      "displayName": "Stadt Kaiserslautern",
      "id": "stadtkaiserslautern-915a28",
      "locationSet": {"include": ["001"]},
      "tags": {
        "amenity": "vending_machine",
        "operator": "Stadt Kaiserslautern"
      }
    },
    {
      "displayName": "Stadt Karlsruhe",
      "id": "stadtkarlsruhe-915a28",
      "locationSet": {"include": ["001"]},
      "tags": {
        "amenity": "vending_machine",
        "operator": "Stadt Karlsruhe"
      }
    },
    {
      "displayName": "Stadt Koblenz",
      "id": "stadtkoblenz-915a28",
      "locationSet": {"include": ["001"]},
      "tags": {
        "amenity": "vending_machine",
        "operator": "Stadt Koblenz"
      }
    },
    {
      "displayName": "Stadt Köln",
      "id": "stadtkoln-915a28",
      "locationSet": {"include": ["001"]},
      "tags": {
        "amenity": "vending_machine",
        "operator": "Stadt Köln"
      }
    },
    {
      "displayName": "Stadt Königstein",
      "id": "stadtkonigstein-915a28",
      "locationSet": {"include": ["001"]},
      "tags": {
        "amenity": "vending_machine",
        "operator": "Stadt Königstein"
      }
    },
    {
      "displayName": "Stadt Krefeld",
      "id": "stadtkrefeld-915a28",
      "locationSet": {"include": ["001"]},
      "tags": {
        "amenity": "vending_machine",
        "operator": "Stadt Krefeld"
      }
    },
    {
      "displayName": "Stadt Magdeburg",
      "id": "stadtmagdeburg-915a28",
      "locationSet": {"include": ["001"]},
      "tags": {
        "amenity": "vending_machine",
        "operator": "Stadt Magdeburg"
      }
    },
    {
      "displayName": "Stadt Moosburg a.d. Isar",
      "id": "stadtmoosburgadisar-915a28",
      "locationSet": {"include": ["001"]},
      "tags": {
        "amenity": "vending_machine",
        "operator": "Stadt Moosburg a.d. Isar"
      }
    },
    {
      "displayName": "Stadt Mülheim an der Ruhr",
      "id": "stadtmulheimanderruhr-915a28",
      "locationSet": {"include": ["001"]},
      "tags": {
        "amenity": "vending_machine",
        "operator": "Stadt Mülheim an der Ruhr"
      }
    },
    {
      "displayName": "Stadt München",
      "id": "stadtmunchen-915a28",
      "locationSet": {"include": ["001"]},
      "tags": {
        "amenity": "vending_machine",
        "operator": "Stadt München"
      }
    },
    {
      "displayName": "Stadt Neuss",
      "id": "stadtneuss-915a28",
      "locationSet": {"include": ["001"]},
      "tags": {
        "amenity": "vending_machine",
        "operator": "Stadt Neuss"
      }
    },
    {
      "displayName": "Stadt Schnaittenbach",
      "id": "stadtschnaittenbach-915a28",
      "locationSet": {"include": ["001"]},
      "tags": {
        "amenity": "vending_machine",
        "operator": "Stadt Schnaittenbach"
      }
    },
    {
      "displayName": "Stadt Trier",
      "id": "stadttrier-915a28",
      "locationSet": {"include": ["001"]},
      "tags": {
        "amenity": "vending_machine",
        "operator": "Stadt Trier"
      }
    },
    {
      "displayName": "Stadt Tübingen",
      "id": "stadttubingen-915a28",
      "locationSet": {"include": ["001"]},
      "tags": {
        "amenity": "vending_machine",
        "operator": "Stadt Tübingen"
      }
    },
    {
      "displayName": "Stadt Wegberg",
      "id": "stadtwegberg-915a28",
      "locationSet": {"include": ["001"]},
      "tags": {
        "amenity": "vending_machine",
        "operator": "Stadt Wegberg"
      }
    },
    {
      "displayName": "Stadt Wien",
      "id": "stadtwien-915a28",
      "locationSet": {"include": ["001"]},
      "tags": {
        "amenity": "vending_machine",
        "operator": "Stadt Wien"
      }
    },
    {
      "displayName": "Stadt Witten",
      "id": "stadtwitten-915a28",
      "locationSet": {"include": ["001"]},
      "tags": {
        "amenity": "vending_machine",
        "operator": "Stadt Witten"
      }
    },
    {
      "displayName": "Stadtentsorgung Lübeck",
      "id": "stadtentsorgunglubeck-915a28",
      "locationSet": {"include": ["001"]},
      "tags": {
        "amenity": "vending_machine",
        "operator": "Stadtentsorgung Lübeck"
      }
    },
    {
      "displayName": "Stadtgemeinde Rohrbach-Berg",
      "id": "stadtgemeinderohrbachberg-915a28",
      "locationSet": {"include": ["001"]},
      "tags": {
        "amenity": "vending_machine",
        "operator": "Stadtgemeinde Rohrbach-Berg"
      }
    },
    {
      "displayName": "Stadtverkehr Euskirchen (SVE)",
      "id": "stadtverkehreuskirchensve-915a28",
      "locationSet": {"include": ["001"]},
      "tags": {
        "amenity": "vending_machine",
        "operator": "Stadtverkehr Euskirchen (SVE)"
      }
    },
    {
      "displayName": "Stadtverwaltung Apolda",
      "id": "stadtverwaltungapolda-915a28",
      "locationSet": {"include": ["001"]},
      "tags": {
        "amenity": "vending_machine",
        "operator": "Stadtverwaltung Apolda"
      }
    },
    {
      "displayName": "Stadtverwaltung Flöha",
      "id": "stadtverwaltungfloha-915a28",
      "locationSet": {"include": ["001"]},
      "tags": {
        "amenity": "vending_machine",
        "operator": "Stadtverwaltung Flöha"
      }
    },
    {
      "displayName": "Stadtwerke Augsburg",
      "id": "stadtwerkeaugsburg-915a28",
      "locationSet": {"include": ["001"]},
      "tags": {
        "amenity": "vending_machine",
        "operator": "Stadtwerke Augsburg"
      }
    },
    {
      "displayName": "Stadtwerke Bonn",
      "id": "stadtwerkebonn-915a28",
      "locationSet": {"include": ["001"]},
      "tags": {
        "amenity": "vending_machine",
        "operator": "Stadtwerke Bonn"
      }
    },
    {
      "displayName": "Stadtwerke Brixen AG",
      "id": "stadtwerkebrixenag-915a28",
      "locationSet": {"include": ["001"]},
      "tags": {
        "amenity": "vending_machine",
        "operator": "Stadtwerke Brixen AG"
      }
    },
    {
      "displayName": "Stadtwerke Leoben",
      "id": "stadtwerkeleoben-915a28",
      "locationSet": {"include": ["001"]},
      "tags": {
        "amenity": "vending_machine",
        "operator": "Stadtwerke Leoben"
      }
    },
    {
      "displayName": "Stadtwerke Münster GmbH",
      "id": "stadtwerkemunstergmbh-915a28",
      "locationSet": {"include": ["001"]},
      "tags": {
        "amenity": "vending_machine",
        "operator": "Stadtwerke Münster GmbH"
      }
    },
    {
      "displayName": "Stationnement de Montréal",
      "id": "stationnementdemontreal-915a28",
      "locationSet": {"include": ["001"]},
      "tags": {
        "amenity": "vending_machine",
        "operator": "Stationnement de Montréal"
      }
    },
    {
      "displayName": "Stationnement Montréal",
      "id": "stationnementmontreal-915a28",
      "locationSet": {"include": ["001"]},
      "tags": {
        "amenity": "vending_machine",
        "operator": "Stationnement Montréal"
      }
    },
    {
      "displayName": "Steinhaus",
      "id": "steinhaus-915a28",
      "locationSet": {"include": ["001"]},
      "tags": {
        "amenity": "vending_machine",
        "operator": "Steinhaus"
      }
    },
    {
      "displayName": "STIB/MIVB",
      "id": "stibmivb-915a28",
      "locationSet": {"include": ["001"]},
      "tags": {
        "amenity": "vending_machine",
        "operator": "STIB/MIVB"
      }
    },
    {
      "displayName": "STIF",
      "id": "stif-915a28",
      "locationSet": {"include": ["001"]},
      "tags": {
        "amenity": "vending_machine",
        "operator": "STIF"
      }
    },
    {
      "displayName": "STO - Sistema de Tránsito Ordenado",
      "id": "stosistemadetransitoordenado-915a28",
      "locationSet": {"include": ["001"]},
      "tags": {
        "amenity": "vending_machine",
        "operator": "STO - Sistema de Tránsito Ordenado"
      }
    },
    {
      "displayName": "Stockholms stad",
      "id": "stockholmsstad-915a28",
      "locationSet": {"include": ["001"]},
      "tags": {
        "amenity": "vending_machine",
        "operator": "Stockholms stad"
      }
    },
    {
      "displayName": "Studierendenwerk Ulm",
      "id": "studierendenwerkulm-915a28",
      "locationSet": {"include": ["001"]},
      "tags": {
        "amenity": "vending_machine",
        "operator": "Studierendenwerk Ulm"
      }
    },
    {
      "displayName": "Stuttgarter Straßenbahnen",
      "id": "stuttgarterstrassenbahnen-915a28",
      "locationSet": {"include": ["001"]},
      "tags": {
        "amenity": "vending_machine",
        "operator": "Stuttgarter Straßenbahnen"
      }
    },
    {
      "displayName": "Stuttgarter Straßenbahnen AG",
      "id": "stuttgarterstrassenbahnenag-915a28",
      "locationSet": {"include": ["001"]},
      "tags": {
        "amenity": "vending_machine",
        "operator": "Stuttgarter Straßenbahnen AG"
      }
    },
    {
      "displayName": "SVZ",
      "id": "svz-915a28",
      "locationSet": {"include": ["001"]},
      "tags": {
        "amenity": "vending_machine",
        "operator": "SVZ"
      }
    },
    {
      "displayName": "SWEG",
      "id": "sweg-915a28",
      "locationSet": {"include": ["001"]},
      "tags": {
        "amenity": "vending_machine",
        "operator": "SWEG"
      }
    },
    {
      "displayName": "SWU",
      "id": "swu-915a28",
      "locationSet": {"include": ["001"]},
      "tags": {
        "amenity": "vending_machine",
        "operator": "SWU"
      }
    },
    {
      "displayName": "Sytral",
      "id": "sytral-915a28",
      "locationSet": {"include": ["001"]},
      "tags": {
        "amenity": "vending_machine",
        "operator": "Sytral"
      }
    },
    {
      "displayName": "Szegedi Közlekedési Társaság",
      "id": "szegedikozlekedesitarsasag-915a28",
      "locationSet": {"include": ["001"]},
      "tags": {
        "amenity": "vending_machine",
        "operator": "Szegedi Közlekedési Társaság"
      }
    },
    {
      "displayName": "T.A.V",
      "id": "tav-915a28",
      "locationSet": {"include": ["001"]},
      "tags": {
        "amenity": "vending_machine",
        "operator": "T.A.V"
      }
    },
    {
      "displayName": "tabaccoland",
      "id": "tabaccoland-915a28",
      "locationSet": {"include": ["001"]},
      "tags": {
        "amenity": "vending_machine",
        "operator": "tabaccoland"
      }
    },
    {
      "displayName": "tabacon",
      "id": "tabacon-915a28",
      "locationSet": {"include": ["001"]},
      "tags": {
        "amenity": "vending_machine",
        "operator": "tabacon"
      }
    },
    {
      "displayName": "Tabak Halbig",
      "id": "tabakhalbig-915a28",
      "locationSet": {"include": ["001"]},
      "tags": {
        "amenity": "vending_machine",
        "operator": "Tabak Halbig"
      }
    },
    {
      "displayName": "Tabak Lomberg",
      "id": "tabaklomberg-915a28",
      "locationSet": {"include": ["001"]},
      "tags": {
        "amenity": "vending_machine",
        "operator": "Tabak Lomberg"
      }
    },
    {
      "displayName": "Tabak Schlief",
      "id": "tabakschlief-915a28",
      "locationSet": {"include": ["001"]},
      "tags": {
        "amenity": "vending_machine",
        "operator": "Tabak Schlief"
      }
    },
    {
      "displayName": "Tabak Schuhmann",
      "id": "tabakschuhmann-915a28",
      "locationSet": {"include": ["001"]},
      "tags": {
        "amenity": "vending_machine",
        "operator": "Tabak Schuhmann"
      }
    },
    {
      "displayName": "Tabak Wirner",
      "id": "tabakwirner-915a28",
      "locationSet": {"include": ["001"]},
      "tags": {
        "amenity": "vending_machine",
        "operator": "Tabak Wirner"
      }
    },
    {
      "displayName": "Tabakvertrieb Thüringen",
      "id": "tabakvertriebthuringen-915a28",
      "locationSet": {"include": ["001"]},
      "tags": {
        "amenity": "vending_machine",
        "operator": "Tabakvertrieb Thüringen"
      }
    },
    {
      "displayName": "Tabakwaren Union Barkow",
      "id": "tabakwarenunionbarkow-915a28",
      "locationSet": {"include": ["001"]},
      "tags": {
        "amenity": "vending_machine",
        "operator": "Tabakwaren Union Barkow"
      }
    },
    {
      "displayName": "Tabakwaren Union GmbH & Co. KG",
      "id": "tabakwarenuniongmbhandcokg-915a28",
      "locationSet": {"include": ["001"]},
      "tags": {
        "amenity": "vending_machine",
        "operator": "Tabakwaren Union GmbH & Co. KG"
      }
    },
    {
      "displayName": "Tabakwaren-Union",
      "id": "tabakwarenunion-915a28",
      "locationSet": {"include": ["001"]},
      "tags": {
        "amenity": "vending_machine",
        "operator": "Tabakwaren-Union"
      }
    },
    {
      "displayName": "Tabakwarenvertriebsgesellschaft Thüringen mbH & Co. KG",
      "id": "tabakwarenvertriebsgesellschaftthuringenmbhandcokg-915a28",
      "locationSet": {"include": ["001"]},
      "tags": {
        "amenity": "vending_machine",
        "operator": "Tabakwarenvertriebsgesellschaft Thüringen mbH & Co. KG"
      }
    },
    {
      "displayName": "TAC",
      "id": "tac-915a28",
      "locationSet": {"include": ["001"]},
      "tags": {
        "amenity": "vending_machine",
        "operator": "TAC"
      }
    },
    {
      "displayName": "Tanéo",
      "id": "taneo-915a28",
      "locationSet": {"include": ["001"]},
      "tags": {
        "amenity": "vending_machine",
        "operator": "Tanéo"
      }
    },
    {
      "displayName": "Tapolcai Városgazdálkodási Kft.",
      "id": "tapolcaivarosgazdalkodasikft-915a28",
      "locationSet": {"include": ["001"]},
      "tags": {
        "amenity": "vending_machine",
        "operator": "Tapolcai Városgazdálkodási Kft."
      }
    },
    {
      "displayName": "TEC",
      "id": "tec-915a28",
      "locationSet": {"include": ["001"]},
      "tags": {
        "amenity": "vending_machine",
        "operator": "TEC"
      }
    },
    {
      "displayName": "Tegeler+Flore",
      "id": "tegelerflore-915a28",
      "locationSet": {"include": ["001"]},
      "tags": {
        "amenity": "vending_machine",
        "operator": "Tegeler+Flore"
      }
    },
    {
      "displayName": "TfWM",
      "id": "tfwm-915a28",
      "locationSet": {"include": ["001"]},
      "tags": {
        "amenity": "vending_machine",
        "operator": "TfWM"
      }
    },
    {
      "displayName": "The Courier",
      "id": "thecourier-915a28",
      "locationSet": {"include": ["001"]},
      "tags": {
        "amenity": "vending_machine",
        "operator": "The Courier"
      }
    },
    {
      "displayName": "The Village at Rayzor Ranch",
      "id": "thevillageatrayzorranch-915a28",
      "locationSet": {"include": ["001"]},
      "tags": {
        "amenity": "vending_machine",
        "operator": "The Village at Rayzor Ranch"
      }
    },
    {
      "displayName": "Tisséo",
      "id": "tisseo-915a28",
      "locationSet": {"include": ["001"]},
      "tags": {
        "amenity": "vending_machine",
        "operator": "Tisséo"
      }
    },
    {
      "displayName": "Tobaccoland Automatengesellschaft",
      "id": "tobaccolandautomatengesellschaft-915a28",
      "locationSet": {"include": ["001"]},
      "tags": {
        "amenity": "vending_machine",
        "operator": "Tobaccoland Automatengesellschaft"
      }
    },
    {
      "displayName": "tobaccoland Automatengesellschaft mbH & Co. KG",
      "id": "tobaccolandautomatengesellschaftmbhandcokg-915a28",
      "locationSet": {"include": ["001"]},
      "tags": {
        "amenity": "vending_machine",
        "operator": "tobaccoland Automatengesellschaft mbH & Co. KG"
      }
    },
    {
      "displayName": "Toll Collect GmbH",
      "id": "tollcollectgmbh-915a28",
      "locationSet": {"include": ["001"]},
      "tags": {
        "amenity": "vending_machine",
        "operator": "Toll Collect GmbH"
      }
    },
    {
      "displayName": "Toronto Star",
      "id": "torontostar-915a28",
      "locationSet": {"include": ["001"]},
      "tags": {
        "amenity": "vending_machine",
        "operator": "Toronto Star"
      }
    },
    {
      "displayName": "Toronto Sun",
      "id": "torontosun-915a28",
      "locationSet": {"include": ["001"]},
      "tags": {
        "amenity": "vending_machine",
        "operator": "Toronto Sun"
      }
    },
    {
      "displayName": "Toutounet",
      "id": "toutounet-915a28",
      "locationSet": {"include": ["001"]},
      "tags": {
        "amenity": "vending_machine",
        "operator": "Toutounet"
      }
    },
    {
      "displayName": "Town of Riverdale Park",
      "id": "townofriverdalepark-915a28",
      "locationSet": {"include": ["001"]},
      "tags": {
        "amenity": "vending_machine",
        "operator": "Town of Riverdale Park"
      }
    },
    {
      "displayName": "trans regio",
      "id": "transregio-915a28",
      "locationSet": {"include": ["001"]},
      "tags": {
        "amenity": "vending_machine",
        "operator": "trans regio"
      }
    },
    {
      "displayName": "Transdev",
      "id": "transdev-915a28",
      "locationSet": {"include": ["001"]},
      "tags": {
        "amenity": "vending_machine",
        "operator": "Transdev"
      }
    },
    {
      "displayName": "Transdev Vertrieb GmbH",
      "id": "transdevvertriebgmbh-915a28",
      "locationSet": {"include": ["001"]},
      "tags": {
        "amenity": "vending_machine",
        "operator": "Transdev Vertrieb GmbH"
      }
    },
    {
      "displayName": "Transport for London",
      "id": "transportforlondon-915a28",
      "locationSet": {"include": ["001"]},
      "tags": {
        "amenity": "vending_machine",
        "operator": "Transport for London"
      }
    },
    {
      "displayName": "Transports de l'agglomération de Montpellier",
      "id": "transportsdelagglomerationdemontpellier-915a28",
      "locationSet": {"include": ["001"]},
      "tags": {
        "amenity": "vending_machine",
        "operator": "Transports de l'agglomération de Montpellier"
      }
    },
    {
      "displayName": "Trenitalia",
      "id": "trenitalia-915a28",
      "locationSet": {"include": ["001"]},
      "tags": {
        "amenity": "vending_machine",
        "operator": "Trenitalia"
      }
    },
    {
      "displayName": "Trenord",
      "id": "trenord-915a28",
      "locationSet": {"include": ["001"]},
      "tags": {
        "amenity": "vending_machine",
        "operator": "Trenord"
      }
    },
    {
      "displayName": "TUTicket",
      "id": "tuticket-915a28",
      "locationSet": {"include": ["001"]},
      "tags": {
        "amenity": "vending_machine",
        "operator": "TUTicket"
      }
    },
    {
      "displayName": "UHV",
      "id": "uhv-915a28",
      "locationSet": {"include": ["001"]},
      "tags": {
        "amenity": "vending_machine",
        "operator": "UHV"
      }
    },
    {
      "displayName": "Umwelt-Hygiene-Vertrieb",
      "id": "umwelthygienevertrieb-915a28",
      "locationSet": {"include": ["001"]},
      "tags": {
        "amenity": "vending_machine",
        "operator": "Umwelt-Hygiene-Vertrieb"
      }
    },
    {
      "displayName": "Unipark",
      "id": "unipark-915a28",
      "locationSet": {"include": ["001"]},
      "tags": {
        "amenity": "vending_machine",
        "operator": "Unipark"
      }
    },
    {
      "displayName": "University of Alaska Fairbanks",
      "id": "universityofalaskafairbanks-915a28",
      "locationSet": {"include": ["001"]},
      "tags": {
        "amenity": "vending_machine",
        "operator": "University of Alaska Fairbanks"
      }
    },
    {
      "displayName": "UPS",
      "id": "ups-915a28",
      "locationSet": {"include": ["001"]},
      "tags": {
        "amenity": "vending_machine",
        "operator": "UPS"
      }
    },
    {
      "displayName": "ÜSTRA Hannoversche Verkehrsbetriebe AG",
      "id": "ustrahannoverscheverkehrsbetriebeag-915a28",
      "locationSet": {"include": ["001"]},
      "tags": {
        "amenity": "vending_machine",
        "operator": "ÜSTRA Hannoversche Verkehrsbetriebe AG"
      }
    },
    {
      "displayName": "VAG",
      "id": "vag-915a28",
      "locationSet": {"include": ["001"]},
      "tags": {
        "amenity": "vending_machine",
        "operator": "VAG"
      }
    },
    {
      "displayName": "VAG, VGN",
      "id": "vagvgn-915a28",
      "locationSet": {"include": ["001"]},
      "tags": {
        "amenity": "vending_machine",
        "operator": "VAG, VGN"
      }
    },
    {
      "displayName": "VBZ",
      "id": "vbz-915a28",
      "locationSet": {"include": ["001"]},
      "tags": {
        "amenity": "vending_machine",
        "operator": "VBZ"
      }
    },
    {
      "displayName": "Ventra",
      "id": "ventra-915a28",
      "locationSet": {"include": ["001"]},
      "tags": {
        "amenity": "vending_machine",
        "operator": "Ventra"
      }
    },
    {
      "displayName": "Verkehrs- und Tiefbauamt Leipzig",
      "id": "verkehrsundtiefbauamtleipzig-915a28",
      "locationSet": {"include": ["001"]},
      "tags": {
        "amenity": "vending_machine",
        "operator": "Verkehrs- und Tiefbauamt Leipzig"
      }
    },
    {
      "displayName": "Verkehrsbetriebe Karlsruhe GmbH",
      "id": "verkehrsbetriebekarlsruhegmbh-915a28",
      "locationSet": {"include": ["001"]},
      "tags": {
        "amenity": "vending_machine",
        "operator": "Verkehrsbetriebe Karlsruhe GmbH"
      }
    },
    {
      "displayName": "Versorgungsbetriebe Hann. Münden GmbH",
      "id": "versorgungsbetriebehannmundengmbh-915a28",
      "locationSet": {"include": ["001"]},
      "tags": {
        "amenity": "vending_machine",
        "operator": "Versorgungsbetriebe Hann. Münden GmbH"
      }
    },
    {
      "displayName": "VG Herxheim",
      "id": "vgherxheim-915a28",
      "locationSet": {"include": ["001"]},
      "tags": {
        "amenity": "vending_machine",
        "operator": "VG Herxheim"
      }
    },
    {
      "displayName": "VGF",
      "id": "vgf-915a28",
      "locationSet": {"include": ["001"]},
      "tags": {
        "amenity": "vending_machine",
        "operator": "VGF"
      }
    },
    {
      "displayName": "Ville d'Arles",
      "id": "villedarles-915a28",
      "locationSet": {"include": ["001"]},
      "tags": {
        "amenity": "vending_machine",
        "operator": "Ville d'Arles"
      }
    },
    {
      "displayName": "Ville d'Auxerre",
      "id": "villedauxerre-915a28",
      "locationSet": {"include": ["001"]},
      "tags": {
        "amenity": "vending_machine",
        "operator": "Ville d'Auxerre"
      }
    },
    {
      "displayName": "Ville d'Avignon",
      "id": "villedavignon-915a28",
      "locationSet": {"include": ["001"]},
      "tags": {
        "amenity": "vending_machine",
        "operator": "Ville d'Avignon"
      }
    },
    {
      "displayName": "Ville de Besançon",
      "id": "villedebesancon-915a28",
      "locationSet": {"include": ["001"]},
      "tags": {
        "amenity": "vending_machine",
        "operator": "Ville de Besançon"
      }
    },
    {
      "displayName": "Ville de Dijon",
      "id": "villededijon-915a28",
      "locationSet": {"include": ["001"]},
      "tags": {
        "amenity": "vending_machine",
        "operator": "Ville de Dijon"
      }
    },
    {
      "displayName": "Ville de La Grande Motte",
      "id": "villedelagrandemotte-915a28",
      "locationSet": {"include": ["001"]},
      "tags": {
        "amenity": "vending_machine",
        "operator": "Ville de La Grande Motte"
      }
    },
    {
      "displayName": "Ville de Limoges",
      "id": "villedelimoges-915a28",
      "locationSet": {"include": ["001"]},
      "tags": {
        "amenity": "vending_machine",
        "operator": "Ville de Limoges"
      }
    },
    {
      "displayName": "Ville de Rennes",
      "id": "villederennes-915a28",
      "locationSet": {"include": ["001"]},
      "tags": {
        "amenity": "vending_machine",
        "operator": "Ville de Rennes"
      }
    },
    {
      "displayName": "Ville de Rodez",
      "id": "villederodez-915a28",
      "locationSet": {"include": ["001"]},
      "tags": {
        "amenity": "vending_machine",
        "operator": "Ville de Rodez"
      }
    },
    {
      "displayName": "Ville de Thonon-les-Bains",
      "id": "villedethononlesbains-915a28",
      "locationSet": {"include": ["001"]},
      "tags": {
        "amenity": "vending_machine",
        "operator": "Ville de Thonon-les-Bains"
      }
    },
    {
      "displayName": "Ville de Vichy",
      "id": "villedevichy-915a28",
      "locationSet": {"include": ["001"]},
      "tags": {
        "amenity": "vending_machine",
        "operator": "Ville de Vichy"
      }
    },
    {
      "displayName": "Villeneuve d'Ascq",
      "id": "villeneuvedascq-915a28",
      "locationSet": {"include": ["001"]},
      "tags": {
        "amenity": "vending_machine",
        "operator": "Villeneuve d'Ascq"
      }
    },
    {
      "displayName": "VIVA",
      "id": "viva-915a28",
      "locationSet": {"include": ["001"]},
      "tags": {
        "amenity": "vending_machine",
        "operator": "VIVA"
      }
    },
    {
      "displayName": "vlexx GmbH",
      "id": "vlexxgmbh-915a28",
      "locationSet": {"include": ["001"]},
      "tags": {
        "amenity": "vending_machine",
        "operator": "vlexx GmbH"
      }
    },
    {
      "displayName": "Volánbusz",
      "id": "volanbusz-915a28",
      "locationSet": {"include": ["001"]},
      "tags": {
        "amenity": "vending_machine",
        "operator": "Volánbusz"
      }
    },
    {
      "displayName": "VR",
      "id": "vr-915a28",
      "locationSet": {"include": ["001"]},
      "tags": {
        "amenity": "vending_machine",
        "operator": "VR"
      }
    },
    {
      "displayName": "VVS",
      "id": "vvs-915a28",
      "locationSet": {"include": ["001"]},
      "tags": {
        "amenity": "vending_machine",
        "operator": "VVS"
      }
    },
    {
      "displayName": "WAGSO",
      "id": "wagso-915a28",
      "locationSet": {"include": ["001"]},
      "tags": {
        "amenity": "vending_machine",
        "operator": "WAGSO"
      }
    },
    {
      "displayName": "Warwickshire County Council",
      "id": "warwickshirecountycouncil-915a28",
      "locationSet": {"include": ["001"]},
      "tags": {
        "amenity": "vending_machine",
        "operator": "Warwickshire County Council"
      }
    },
    {
      "displayName": "Waterford City and County Council",
      "id": "waterfordcityandcountycouncil-915a28",
      "locationSet": {"include": ["001"]},
      "tags": {
        "amenity": "vending_machine",
        "operator": "Waterford City and County Council"
      }
    },
    {
      "displayName": "WE",
      "id": "we-915a28",
      "locationSet": {"include": ["001"]},
      "tags": {
        "amenity": "vending_machine",
        "operator": "WE"
      }
    },
    {
      "displayName": "Weber",
      "id": "weber-915a28",
      "locationSet": {"include": ["001"]},
      "tags": {
        "amenity": "vending_machine",
        "operator": "Weber"
      }
    },
    {
      "displayName": "Westfalenbahn",
      "id": "westfalenbahn-915a28",
      "locationSet": {"include": ["001"]},
      "tags": {
        "amenity": "vending_machine",
        "operator": "Westfalenbahn"
      }
    },
    {
      "displayName": "Wiener Linien",
      "id": "wienerlinien-915a28",
      "locationSet": {"include": ["001"]},
      "tags": {
        "amenity": "vending_machine",
        "operator": "Wiener Linien"
      }
    },
    {
      "displayName": "Willbold",
      "id": "willbold-915a28",
      "locationSet": {"include": ["001"]},
      "tags": {
        "amenity": "vending_machine",
        "operator": "Willbold"
      }
    },
    {
      "displayName": "Wolf",
      "id": "wolf-915a28",
      "locationSet": {"include": ["001"]},
      "tags": {
        "amenity": "vending_machine",
        "operator": "Wolf"
      }
    },
    {
      "displayName": "Wolf Tabakwaren",
      "id": "wolftabakwaren-915a28",
      "locationSet": {"include": ["001"]},
      "tags": {
        "amenity": "vending_machine",
        "operator": "Wolf Tabakwaren"
      }
    },
    {
      "displayName": "Wolf Tabakwaren e.K.",
      "id": "wolftabakwarenek-915a28",
      "locationSet": {"include": ["001"]},
      "tags": {
        "amenity": "vending_machine",
        "operator": "Wolf Tabakwaren e.K."
      }
    },
    {
      "displayName": "Wolters",
      "id": "wolters-915a28",
      "locationSet": {"include": ["001"]},
      "tags": {
        "amenity": "vending_machine",
        "operator": "Wolters"
      }
    },
    {
      "displayName": "Wolters GmbH",
      "id": "woltersgmbh-915a28",
      "locationSet": {"include": ["001"]},
      "tags": {
        "amenity": "vending_machine",
        "operator": "Wolters GmbH"
      }
    },
    {
      "displayName": "Wolters Tabakwaren",
      "id": "wolterstabakwaren-915a28",
      "locationSet": {"include": ["001"]},
      "tags": {
        "amenity": "vending_machine",
        "operator": "Wolters Tabakwaren"
      }
    },
    {
      "displayName": "WSW",
      "id": "wsw-915a28",
      "locationSet": {"include": ["001"]},
      "tags": {
        "amenity": "vending_machine",
        "operator": "WSW"
      }
    },
    {
      "displayName": "www.valleymetro.org",
      "id": "wwwvalleymetroorg-915a28",
      "locationSet": {"include": ["001"]},
      "tags": {
        "amenity": "vending_machine",
        "operator": "www.valleymetro.org"
      }
    },
    {
      "displayName": "Z+M",
      "id": "zm-915a28",
      "locationSet": {"include": ["001"]},
      "tags": {
        "amenity": "vending_machine",
        "operator": "Z+M"
      }
    },
    {
      "displayName": "Zarząd Transportu Metropolitalnego",
      "id": "zarzadtransportumetropolitalnego-915a28",
      "locationSet": {"include": ["001"]},
      "tags": {
        "amenity": "vending_machine",
        "operator": "Zarząd Transportu Metropolitalnego"
      }
    },
    {
      "displayName": "Zásilkovna",
      "id": "zasilkovna-915a28",
      "locationSet": {"include": ["001"]},
      "tags": {
        "amenity": "vending_machine",
        "operator": "Zásilkovna"
      }
    },
    {
      "displayName": "ZDiTM Szczecin",
      "id": "zditmszczecin-915a28",
      "locationSet": {"include": ["001"]},
      "tags": {
        "amenity": "vending_machine",
        "operator": "ZDiTM Szczecin"
      }
    },
    {
      "displayName": "ZDKiUM w Wałbrzychu",
      "id": "zdkiumwwalbrzychu-915a28",
      "locationSet": {"include": ["001"]},
      "tags": {
        "amenity": "vending_machine",
        "operator": "ZDKiUM w Wałbrzychu"
      }
    },
    {
      "displayName": "ZDM Grudziądz",
      "id": "zdmgrudziadz-915a28",
      "locationSet": {"include": ["001"]},
      "tags": {
        "amenity": "vending_machine",
        "operator": "ZDM Grudziądz"
      }
    },
    {
      "displayName": "ZDM Poznań",
      "id": "zdmpoznan-915a28",
      "locationSet": {"include": ["001"]},
      "tags": {
        "amenity": "vending_machine",
        "operator": "ZDM Poznań"
      }
    },
    {
      "displayName": "ZDMK",
      "id": "zdmk-915a28",
      "locationSet": {"include": ["001"]},
      "tags": {
        "amenity": "vending_machine",
        "operator": "ZDMK"
      }
    },
    {
      "displayName": "ZDZiT Olsztyn",
      "id": "zdzitolsztyn-915a28",
      "locationSet": {"include": ["001"]},
      "tags": {
        "amenity": "vending_machine",
        "operator": "ZDZiT Olsztyn"
      }
    },
    {
      "displayName": "zoells",
      "id": "zoells-915a28",
      "locationSet": {"include": ["001"]},
      "tags": {
        "amenity": "vending_machine",
        "operator": "zoells"
      }
    },
    {
      "displayName": "ZTM",
      "id": "ztm-915a28",
      "locationSet": {"include": ["001"]},
      "tags": {
        "amenity": "vending_machine",
        "operator": "ZTM"
      }
    },
    {
      "displayName": "ZTM Gdańsk",
      "id": "ztmgdansk-915a28",
      "locationSet": {"include": ["001"]},
      "tags": {
        "amenity": "vending_machine",
        "operator": "ZTM Gdańsk"
      }
    },
    {
      "displayName": "ZTM Kielce",
      "id": "ztmkielce-915a28",
      "locationSet": {"include": ["001"]},
      "tags": {
        "amenity": "vending_machine",
        "operator": "ZTM Kielce"
      }
    },
    {
      "displayName": "ZTM Lublin",
      "id": "ztmlublin-915a28",
      "locationSet": {"include": ["001"]},
      "tags": {
        "amenity": "vending_machine",
        "operator": "ZTM Lublin"
      }
    },
    {
      "displayName": "ZTM Poznań",
      "id": "ztmpoznan-915a28",
      "locationSet": {"include": ["001"]},
      "tags": {
        "amenity": "vending_machine",
        "operator": "ZTM Poznań"
      }
    },
    {
      "displayName": "ZTM Warszawa",
      "id": "ztmwarszawa-915a28",
      "locationSet": {"include": ["001"]},
      "tags": {
        "amenity": "vending_machine",
        "operator": "ZTM Warszawa"
      }
    },
    {
      "displayName": "ZVV",
      "id": "zvv-915a28",
      "locationSet": {"include": ["001"]},
      "tags": {
        "amenity": "vending_machine",
        "operator": "ZVV"
      }
    },
    {
      "displayName": "ГКУ «Администратор Московского парковочного пространства»",
      "id": "13270b-915a28",
      "locationSet": {"include": ["001"]},
      "tags": {
        "amenity": "vending_machine",
        "operator": "ГКУ «Администратор Московского парковочного пространства»"
      }
    },
    {
      "displayName": "Долина",
      "id": "21c2e4-915a28",
      "locationSet": {"include": ["001"]},
      "tags": {
        "amenity": "vending_machine",
        "operator": "Долина"
      }
    },
    {
      "displayName": "Долина плюс",
      "id": "c9d3d9-915a28",
      "locationSet": {"include": ["001"]},
      "tags": {
        "amenity": "vending_machine",
        "operator": "Долина плюс"
      }
    },
    {
      "displayName": "Казанский паркинг",
      "id": "e1cd66-915a28",
      "locationSet": {"include": ["001"]},
      "tags": {
        "amenity": "vending_machine",
        "operator": "Казанский паркинг"
      }
    },
    {
      "displayName": "Нова Пошта",
      "id": "530f2c-915a28",
      "locationSet": {"include": ["001"]},
      "tags": {
        "amenity": "vending_machine",
        "operator": "Нова Пошта"
      }
    },
    {
      "displayName": "Новый Импульс-50",
      "id": "331132-915a28",
      "locationSet": {"include": ["001"]},
      "tags": {
        "amenity": "vending_machine",
        "operator": "Новый Импульс-50"
      }
    },
    {
      "displayName": "ООО 'Сеть автоматизированных пунктов выдачи'",
      "id": "a37af2-915a28",
      "locationSet": {"include": ["001"]},
      "tags": {
        "amenity": "vending_machine",
        "operator": "ООО 'Сеть автоматизированных пунктов выдачи'"
      }
    },
    {
      "displayName": "Петербургский метрополитен",
      "id": "08c944-915a28",
      "locationSet": {"include": ["001"]},
      "tags": {
        "amenity": "vending_machine",
        "operator": "Петербургский метрополитен"
      }
    },
    {
      "displayName": "Почта России",
      "id": "8e5a76-915a28",
      "locationSet": {"include": ["001"]},
      "tags": {
        "amenity": "vending_machine",
        "operator": "Почта России"
      }
    },
    {
      "displayName": "РЖД",
      "id": "a2f5de-915a28",
      "locationSet": {"include": ["001"]},
      "tags": {
        "amenity": "vending_machine",
        "operator": "РЖД"
      }
    },
    {
      "displayName": "Роганська",
      "id": "5a1de0-915a28",
      "locationSet": {"include": ["001"]},
      "tags": {
        "amenity": "vending_machine",
        "operator": "Роганська"
      }
    },
    {
      "displayName": "Сбербанк России",
      "id": "25330c-915a28",
      "locationSet": {"include": ["001"]},
      "tags": {
        "amenity": "vending_machine",
        "operator": "Сбербанк России"
      }
    },
    {
      "displayName": "Северо-Западная пригородная пассажирская компания",
      "id": "cfc175-915a28",
      "locationSet": {"include": ["001"]},
      "tags": {
        "amenity": "vending_machine",
        "operator": "Северо-Западная пригородная пассажирская компания"
      }
    },
    {
      "displayName": "Халва",
      "id": "d62e3c-915a28",
      "locationSet": {"include": ["001"]},
      "tags": {
        "amenity": "vending_machine",
        "operator": "Халва"
      }
    },
    {
      "displayName": "Центральная пригородная пассажирская компания",
      "id": "ac997a-915a28",
      "locationSet": {"include": ["001"]},
      "tags": {
        "amenity": "vending_machine",
        "operator": "Центральная пригородная пассажирская компания"
      }
    },
    {
      "displayName": "ЦППК",
      "id": "255ec9-915a28",
      "locationSet": {"include": ["001"]},
      "tags": {
        "amenity": "vending_machine",
        "operator": "ЦППК"
      }
    },
    {
      "displayName": "アサヒ",
      "id": "ac1279-915a28",
      "locationSet": {"include": ["001"]},
      "tags": {
        "amenity": "vending_machine",
        "operator": "アサヒ",
        "operator:ja": "アサヒ"
      }
    },
    {
      "displayName": "アサヒ飲料",
      "id": "6d6708-915a28",
      "locationSet": {"include": ["001"]},
      "tags": {
        "amenity": "vending_machine",
        "operator": "アサヒ飲料",
        "operator:ja": "アサヒ飲料"
      }
    },
    {
      "displayName": "キリン",
      "id": "7bb0b5-915a28",
      "locationSet": {"include": ["001"]},
      "tags": {
        "amenity": "vending_machine",
        "operator": "キリン",
        "operator:ja": "キリン"
      }
    },
    {
      "displayName": "コカコーラ (Coca cola)",
      "id": "0aff5c-915a28",
      "locationSet": {"include": ["001"]},
      "tags": {
        "amenity": "vending_machine",
        "operator": "コカコーラ (Coca cola)",
        "operator:ja": "コカコーラ (Coca cola)"
      }
    },
    {
      "displayName": "京都市交通局",
      "id": "7c2ab1-915a28",
      "locationSet": {"include": ["001"]},
      "tags": {
        "amenity": "vending_machine",
        "operator": "京都市交通局"
      }
    },
    {
      "displayName": "京阪電気鉄道",
      "id": "28286a-915a28",
      "locationSet": {"include": ["001"]},
      "tags": {
        "amenity": "vending_machine",
        "operator": "京阪電気鉄道"
      }
    },
    {
      "displayName": "北海道ベンディング 株式会社",
      "id": "aa32fd-915a28",
      "locationSet": {"include": ["001"]},
      "tags": {
        "amenity": "vending_machine",
        "operator": "北海道ベンディング 株式会社",
        "operator:ja": "北海道ベンディング 株式会社"
      }
    },
    {
      "displayName": "太古公司",
      "id": "8b0488-915a28",
      "locationSet": {"include": ["001"]},
      "tags": {
        "amenity": "vending_machine",
        "operator": "太古公司"
      }
    },
    {
      "displayName": "愛媛大学生協ショップ",
      "id": "9b220a-915a28",
      "locationSet": {"include": ["001"]},
      "tags": {
        "amenity": "vending_machine",
        "operator": "愛媛大学生協ショップ",
        "operator:ja": "愛媛大学生協ショップ"
      }
    },
    {
      "displayName": "黑松公司",
      "id": "9e0c35-915a28",
      "locationSet": {"include": ["001"]},
      "tags": {
        "amenity": "vending_machine",
        "operator": "黑松公司"
      }
    }
  ]
}
