{
  "properties": {
    "path": "brands/shop/lottery",
    "exclude": {
      "generic": [
        "^loter[ií]a( de la (ciudad|provincia))?$",
        "^lott(ery|o|ózó)$"
      ]
    }
  },
  "items": [
    {
      "displayName": "Loterías y Apuestas del Estado",
      "id": "loteriasyapuestasdelestado-1a20a0",
      "locationSet": {"include": ["es"]},
      "matchNames": [
        "apuestas del estado",
        "lotería del estado",
        "loterías del estado"
      ],
      "tags": {
        "brand": "Loterías y Apuestas del Estado",
        "brand:wikidata": "Q1311806",
        "brand:wikipedia": "es:Loterías y Apuestas del Estado",
        "name": "Loterías y Apuestas del Estado",
        "shop": "lottery"
      }
    },
    {
      "displayName": "Lotto",
      "locationSet": {"include": ["pl"]},
      "matchNames": [
        "Totolotek",
        "Kolektura"
      ],
      "matchTags": ["shop/kiosk"],
      "tags": {
        "brand": "Lotto",
        "name": "Lotto",
        "operator": "Totalizator Sportowy",
        "operator:wikidata": "Q9360300",
        "operator:wikipedia": "pl:Totalizator Sportowy",
        "payment:coins": "yes",
        "payment:credit_cards": "no",
        "payment:debit_cards": "no",
        "payment:notes": "yes",
        "shop": "lottery",
        "wikidata": "Q11741156",
        "wikipedia": "pl:Kolektura Lotto"
      }
    },
    {
      "displayName": "ONCE",
      "id": "once-1a20a0",
      "locationSet": {"include": ["es"]},
      "tags": {
        "brand": "ONCE",
        "brand:wikidata": "Q1750397",
        "brand:wikipedia": "es:Organización Nacional de Ciegos Españoles",
        "name": "ONCE",
        "official_name": "Organización Nacional de Ciegos Españoles",
        "shop": "lottery"
      }
    },
    {
      "displayName": "Paga Todo",
      "id": "pagatodo-86935c",
      "locationSet": {"include": ["001"]},
      "tags": {
        "brand": "Paga Todo",
        "name": "Paga Todo",
        "shop": "lottery"
      }
    },
    {
      "displayName": "ΟΠΑΠ",
      "id": "942bba-86935c",
      "locationSet": {"include": ["001"]},
      "tags": {
        "brand": "ΟΠΑΠ",
        "name": "ΟΠΑΠ",
        "shop": "lottery"
      }
    },
    {
      "displayName": "中国体育彩票",
      "id": "chinasportslottery-e182e4",
      "locationSet": {"include": ["cn"]},
      "matchNames": ["中国体彩", "体彩"],
      "tags": {
        "brand": "中国体育彩票",
        "brand:en": "China Sports Lottery",
        "brand:wikidata": "Q55696773",
        "brand:wikipedia": "zh:中国体育彩票",
        "brand:zh": "中国体育彩票",
        "name": "中国体育彩票",
        "name:en": "China Sports Lottery",
        "name:zh": "中国体育彩票",
        "shop": "lottery"
      }
    },
    {
      "displayName": "中国福利彩票",
      "id": "chinawelfarelottery-e182e4",
      "locationSet": {"include": ["cn"]},
      "matchNames": ["中国福彩", "福彩"],
      "tags": {
        "brand": "中国福利彩票",
        "brand:en": "China Welfare Lottery",
        "brand:wikidata": "Q9384250",
        "brand:wikipedia": "zh:中国福利彩票",
        "brand:zh": "中国福利彩票",
        "name": "中国福利彩票",
        "name:en": "China Welfare Lottery",
        "name:zh": "中国福利彩票",
        "shop": "lottery"
      }
    },
    {
      "displayName": "台灣彩券",
      "id": "taiwanlottery-e831bc",
      "locationSet": {"include": ["tw"]},
      "matchNames": ["公益彩券"],
      "tags": {
        "brand": "台灣彩券",
        "brand:en": "Taiwan Lottery",
        "brand:wikidata": "Q10915473",
        "brand:wikipedia": "zh:台灣彩券",
        "brand:zh-Hans": "台湾彩券",
        "brand:zh-Hant": "台灣彩券",
        "name": "台灣彩券",
        "name:en": "Taiwan Lottery",
        "name:zh-Hans": "台湾彩券",
        "name:zh-Hant": "台灣彩券",
        "shop": "lottery"
      }
    },
    {
      "displayName": "宝くじ",
      "id": "takarakuji-760f8f",
      "locationSet": {"include": ["jp"]},
      "matchNames": [
        "japan loto",
        "lotoロト",
        "lottery of japan"
      ],
      "tags": {
        "brand": "宝くじ",
        "brand:en": "Takarakuji",
        "brand:ja": "宝くじ",
        "brand:wikidata": "Q87824893",
        "name": "宝くじ",
        "name:en": "Takarakuji",
        "name:ja": "宝くじ",
        "official_name": "全国自治宝くじ",
        "official_name:en": "National Autonomous Lottery",
        "official_name:ja": "全国自治宝くじ",
        "shop": "lottery"
      }
    }
  ]
}
