{
  "brands/leisure/amusement_arcade": [
    {
      "displayName": "アドアーズ",
      "id": "アドアーズ-c3bbfb",
      "locationSet": {"include": ["jp"]},
      "oldid": "leisure/amusement_arcade|アドアーズ",
      "tags": {
        "brand": "アドアーズ",
        "brand:en": "Adores",
        "brand:ja": "アドアーズ",
        "brand:wikidata": "Q54843532",
        "brand:wikipedia": "ja:アドアーズ",
        "leisure": "amusement_arcade",
        "name": "アドアーズ",
        "name:en": "Adores",
        "name:ja": "アドアーズ"
      }
    },
    {
      "displayName": "アピナ",
      "id": "アピナ-c3bbfb",
      "locationSet": {"include": ["jp"]},
      "oldid": "leisure/amusement_arcade|アピナ",
      "tags": {
        "brand": "アピナ",
        "brand:en": "Apina",
        "brand:ja": "アピナ",
        "brand:wikidata": "Q55385192",
        "brand:wikipedia": "ja:共和コーポレーション",
        "leisure": "amusement_arcade",
        "name": "アピナ",
        "name:en": "Apina",
        "name:ja": "アピナ"
      }
    },
    {
      "displayName": "クラブセガ",
      "id": "クラブセガ-c3bbfb",
      "locationSet": {"include": ["jp"]},
      "matchNames": ["クラブsega", "セガ", "セガワールド"],
      "oldid": "leisure/amusement_arcade|クラブセガ",
      "tags": {
        "alt_name": "セガワールド",
        "alt_name:en": "Sega World",
        "brand": "クラブセガ",
        "brand:en": "Club Sega",
        "brand:ja": "クラブセガ",
        "brand:wikidata": "Q7446141",
        "brand:wikipedia": "ja:セガ エンタテインメント",
        "leisure": "amusement_arcade",
        "name": "クラブセガ",
        "name:en": "Club Sega",
        "name:ja": "クラブセガ"
      }
    },
    {
      "displayName": "タイトーステーション",
      "id": "タイトーステーション-c3bbfb",
      "locationSet": {"include": ["jp"]},
      "matchNames": ["タイトー"],
      "oldid": "leisure/amusement_arcade|タイトーステーション",
      "tags": {
        "brand": "タイトーステーション",
        "brand:en": "Taito Station",
        "brand:ja": "タイトーステーション",
        "brand:wikidata": "Q1054844",
        "brand:wikipedia": "ja:タイトー",
        "leisure": "amusement_arcade",
        "name": "タイトーステーション",
        "name:en": "Taito Station",
        "name:ja": "タイトーステーション"
      }
    },
    {
      "displayName": "ナムコ",
      "id": "ナムコ-c3bbfb",
      "locationSet": {"include": ["jp"]},
      "oldid": "leisure/amusement_arcade|ナムコ",
      "tags": {
        "brand": "ナムコ",
        "brand:en": "NAMCO",
        "brand:ja": "ナムコ",
        "brand:wikidata": "Q309996",
        "brand:wikipedia": "ja:バンダイナムコアミューズメント",
        "leisure": "amusement_arcade",
        "name": "ナムコ",
        "name:en": "NAMCO",
        "name:ja": "ナムコ"
      }
    }
  ]
}