{
  "brands/leisure/fitness_centre": [
    {
      "displayName": "24 Hour Fitness",
      "id": "24hourfitness-809afb",
      "locationSet": {"include": ["us"]},
      "oldid": "leisure/fitness_centre|24 Hour Fitness",
      "tags": {
        "brand": "24 Hour Fitness",
        "brand:wikidata": "Q4631849",
        "brand:wikipedia": "en:24 Hour Fitness",
        "leisure": "fitness_centre",
        "name": "24 Hour Fitness"
      }
    },
    {
      "displayName": "Anytime Fitness",
      "id": "anytimefitness-c8777b",
      "locationSet": {"include": ["001"]},
      "oldid": "leisure/fitness_centre|Anytime Fitness",
      "tags": {
        "brand": "Anytime Fitness",
        "brand:wikidata": "Q4778364",
        "brand:wikipedia": "en:Anytime Fitness",
        "leisure": "fitness_centre",
        "name": "Anytime Fitness"
      }
    },
    {
      "displayName": "Bannatyne Health Club",
      "id": "bannatynehealthclub-2770cb",
      "locationSet": {"include": ["gb"]},
      "oldid": "leisure/fitness_centre|Bannatyne Health Club",
      "tags": {
        "brand": "Bannatyne Health Club",
        "brand:wikidata": "Q24993691",
        "brand:wikipedia": "en:Bannatyne's",
        "leisure": "fitness_centre",
        "name": "Bannatyne Health Club"
      }
    },
    {
      "displayName": "Basic-Fit",
      "id": "basicfit-a556c5",
      "locationSet": {
        "include": ["be", "es", "fr", "lu", "nl"]
      },
      "oldid": "leisure/fitness_centre|Basic-Fit",
      "tags": {
        "brand": "Basic-Fit",
        "brand:wikidata": "Q40165577",
        "brand:wikipedia": "nl:Basic-Fit",
        "leisure": "fitness_centre",
        "name": "Basic-Fit"
      }
    },
    {
      "displayName": "Blink Fitness",
      "id": "blinkfitness-809afb",
      "locationSet": {"include": ["us"]},
      "matchNames": ["blink"],
      "oldid": "leisure/fitness_centre|Blink Fitness",
      "tags": {
        "brand": "Blink Fitness",
        "brand:wikidata": "Q65621568",
        "leisure": "fitness_centre",
        "name": "Blink Fitness"
      }
    },
    {
      "displayName": "Clever fit",
      "id": "cleverfit-1d011d",
      "locationSet": {
        "include": ["at", "ch", "de"]
      },
      "oldid": "leisure/fitness_centre|Clever fit",
      "tags": {
        "brand": "Clever fit",
        "brand:wikidata": "Q27909675",
        "brand:wikipedia": "de:Clever fit",
        "leisure": "fitness_centre",
        "name": "Clever fit"
      }
    },
    {
      "displayName": "CorePower Yoga",
      "id": "corepoweryoga-809afb",
      "locationSet": {"include": ["us"]},
      "matchNames": ["corepower"],
      "matchTags": ["club/sport"],
      "oldid": "leisure/fitness_centre|CorePower Yoga",
      "tags": {
        "brand": "CorePower Yoga",
        "brand:wikidata": "Q21015663",
        "brand:wikipedia": "en:CorePower Yoga",
        "leisure": "fitness_centre",
        "name": "CorePower Yoga",
        "sport": "yoga"
      }
    },
    {
      "displayName": "Crunch Fitness",
      "id": "crunchfitness-39883b",
      "locationSet": {
        "include": ["au", "ca", "us"]
      },
      "matchNames": ["crunch"],
      "oldid": "leisure/fitness_centre|Crunch Fitness",
      "tags": {
        "brand": "Crunch Fitness",
        "brand:wikidata": "Q5190093",
        "brand:wikipedia": "en:Crunch Fitness",
        "leisure": "fitness_centre",
        "name": "Crunch Fitness"
      }
    },
    {
      "displayName": "Curves",
      "id": "curves-c8777b",
      "locationSet": {"include": ["001"]},
      "oldid": "leisure/fitness_centre|Curves",
      "tags": {
        "brand": "Curves",
        "brand:wikidata": "Q5196080",
        "brand:wikipedia": "en:Curves International",
        "leisure": "fitness_centre",
        "name": "Curves"
      }
    },
    {
      "displayName": "F45 Training",
      "id": "f45training-1ae565",
      "locationSet": {
        "include": ["au", "ca", "gb", "us"]
      },
      "oldid": "leisure/fitness_centre|F45 Training",
      "tags": {
        "brand": "F45 Training",
        "brand:wikidata": "Q64390973",
        "leisure": "fitness_centre",
        "name": "F45 Training"
      }
    },
    {
      "displayName": "Fit4Less (Canada)",
      "id": "fit4less-aa8143",
      "locationSet": {"include": ["ca"]},
      "oldid": "leisure/fitness_centre|Fit4Less~(Canada)",
      "tags": {
        "brand": "Fit4Less",
        "brand:wikidata": "Q64821050",
        "leisure": "fitness_centre",
        "name": "Fit4Less"
      }
    },
    {
      "displayName": "Fit4less (UK)",
      "id": "fit4less-2770cb",
      "locationSet": {"include": ["gb"]},
      "oldid": "leisure/fitness_centre|Fit4less~(UK)",
      "tags": {
        "brand": "Fit4less",
        "brand:wikidata": "Q64821053",
        "leisure": "fitness_centre",
        "name": "Fit4less"
      }
    },
    {
      "displayName": "Fitness First",
      "id": "fitnessfirst-6ff977",
      "locationSet": {
        "include": [
          "ae",
          "au",
          "de",
          "gb",
          "ph",
          "th"
        ]
      },
      "oldid": "leisure/fitness_centre|Fitness First",
      "tags": {
        "brand": "Fitness First",
        "brand:wikidata": "Q127120",
        "brand:wikipedia": "en:Fitness First",
        "leisure": "fitness_centre",
        "name": "Fitness First"
      }
    },
    {
      "displayName": "Fitness Park",
      "id": "fitnesspark-c8777b",
      "locationSet": {"include": ["001"]},
      "oldid": "leisure/fitness_centre|Fitness Park",
      "tags": {
        "brand": "Fitness Park",
        "leisure": "fitness_centre",
        "name": "Fitness Park"
      }
    },
    {
      "displayName": "Fitness24Seven",
      "id": "fitness24seven-5fc685",
      "locationSet": {"include": ["fi", "se"]},
      "oldid": "leisure/fitness_centre|Fitness24Seven",
      "tags": {
        "brand": "Fitness24Seven",
        "brand:wikidata": "Q61112447",
        "brand:wikipedia": "sv:Fitness24Seven",
        "leisure": "fitness_centre",
        "name": "Fitness24Seven"
      }
    },
    {
      "displayName": "Gold's Gym",
      "id": "goldsgym-d6bb36",
      "locationSet": {
        "include": ["ae", "in", "ph", "us"]
      },
      "oldid": "leisure/fitness_centre|Gold's Gym",
      "tags": {
        "brand": "Gold's Gym",
        "brand:wikidata": "Q1536234",
        "brand:wikipedia": "en:Gold's Gym",
        "leisure": "fitness_centre",
        "name": "Gold's Gym"
      }
    },
    {
      "displayName": "GoodLife Fitness",
      "id": "goodlifefitness-aa8143",
      "locationSet": {"include": ["ca"]},
      "oldid": "leisure/fitness_centre|GoodLife Fitness",
      "tags": {
        "brand": "GoodLife Fitness",
        "brand:wikidata": "Q3110654",
        "brand:wikipedia": "en:GoodLife Fitness",
        "leisure": "fitness_centre",
        "name": "GoodLife Fitness"
      }
    },
    {
      "displayName": "Jazzercise",
      "id": "jazzercise-809afb",
      "locationSet": {"include": ["us"]},
      "matchTags": ["leisure/dance"],
      "oldid": "leisure/fitness_centre|Jazzercise",
      "tags": {
        "brand": "Jazzercise",
        "brand:wikidata": "Q6168434",
        "brand:wikipedia": "en:Jazzercise",
        "leisure": "fitness_centre",
        "name": "Jazzercise"
      }
    },
    {
      "displayName": "L'Orange Bleue",
      "id": "lorangebleue-678d1b",
      "locationSet": {"include": ["fr"]},
      "oldid": "leisure/fitness_centre|L'Orange Bleue",
      "tags": {
        "brand": "L'Orange Bleue",
        "brand:wikidata": "Q3204640",
        "brand:wikipedia": "fr:L'Orange bleue",
        "leisure": "fitness_centre",
        "name": "L'Orange Bleue"
      }
    },
    {
      "displayName": "LA Fitness",
      "id": "lafitness-34886f",
      "locationSet": {
        "include": ["ca", "gb", "us"]
      },
      "oldid": "leisure/fitness_centre|LA Fitness",
      "tags": {
        "brand": "LA Fitness",
        "brand:wikidata": "Q6457180",
        "brand:wikipedia": "en:LA Fitness",
        "leisure": "fitness_centre",
        "name": "LA Fitness"
      }
    },
    {
      "displayName": "Life Time",
      "id": "lifetime-9a38b2",
      "locationSet": {"include": ["ca", "us"]},
      "matchNames": [
        "life time athletic",
        "life time fitness"
      ],
      "oldid": "leisure/fitness_centre|Life Time",
      "tags": {
        "brand": "Life Time",
        "brand:wikidata": "Q6545004",
        "brand:wikipedia": "en:Life Time Fitness",
        "leisure": "fitness_centre",
        "name": "Life Time"
      }
    },
    {
      "displayName": "McFit",
      "id": "mcfit-0ebac9",
      "locationSet": {
        "include": ["at", "de", "es", "it", "pl"]
      },
      "oldid": "leisure/fitness_centre|McFit",
      "tags": {
        "brand": "McFit",
        "brand:wikidata": "Q871302",
        "brand:wikipedia": "en:McFit",
        "leisure": "fitness_centre",
        "name": "McFit"
      }
    },
    {
      "displayName": "Mrs. Sporty",
      "id": "mrssporty-c8777b",
      "locationSet": {"include": ["001"]},
      "oldid": "leisure/fitness_centre|Mrs. Sporty",
      "tags": {
        "brand": "Mrs. Sporty",
        "leisure": "fitness_centre",
        "name": "Mrs. Sporty"
      }
    },
    {
      "displayName": "Nuffield Health Fitness & Wellbeing",
      "id": "nuffieldhealthfitnessandwellbeing-2770cb",
      "locationSet": {"include": ["gb"]},
      "oldid": "leisure/fitness_centre|Nuffield Health Fitness & Wellbeing",
      "tags": {
        "brand": "Nuffield Health Fitness & Wellbeing",
        "brand:wikidata": "Q7068711",
        "brand:wikipedia": "en:Nuffield Health",
        "leisure": "fitness_centre",
        "name": "Nuffield Health Fitness & Wellbeing"
      }
    },
    {
      "displayName": "Orangetheory Fitness",
      "id": "orangetheoryfitness-f1c5c5",
      "locationSet": {
        "include": ["ca", "es", "us"]
      },
      "matchNames": ["orangetheory"],
      "oldid": "leisure/fitness_centre|Orangetheory Fitness",
      "tags": {
        "brand": "Orangetheory Fitness",
        "brand:wikidata": "Q25005163",
        "brand:wikipedia": "en:Orangetheory Fitness",
        "leisure": "fitness_centre",
        "name": "Orangetheory Fitness"
      }
    },
    {
      "displayName": "Planet Fitness",
      "id": "planetfitness-9a38b2",
      "locationSet": {"include": ["ca", "us"]},
      "oldid": "leisure/fitness_centre|Planet Fitness",
      "tags": {
        "brand": "Planet Fitness",
        "brand:wikidata": "Q7201095",
        "brand:wikipedia": "en:Planet Fitness",
        "leisure": "fitness_centre",
        "name": "Planet Fitness"
      }
    },
    {
      "displayName": "Pure Barre",
      "id": "purebarre-9a38b2",
      "locationSet": {"include": ["ca", "us"]},
      "oldid": "leisure/fitness_centre|Pure Barre",
      "tags": {
        "brand": "Pure Barre",
        "brand:wikidata": "Q86707084",
        "leisure": "fitness_centre",
        "name": "Pure Barre"
      }
    },
    {
      "displayName": "PureGym",
      "id": "puregym-2770cb",
      "locationSet": {"include": ["gb"]},
      "oldid": "leisure/fitness_centre|PureGym",
      "tags": {
        "brand": "PureGym",
        "brand:wikidata": "Q18345898",
        "brand:wikipedia": "en:PureGym",
        "leisure": "fitness_centre",
        "name": "PureGym"
      }
    },
    {
      "displayName": "Retro Fitness",
      "id": "retrofitness-809afb",
      "locationSet": {"include": ["us"]},
      "oldid": "leisure/fitness_centre|Retro Fitness",
      "tags": {
        "brand": "Retro Fitness",
        "brand:wikidata": "Q61994955",
        "leisure": "fitness_centre",
        "name": "Retro Fitness"
      }
    },
    {
      "displayName": "Smart Fit",
      "id": "smartfit-cd44e6",
      "locationSet": {
        "include": [
          "br",
          "cl",
          "co",
          "do",
          "mx",
          "pe"
        ]
      },
      "oldid": "leisure/fitness_centre|Smart Fit",
      "tags": {
        "brand": "Smart Fit",
        "brand:wikidata": "Q30930959",
        "brand:wikipedia": "pt:Smart Fit",
        "leisure": "fitness_centre",
        "name": "Smart Fit"
      }
    },
    {
      "displayName": "Snap Fitness",
      "id": "snapfitness-c8777b",
      "locationSet": {"include": ["001"]},
      "oldid": "leisure/fitness_centre|Snap Fitness",
      "tags": {
        "brand": "Snap Fitness",
        "brand:wikidata": "Q7547254",
        "brand:wikipedia": "en:Snap Fitness",
        "leisure": "fitness_centre",
        "name": "Snap Fitness"
      }
    },
    {
      "displayName": "SoulCycle",
      "id": "soulcycle-9a38b2",
      "locationSet": {"include": ["ca", "us"]},
      "oldid": "leisure/fitness_centre|SoulCycle",
      "tags": {
        "brand": "SoulCycle",
        "brand:wikidata": "Q17084730",
        "brand:wikipedia": "en:SoulCycle",
        "leisure": "fitness_centre",
        "name": "SoulCycle",
        "sport": "cycling"
      }
    },
    {
      "displayName": "Talwalkars",
      "id": "talwalkars-111905",
      "locationSet": {"include": ["in"]},
      "oldid": "leisure/fitness_centre|Talwalkars",
      "tags": {
        "brand": "Talkwalkars",
        "brand:wikidata": "Q7680402",
        "brand:wikipedia": "en:Talwalkars",
        "leisure": "fitness_centre",
        "name": "Talwalkars"
      }
    },
    {
      "displayName": "The Gym",
      "id": "thegym-2770cb",
      "locationSet": {"include": ["gb"]},
      "matchNames": ["the gym group"],
      "oldid": "leisure/fitness_centre|The Gym",
      "tags": {
        "brand": "The Gym",
        "brand:wikidata": "Q48815022",
        "brand:wikipedia": "en:The Gym Group",
        "leisure": "fitness_centre",
        "name": "The Gym"
      }
    },
    {
      "displayName": "Total Fitness",
      "id": "totalfitness-2770cb",
      "locationSet": {"include": ["gb"]},
      "oldid": "leisure/fitness_centre|Total Fitness",
      "tags": {
        "brand": "Total Fitness",
        "brand:wikidata": "Q7828019",
        "brand:wikipedia": "en:Total Fitness",
        "leisure": "fitness_centre",
        "name": "Total Fitness"
      }
    },
    {
      "displayName": "Virgin Active",
      "id": "virginactive-c8777b",
      "locationSet": {"include": ["001"]},
      "oldid": "leisure/fitness_centre|Virgin Active",
      "tags": {
        "brand": "Virgin Active",
        "brand:wikidata": "Q4013942",
        "brand:wikipedia": "en:Virgin Active",
        "leisure": "fitness_centre",
        "name": "Virgin Active"
      }
    },
    {
      "displayName": "World Class",
      "id": "worldclass-c8777b",
      "locationSet": {"include": ["001"]},
      "oldid": "leisure/fitness_centre|World Class",
      "tags": {
        "brand": "World Class",
        "leisure": "fitness_centre",
        "name": "World Class"
      }
    },
    {
      "displayName": "World Gym",
      "id": "worldgym-4c1ca3",
      "locationSet": {
        "include": ["001"],
        "exclude": ["tw"]
      },
      "oldid": "leisure/fitness_centre|World Gym",
      "tags": {
        "brand": "World Gym",
        "brand:wikidata": "Q8035794",
        "brand:wikipedia": "en:World Gym",
        "leisure": "fitness_centre",
        "name": "World Gym"
      }
    },
    {
      "displayName": "World Gym (Taiwan)",
      "id": "worldgym-4fed0f",
      "locationSet": {"include": ["tw"]},
      "oldid": "leisure/fitness_centre|World Gym~(Taiwan)",
      "tags": {
        "brand": "World Gym健身俱樂部",
        "brand:en": "World Gym",
        "brand:wikidata": "Q8035794",
        "brand:wikipedia": "zh:世界健身俱樂部",
        "brand:zh": "世界健身俱樂部",
        "leisure": "fitness_centre",
        "name": "World Gym健身俱樂部",
        "name:en": "World Gym",
        "name:zh": "世界健身俱樂部"
      }
    },
    {
      "displayName": "Xercise4Less",
      "id": "xercise4less-2770cb",
      "locationSet": {"include": ["gb"]},
      "oldid": "leisure/fitness_centre|Xercise4Less",
      "tags": {
        "brand": "Xercise4Less",
        "brand:wikidata": "Q79244612",
        "leisure": "fitness_centre",
        "name": "Xercise4Less"
      }
    },
    {
      "displayName": "エニタイムフィットネス",
      "id": "anytimefitness-1008e2",
      "locationSet": {"include": ["jp"]},
      "oldid": "leisure/fitness_centre|エニタイムフィットネス",
      "tags": {
        "alt_name:en": "Fast Fitness",
        "brand": "エニタイムフィットネス",
        "brand:en": "Anytime Fitness",
        "brand:ja": "エニタイムフィットネス",
        "brand:wikidata": "Q4778364",
        "brand:wikipedia": "ja:エニタイムフィットネス",
        "leisure": "fitness_centre",
        "name": "エニタイムフィットネス",
        "name:en": "Anytime Fitness",
        "name:ja": "エニタイムフィットネス"
      }
    },
    {
      "displayName": "カーブス",
      "id": "curves-1008e2",
      "locationSet": {"include": ["jp"]},
      "oldid": "leisure/fitness_centre|カーブス",
      "tags": {
        "brand": "カーブス",
        "brand:en": "Curves",
        "brand:ja": "カーブス",
        "brand:wikidata": "Q5196080",
        "brand:wikipedia": "ja:カーブス",
        "leisure": "fitness_centre",
        "name": "カーブス",
        "name:en": "Curves",
        "name:ja": "カーブス"
      }
    },
    {
      "displayName": "コナミスポーツクラブ",
      "id": "konamisportsclub-1008e2",
      "locationSet": {"include": ["jp"]},
      "oldid": "leisure/fitness_centre|コナミスポーツクラブ",
      "tags": {
        "brand": "コナミスポーツクラブ",
        "brand:en": "Konami Sports Club",
        "brand:ja": "コナミスポーツクラブ",
        "brand:wikidata": "Q11302286",
        "brand:wikipedia": "ja:コナミスポーツ (企業)",
        "leisure": "fitness_centre",
        "name": "コナミスポーツクラブ",
        "name:en": "Konami Sports Club",
        "name:ja": "コナミスポーツクラブ"
      }
    },
    {
      "displayName": "ジョイフィット",
      "id": "joyfit-1008e2",
      "locationSet": {"include": ["jp"]},
      "oldid": "leisure/fitness_centre|ジョイフィット",
      "tags": {
        "brand": "ジョイフィット",
        "brand:en": "JOYFIT",
        "brand:ja": "ジョイフィット",
        "brand:wikidata": "Q11310515",
        "brand:wikipedia": "ja:ジョイフィット",
        "leisure": "fitness_centre",
        "name": "ジョイフィット",
        "name:en": "JOYFIT",
        "name:ja": "ジョイフィット"
      }
    },
    {
      "displayName": "ティップネス",
      "id": "tipness-1008e2",
      "locationSet": {"include": ["jp"]},
      "oldid": "leisure/fitness_centre|ティップネス",
      "tags": {
        "brand": "ティップネス",
        "brand:en": "Tipness",
        "brand:ja": "ティップネス",
        "brand:wikidata": "Q11318940",
        "brand:wikipedia": "ja:ティップネス",
        "leisure": "fitness_centre",
        "name": "ティップネス",
        "name:en": "Tipness",
        "name:ja": "ティップネス"
      }
    },
    {
      "displayName": "メガロス",
      "id": "megalos-1008e2",
      "locationSet": {"include": ["jp"]},
      "oldid": "leisure/fitness_centre|メガロス",
      "tags": {
        "brand": "メガロス",
        "brand:en": "MEGALOS",
        "brand:ja": "メガロス",
        "brand:wikidata": "Q11343532",
        "brand:wikipedia": "ja:メガロス",
        "leisure": "fitness_centre",
        "name": "メガロス",
        "name:en": "MEGALOS",
        "name:ja": "メガロス"
      }
    },
    {
      "displayName": "健身工廠",
      "id": "fitnessfactory-4fed0f",
      "locationSet": {"include": ["tw"]},
      "oldid": "leisure/fitness_centre|健身工廠",
      "tags": {
        "brand": "健身工廠",
        "brand:en": "Fitness Factory",
        "brand:zh": "健身工廠",
        "leisure": "fitness_centre",
        "name": "健身工廠",
        "name:en": "Fitness Factory",
        "name:zh": "健身工廠"
      }
    }
  ]
}