{
  "amenity": {
    "bicycle_rental": [
      {
        "displayName": "Biki",
        "id": "biki-0a323f",
        "locationSet": {"include": ["us"]},
        "oldid": "amenity/bicycle_rental|Biki",
        "tags": {
          "amenity": "bicycle_rental",
          "brand": "Biki",
          "brand:wikidata": "Q98337927",
          "name": "Biki"
        }
      },
      {
        "displayName": "Bixi",
        "id": "bixi-f74ec8",
        "locationSet": {"include": ["ca"]},
        "oldid": "amenity/bicycle_rental|Bixi",
        "tags": {
          "amenity": "bicycle_rental",
          "brand": "Bixi",
          "brand:wikidata": "Q4919302",
          "brand:wikipedia": "en:BIXI Montréal",
          "name": "Bixi"
        }
      },
      {
        "displayName": "Call a Bike",
        "id": "callabike-173889",
        "locationSet": {"include": ["de"]},
        "oldid": "amenity/bicycle_rental|Call a Bike",
        "tags": {
          "amenity": "bicycle_rental",
          "brand": "Call a Bike",
          "brand:wikidata": "Q1060525",
          "brand:wikipedia": "en:Call a Bike",
          "name": "Call a Bike"
        }
      },
      {
        "displayName": "Capital Bikeshare",
        "id": "capitalbikeshare-4ff52d",
        "locationSet": {"include": ["001"]},
        "oldid": "amenity/bicycle_rental|Capital Bikeshare",
        "tags": {
          "amenity": "bicycle_rental",
          "brand": "Capital Bikeshare",
          "name": "Capital Bikeshare"
        }
      },
      {
        "displayName": "Explore Bike Share",
        "id": "explorebikeshare-0a323f",
        "locationSet": {"include": ["us"]},
        "oldid": "amenity/bicycle_rental|Explore Bike Share",
        "tags": {
          "amenity": "bicycle_rental",
          "brand": "Explore Bike Share",
          "brand:wikidata": "Q86706492",
          "name": "Explore Bike Share"
        }
      },
      {
        "displayName": "Grid",
        "id": "grid-0a323f",
        "locationSet": {"include": ["us"]},
        "oldid": "amenity/bicycle_rental|Grid",
        "tags": {
          "amenity": "bicycle_rental",
          "brand": "Grid",
          "brand:wikidata": "Q62104168",
          "name": "Grid"
        }
      },
      {
        "displayName": "HELLO CYCLING",
        "id": "hellocycling-7f7110",
        "locationSet": {"include": ["jp"]},
        "oldid": "amenity/bicycle_rental|HELLO CYCLING",
        "tags": {
          "amenity": "bicycle_rental",
          "brand": "HELLO CYCLING",
          "brand:en": "HELLO CYCLING",
          "brand:ja": "ハローサイクリング",
          "brand:wikidata": "Q91231927",
          "fee": "yes",
          "name": "HELLO CYCLING",
          "name:en": "HELLO CYCLING",
          "name:ja": "ハローサイクリング"
        }
      },
      {
        "displayName": "MiBici",
        "id": "mibici-f020c1",
        "locationSet": {"include": ["mx"]},
        "oldid": "amenity/bicycle_rental|MiBici",
        "tags": {
          "amenity": "bicycle_rental",
          "brand": "MiBici",
          "brand:wikidata": "Q60966987",
          "brand:wikipedia": "es:MiBici",
          "name": "MiBici"
        }
      },
      {
        "displayName": "OV-fiets",
        "id": "ovfiets-dbab6f",
        "locationSet": {"include": ["nl"]},
        "oldid": "amenity/bicycle_rental|OV-fiets",
        "tags": {
          "amenity": "bicycle_rental",
          "brand": "OV-fiets",
          "brand:wikidata": "Q2629982",
          "brand:wikipedia": "en:OV-fiets",
          "name": "OV-fiets"
        }
      },
      {
        "displayName": "SZ-Bike",
        "id": "szbike-173889",
        "locationSet": {"include": ["de"]},
        "oldid": "amenity/bicycle_rental|SZ-Bike",
        "tags": {
          "amenity": "bicycle_rental",
          "brand": "SZ-Bike",
          "name": "SZ-Bike"
        }
      },
      {
        "displayName": "Swapfiets",
        "id": "swapfiets-37e310",
        "locationSet": {
          "include": ["be", "de", "dk", "nl"]
        },
        "oldid": "amenity/bicycle_rental|Swapfiets",
        "tags": {
          "amenity": "bicycle_rental",
          "brand": "Swapfiets",
          "brand:wikidata": "Q62104374",
          "name": "Swapfiets"
        }
      },
      {
        "displayName": "baybike",
        "id": "baybike-7f7110",
        "locationSet": {"include": ["jp"]},
        "oldid": "amenity/bicycle_rental|baybike",
        "tags": {
          "amenity": "bicycle_rental",
          "brand": "baybike",
          "brand:en": "baybike",
          "brand:ja": "ベイバイク",
          "brand:wikidata": "Q91499435",
          "fee": "yes",
          "name": "baybike",
          "name:en": "baybike",
          "name:ja": "ベイバイク",
          "official_name": "横浜コミュニティサイクル",
          "official_name:en": "Yokohama Bike Share",
          "official_name:ja": "横浜コミュニティサイクル"
        }
      },
      {
        "displayName": "metropolradruhr",
        "id": "metropolradruhr-173889",
        "locationSet": {"include": ["de"]},
        "oldid": "amenity/bicycle_rental|metropolradruhr",
        "tags": {
          "amenity": "bicycle_rental",
          "brand": "metropolradruhr",
          "brand:wikidata": "Q62104274",
          "name": "metropolradruhr"
        }
      },
      {
        "displayName": "ちよくる",
        "id": "ちよくる-7f7110",
        "locationSet": {"include": ["jp"]},
        "oldid": "amenity/bicycle_rental|ちよくる",
        "tags": {
          "amenity": "bicycle_rental",
          "brand": "ちよくる",
          "brand:en": "Chiyocle",
          "brand:ja": "ちよくる",
          "brand:wikidata": "Q91498542",
          "fee": "yes",
          "name": "ちよくる",
          "name:en": "Chiyocle",
          "name:ja": "ちよくる",
          "official_name": "千代田区コミュニティサイクル",
          "official_name:en": "Chiyoda City Bike Share",
          "official_name:ja": "千代田区コミュニティサイクル"
        }
      },
      {
        "displayName": "ドコモ・バイクシェア",
        "id": "ドコモバイクシェア-7f7110",
        "locationSet": {"include": ["jp"]},
        "oldid": "amenity/bicycle_rental|ドコモ・バイクシェア",
        "tags": {
          "amenity": "bicycle_rental",
          "brand": "ドコモ・バイクシェア",
          "brand:en": "Docomo Bike Share",
          "brand:ja": "ドコモ・バイクシェア",
          "brand:wikidata": "Q55533296",
          "brand:wikipedia": "ja:ドコモ・バイクシェア",
          "fee": "yes",
          "name": "ドコモ・バイクシェア",
          "name:en": "Docomo Bike Share",
          "name:ja": "ドコモ・バイクシェア"
        }
      }
    ]
  }
}