{
  "amenity": {
    "bureau_de_change": [
      {
        "displayName": "CADECA",
        "id": "cadeca-f7dc49",
        "locationSet": {"include": ["cu"]},
        "oldid": "amenity/bureau_de_change|CADECA",
        "tags": {
          "amenity": "bureau_de_change",
          "brand": "CADECA",
          "brand:wikidata": "Q62122716",
          "name": "CADECA"
        }
      },
      {
        "displayName": "Eurochange",
        "id": "eurochange-fb7011",
        "locationSet": {"include": ["gb"]},
        "oldid": "amenity/bureau_de_change|Eurochange",
        "tags": {
          "amenity": "bureau_de_change",
          "brand": "Eurochange",
          "brand:wikidata": "Q86525249",
          "name": "Eurochange"
        }
      },
      {
        "displayName": "NM Money",
        "id": "nmmoney-fb7011",
        "locationSet": {"include": ["gb"]},
        "nomatch": [
          "office/financial_advisor|NM Money"
        ],
        "oldid": "amenity/bureau_de_change|NM Money",
        "tags": {
          "amenity": "bureau_de_change",
          "brand": "NM Money",
          "brand:wikidata": "Q86529747",
          "name": "NM Money"
        }
      },
      {
        "displayName": "No1 Currency",
        "id": "no1currency-b9f0a0",
        "locationSet": {"include": ["gb", "ie"]},
        "oldid": "amenity/bureau_de_change|No1 Currency",
        "tags": {
          "amenity": "bureau_de_change",
          "brand": "No1 Currency",
          "brand:wikidata": "Q87139463",
          "name": "No1 Currency"
        }
      },
      {
        "displayName": "PocketChange",
        "id": "pocketchange-e1256c",
        "locationSet": {"include": ["jp", "tw"]},
        "oldid": "amenity/bureau_de_change|PocketChange",
        "tags": {
          "amenity": "bureau_de_change",
          "brand": "PocketChange",
          "brand:ja": "ポケットチェンジ",
          "brand:wikidata": "Q96182316",
          "name": "PocketChange",
          "name:ja": "ポケットチェンジ"
        }
      },
      {
        "displayName": "Travelex",
        "id": "travelex-f85010",
        "locationSet": {"include": ["001"]},
        "oldid": "amenity/bureau_de_change|Travelex",
        "tags": {
          "amenity": "bureau_de_change",
          "brand": "Travelex",
          "brand:wikidata": "Q2337964",
          "brand:wikipedia": "en:Travelex",
          "name": "Travelex"
        }
      },
      {
        "displayName": "Беларусбанк",
        "id": "беnарусбанк-92918f",
        "locationSet": {"include": ["by"]},
        "nomatch": ["amenity/bank|Беларусбанк"],
        "oldid": "amenity/bureau_de_change|Беларусбанк",
        "tags": {
          "amenity": "bureau_de_change",
          "brand": "Беларусбанк",
          "name": "Беларусбанк"
        }
      },
      {
        "displayName": "Обмен валют Кит Group",
        "id": "обменваnюткитgroup-f85010",
        "locationSet": {"include": ["001"]},
        "oldid": "amenity/bureau_de_change|Обмен валют Кит Group",
        "tags": {
          "amenity": "bureau_de_change",
          "brand": "Обмен валют Кит Group",
          "name": "Обмен валют Кит Group"
        }
      },
      {
        "displayName": "Обмін валют",
        "id": "обмінваnют-f85010",
        "locationSet": {"include": ["001"]},
        "oldid": "amenity/bureau_de_change|Обмін валют",
        "tags": {
          "amenity": "bureau_de_change",
          "brand": "Обмін валют",
          "name": "Обмін валют"
        }
      }
    ]
  }
}