{
  "amenity/cafe|85度C": {
    "count": 184,
    "tags": {
      "amenity": "cafe",
      "brand": "85度C",
      "brand:en": "85C Bakery Cafe",
      "brand:wikidata": "Q4644852",
      "brand:wikipedia": "en:85C Bakery Cafe",
      "name": "85度C",
      "name:en": "85C Bakery Cafe"
    }
  },
  "amenity/cafe|Barista": {
    "count": 68,
    "tags": {
      "amenity": "cafe",
      "brand": "Barista",
      "brand:wikidata": "Q644735",
      "brand:wikipedia": "en:Barista (company)",
      "name": "Barista"
    }
  },
  "amenity/cafe|Bonafide": {
    "count": 72,
    "tags": {
      "amenity": "cafe",
      "brand": "Bonafide",
      "name": "Bonafide"
    }
  },
  "amenity/cafe|Cafe Coffee Day": {
    "count": 277,
    "match": ["amenity/cafe|Café Coffee Day"],
    "tags": {
      "amenity": "cafe",
      "brand": "Cafe Coffee Day",
      "brand:wikidata": "Q5017235",
      "brand:wikipedia": "en:Café Coffee Day",
      "name": "Cafe Coffee Day"
    }
  },
  "amenity/cafe|Cafe Express": {
    "count": 61,
    "tags": {
      "amenity": "cafe",
      "name": "Cafe Express"
    }
  },
  "amenity/cafe|Caffè Nero": {
    "count": 293,
    "match": [
      "amenity/cafe|Cafe Nero",
      "amenity/cafe|Caffe Nero"
    ],
    "tags": {
      "amenity": "cafe",
      "brand": "Caffè Nero",
      "brand:wikidata": "Q675808",
      "brand:wikipedia": "en:Caffè Nero",
      "name": "Caffè Nero"
    }
  },
  "amenity/cafe|Café Amazon": {
    "count": 266,
    "match": [
      "amenity/cafe|Cafe Amazon",
      "shop/coffee|Cafe Amazon",
      "shop/coffee|Café Amazon"
    ],
    "tags": {
      "amenity": "cafe",
      "brand": "Café Amazon",
      "brand:wikidata": "Q43247503",
      "brand:wikipedia": "en:Café Amazon",
      "name": "Café Amazon"
    }
  },
  "amenity/cafe|Café Express": {
    "count": 188,
    "tags": {
      "amenity": "cafe",
      "name": "Café Express"
    }
  },
  "amenity/cafe|Café Martínez": {
    "count": 162,
    "tags": {
      "amenity": "cafe",
      "brand": "Café Martínez",
      "brand:wikidata": "Q16540032",
      "brand:wikipedia": "es:Café Martínez",
      "name": "Café Martínez"
    }
  },
  "amenity/cafe|Caribou Coffee": {
    "count": 208,
    "tags": {
      "amenity": "cafe",
      "brand": "Caribou Coffee",
      "brand:wikidata": "Q5039494",
      "brand:wikipedia": "en:Caribou Coffee",
      "name": "Caribou Coffee"
    }
  },
  "amenity/cafe|Chatime": {
    "count": 71,
    "tags": {
      "amenity": "cafe",
      "brand": "Chatime",
      "brand:wikidata": "Q16829306",
      "brand:wikipedia": "en:Chatime",
      "name": "Chatime"
    }
  },
  "amenity/cafe|Coffee Bean": {
    "count": 53,
    "tags": {
      "amenity": "cafe",
      "name": "Coffee Bean"
    }
  },
  "amenity/cafe|Coffee Culture": {
    "count": 51,
    "tags": {
      "amenity": "cafe",
      "name": "Coffee Culture"
    }
  },
  "amenity/cafe|Coffee Fellows": {
    "count": 98,
    "tags": {
      "amenity": "cafe",
      "brand": "Coffee Fellows",
      "brand:wikidata": "Q23461429",
      "brand:wikipedia": "en:Coffee Fellows",
      "name": "Coffee Fellows"
    }
  },
  "amenity/cafe|Coffee House": {
    "count": 90,
    "countryCodes": ["fi"],
    "tags": {
      "amenity": "cafe",
      "brand": "Coffee House",
      "brand:wikidata": "Q11855430",
      "brand:wikipedia": "fi:Coffee House",
      "name": "Coffee House"
    }
  },
  "amenity/cafe|Coffee Island": {
    "count": 85,
    "tags": {
      "amenity": "cafe",
      "brand": "Coffee Island",
      "brand:wikidata": "Q60867333",
      "brand:wikipedia": "en:Coffee Island",
      "name": "Coffee Island"
    }
  },
  "amenity/cafe|Coffee Time": {
    "count": 136,
    "tags": {
      "amenity": "cafe",
      "brand": "Coffee Time",
      "brand:wikidata": "Q5140932",
      "brand:wikipedia": "en:Coffee Time",
      "name": "Coffee Time"
    }
  },
  "amenity/cafe|Costa": {
    "count": 1077,
    "match": ["amenity/cafe|Costa Coffee"],
    "tags": {
      "amenity": "cafe",
      "brand": "Costa",
      "brand:wikidata": "Q608845",
      "brand:wikipedia": "en:Costa Coffee",
      "name": "Costa"
    }
  },
  "amenity/cafe|Country Style": {
    "count": 67,
    "tags": {
      "amenity": "cafe",
      "brand": "Country Style",
      "brand:wikidata": "Q5177435",
      "brand:wikipedia": "en:Country Style",
      "name": "Country Style"
    }
  },
  "amenity/cafe|Dolce Vita": {
    "count": 57,
    "tags": {
      "amenity": "cafe",
      "brand": "Dolce Vita",
      "name": "Dolce Vita"
    }
  },
  "amenity/cafe|Dutch Bros. Coffee": {
    "match": [
      "amenity/cafe|Dutch Bro's",
      "amenity/cafe|Dutch Brother's",
      "amenity/cafe|Dutch Brothers",
      "amenity/fast_food|Dutch Bro's",
      "amenity/fast_food|Dutch Brother's",
      "amenity/fast_food|Dutch Brothers",
      "shop/coffee|Dutch Bro's",
      "shop/coffee|Dutch Brother's",
      "shop/coffee|Dutch Brothers"
    ],
    "nocount": true,
    "tags": {
      "amenity": "cafe",
      "brand": "Dutch Bros. Coffee",
      "brand:wikidata": "Q5317253",
      "brand:wikipedia": "en:Dutch Bros. Coffee",
      "cuisine": "coffee_shop",
      "name": "Dutch Bros. Coffee"
    }
  },
  "amenity/cafe|Espresso House": {
    "count": 181,
    "tags": {
      "amenity": "cafe",
      "brand": "Espresso House",
      "brand:wikidata": "Q10489162",
      "brand:wikipedia": "en:Espresso House",
      "name": "Espresso House"
    }
  },
  "amenity/cafe|Havanna": {
    "count": 91,
    "tags": {
      "amenity": "cafe",
      "brand": "Havanna",
      "brand:wikidata": "Q2900869",
      "brand:wikipedia": "es:Havanna",
      "name": "Havanna"
    }
  },
  "amenity/cafe|Insomnia": {
    "count": 57,
    "tags": {
      "amenity": "cafe",
      "brand": "Insomnia",
      "brand:wikidata": "Q6038271",
      "brand:wikipedia": "en:Insomnia Coffee Company",
      "name": "Insomnia"
    }
  },
  "amenity/cafe|Joe & The Juice": {
    "count": 79,
    "tags": {
      "amenity": "cafe",
      "brand": "Joe & The Juice",
      "brand:wikidata": "Q26221514",
      "brand:wikipedia": "en:Joe & The Juice",
      "name": "Joe & The Juice"
    }
  },
  "amenity/cafe|Le Pain Quotidien": {
    "count": 77,
    "tags": {
      "amenity": "cafe",
      "brand": "Le Pain Quotidien",
      "brand:wikidata": "Q2046903",
      "brand:wikipedia": "en:Le Pain Quotidien",
      "name": "Le Pain Quotidien"
    }
  },
  "amenity/cafe|Mado": {
    "count": 58,
    "tags": {
      "amenity": "cafe",
      "brand": "Mado",
      "brand:wikidata": "Q17116336",
      "brand:wikipedia": "en:Mado (food company)",
      "name": "Mado"
    }
  },
  "amenity/cafe|McCafé": {
    "count": 82,
    "tags": {
      "amenity": "cafe",
      "brand": "McCafé",
      "brand:wikidata": "Q3114287",
      "brand:wikipedia": "en:McCafé",
      "cuisine": "coffee_shop",
      "name": "McCafé",
      "operator:wikidata": "Q38076",
      "operator:wikipedia": "en:McDonald's"
    }
  },
  "amenity/cafe|Mikel": {
    "count": 55,
    "tags": {"amenity": "cafe", "name": "Mikel"}
  },
  "amenity/cafe|Patisserie Valerie": {
    "count": 59,
    "countryCodes": ["gb"],
    "tags": {
      "amenity": "cafe",
      "brand": "Patisserie Valerie",
      "brand:wikidata": "Q22101966",
      "brand:wikipedia": "en:Patisserie Valerie",
      "cuisine": "cake",
      "name": "Patisserie Valerie"
    }
  },
  "amenity/cafe|Peet's Coffee": {
    "count": 59,
    "match": ["amenity/cafe|Peet's Coffee & Tea"],
    "tags": {
      "amenity": "cafe",
      "brand": "Peet's Coffee",
      "brand:wikidata": "Q1094101",
      "brand:wikipedia": "en:Peet's Coffee",
      "name": "Peet's Coffee"
    }
  },
  "amenity/cafe|Pret A Manger": {
    "count": 203,
    "tags": {
      "amenity": "cafe",
      "brand": "Pret A Manger",
      "brand:wikidata": "Q2109109",
      "brand:wikipedia": "en:Pret a Manger",
      "name": "Pret A Manger"
    }
  },
  "amenity/cafe|Prime": {
    "count": 63,
    "tags": {
      "amenity": "cafe",
      "brand": "Prime",
      "name": "Prime"
    }
  },
  "amenity/cafe|Pronto": {
    "countryCodes": ["jp"],
    "match": ["amenity/cafe|プロント"],
    "nocount": true,
    "nomatch": ["shop/convenience|Coop Pronto"],
    "tags": {
      "amenity": "cafe",
      "brand": "PRONTO",
      "brand:wikidata": "Q11336224",
      "brand:wikipedia": "ja:プロントコーポレーション",
      "cuisine": "coffee_shop",
      "name": "Pronto",
      "name:ja": "プロント",
      "official_name": "Pronto Caffè & Bar",
      "operator": "株式会社 プロントコーポレーション",
      "operator:en": "PRONTO Corporation"
    }
  },
  "amenity/cafe|Pumpkin": {
    "countryCodes": ["gb"],
    "match": [
      "amenity/cafe|Pumpkin Cafe Shop",
      "amenity/cafe|Pumpkin Café Shop"
    ],
    "nocount": true,
    "tags": {
      "amenity": "cafe",
      "brand": "Pumpkin",
      "brand:wikidata": "Q27825961",
      "brand:wikipedia": "en:Pumpkin Café Shop",
      "name": "Pumpkin"
    }
  },
  "amenity/cafe|Second Cup": {
    "count": 234,
    "tags": {
      "amenity": "cafe",
      "brand": "Second Cup",
      "brand:wikidata": "Q862180",
      "brand:wikipedia": "en:Second Cup",
      "name": "Second Cup"
    }
  },
  "amenity/cafe|Segafredo": {
    "count": 107,
    "tags": {
      "amenity": "cafe",
      "brand": "Segafredo",
      "brand:wikidata": "Q21282762",
      "brand:wikipedia": "it:Segafredo Zanetti",
      "name": "Segafredo"
    }
  },
  "amenity/cafe|Starbucks": {
    "count": 8912,
    "match": [
      "amenity/cafe|Starbuck's",
      "amenity/cafe|Starbucks Coffee",
      "amenity/fast_food|Starbuck's",
      "amenity/fast_food|Starbucks",
      "amenity/fast_food|Starbucks Coffee",
      "amenity/restaurant|Starbuck's",
      "amenity/restaurant|Starbucks",
      "amenity/restaurant|Starbucks Coffee",
      "shop/coffee|Starbuck's",
      "shop/coffee|Starbucks",
      "shop/coffee|Starbucks Coffee"
    ],
    "tags": {
      "amenity": "cafe",
      "brand": "Starbucks",
      "brand:wikidata": "Q37158",
      "brand:wikipedia": "en:Starbucks",
      "cuisine": "coffee_shop",
      "name": "Starbucks"
    }
  },
  "amenity/cafe|The Coffee Bean & Tea Leaf": {
    "count": 154,
    "tags": {
      "amenity": "cafe",
      "brand": "The Coffee Bean & Tea Leaf",
      "brand:wikidata": "Q1141384",
      "brand:wikipedia": "en:The Coffee Bean & Tea Leaf",
      "name": "The Coffee Bean & Tea Leaf"
    }
  },
  "amenity/cafe|The Coffee Club": {
    "count": 99,
    "tags": {
      "amenity": "cafe",
      "brand": "The Coffee Club",
      "brand:wikidata": "Q7726599",
      "brand:wikipedia": "en:The Coffee Club",
      "name": "The Coffee Club"
    }
  },
  "amenity/cafe|Tim Hortons": {
    "count": 2368,
    "match": [
      "amenity/fast_food|Tim Hortons",
      "amenity/restaurant|Tim Hortons"
    ],
    "tags": {
      "amenity": "cafe",
      "brand": "Tim Hortons",
      "brand:wikidata": "Q175106",
      "brand:wikipedia": "en:Tim Hortons",
      "name": "Tim Hortons"
    }
  },
  "amenity/cafe|Traveler's Coffee": {
    "count": 74,
    "tags": {
      "amenity": "cafe",
      "brand": "Traveler's Coffee",
      "brand:wikidata": "Q4051716",
      "brand:wikipedia": "ru:Traveler’s Coffee",
      "name": "Traveler's Coffee"
    }
  },
  "amenity/cafe|Wayne's Coffee": {
    "count": 53,
    "tags": {
      "amenity": "cafe",
      "brand": "Wayne's Coffee",
      "brand:wikidata": "Q2637272",
      "brand:wikipedia": "en:Wayne's Coffee",
      "name": "Wayne's Coffee"
    }
  },
  "amenity/cafe|Wild Bean Cafe": {
    "count": 61,
    "tags": {
      "amenity": "cafe",
      "brand": "Wild Bean Cafe",
      "brand:wikidata": "Q61804826",
      "name": "Wild Bean Cafe"
    }
  },
  "amenity/cafe|Берёзка": {
    "count": 57,
    "tags": {
      "amenity": "cafe",
      "brand": "Берёзка",
      "name": "Берёзка"
    }
  },
  "amenity/cafe|Виктория": {
    "count": 59,
    "tags": {
      "amenity": "cafe",
      "brand": "Виктория",
      "name": "Виктория"
    }
  },
  "amenity/cafe|Встреча": {
    "count": 103,
    "tags": {
      "amenity": "cafe",
      "brand": "Встреча",
      "name": "Встреча"
    }
  },
  "amenity/cafe|Гурман": {
    "count": 57,
    "tags": {
      "amenity": "cafe",
      "brand": "Гурман",
      "name": "Гурман"
    }
  },
  "amenity/cafe|Даблби": {
    "count": 69,
    "tags": {
      "amenity": "cafe",
      "brand": "Даблби",
      "name": "Даблби"
    }
  },
  "amenity/cafe|Жемчужина": {
    "count": 53,
    "tags": {
      "amenity": "cafe",
      "brand": "Жемчужина",
      "name": "Жемчужина"
    }
  },
  "amenity/cafe|Кулинария": {
    "count": 51,
    "tags": {
      "amenity": "cafe",
      "brand": "Кулинария",
      "name": "Кулинария"
    }
  },
  "amenity/cafe|Лакомка": {
    "count": 68,
    "tags": {
      "amenity": "cafe",
      "brand": "Лакомка",
      "name": "Лакомка"
    }
  },
  "amenity/cafe|Оазис": {
    "count": 66,
    "tags": {
      "amenity": "cafe",
      "brand": "Оазис",
      "brand:en": "Oasis",
      "name": "Оазис",
      "name:en": "Oasis"
    }
  },
  "amenity/cafe|Пельменная": {
    "count": 82,
    "tags": {
      "amenity": "cafe",
      "brand": "Пельменная",
      "name": "Пельменная"
    }
  },
  "amenity/cafe|Рандеву": {
    "count": 61,
    "tags": {
      "amenity": "cafe",
      "brand": "Рандеву",
      "name": "Рандеву"
    }
  },
  "amenity/cafe|Сказка": {
    "count": 77,
    "tags": {
      "amenity": "cafe",
      "brand": "Сказка",
      "name": "Сказка"
    }
  },
  "amenity/cafe|Смак": {
    "count": 66,
    "tags": {
      "amenity": "cafe",
      "brand": "Смак",
      "brand:en": "Taste",
      "name": "Смак",
      "name:en": "Taste"
    }
  },
  "amenity/cafe|Старбакс": {
    "count": 72,
    "tags": {
      "amenity": "cafe",
      "brand": "Старбакс",
      "brand:en": "Starbucks",
      "brand:wikidata": "Q37158",
      "brand:wikipedia": "en:Starbucks",
      "name": "Старбакс",
      "name:en": "Starbucks"
    }
  },
  "amenity/cafe|Транзит": {
    "count": 51,
    "tags": {"amenity": "cafe", "name": "Транзит"}
  },
  "amenity/cafe|Фортуна": {
    "count": 56,
    "tags": {
      "amenity": "cafe",
      "brand": "Фортуна",
      "name": "Фортуна"
    }
  },
  "amenity/cafe|Хинкальная": {
    "count": 55,
    "tags": {
      "amenity": "cafe",
      "brand": "Хинкальная",
      "name": "Хинкальная"
    }
  },
  "amenity/cafe|Хуторок": {
    "count": 70,
    "tags": {
      "amenity": "cafe",
      "brand": "Хуторок",
      "name": "Хуторок"
    }
  },
  "amenity/cafe|Шашлычная": {
    "count": 167,
    "tags": {
      "amenity": "cafe",
      "brand": "Шашлычная",
      "name": "Шашлычная"
    }
  },
  "amenity/cafe|Шоколадница": {
    "count": 328,
    "countryCodes": ["ru"],
    "match": ["amenity/cafe|Шоколад"],
    "tags": {
      "amenity": "cafe",
      "brand": "Шоколадница",
      "brand:en": "Chocolate",
      "brand:wikidata": "Q30891188",
      "brand:wikipedia": "ru:Шоколадница (сеть кофеен)",
      "name": "Шоколадница",
      "name:en": "Chocolate"
    }
  },
  "amenity/cafe|Штолле": {
    "count": 57,
    "tags": {
      "amenity": "cafe",
      "brand": "Штолле",
      "name": "Штолле"
    }
  },
  "amenity/cafe|ארומה": {
    "count": 70,
    "countryCodes": ["il"],
    "tags": {
      "amenity": "cafe",
      "brand": "ארומה",
      "brand:en": "Aroma Espresso Bar",
      "brand:wikidata": "Q2909872",
      "brand:wikipedia": "en:Aroma Espresso Bar",
      "name": "ארומה",
      "name:en": "Aroma Espresso Bar"
    }
  },
  "amenity/cafe|คาเฟ่ อเมซอน": {
    "count": 58,
    "countryCodes": ["th"],
    "tags": {
      "amenity": "cafe",
      "brand": "คาเฟ่ อเมซอน",
      "brand:en": "Café Amazon",
      "brand:wikidata": "Q43247503",
      "brand:wikipedia": "en:Café Amazon",
      "name": "คาเฟ่ อเมซอน",
      "name:en": "Café Amazon"
    }
  },
  "amenity/cafe|エクセルシオール カフェ": {
    "count": 63,
    "countryCodes": ["jp"],
    "tags": {
      "amenity": "cafe",
      "brand": "エクセルシオール カフェ",
      "brand:en": "EXCELSIOR CAFFÉ",
      "brand:wikidata": "Q11289828",
      "brand:wikipedia": "ja:エクセルシオール カフェ",
      "cuisine": "coffee_shop",
      "name": "エクセルシオール カフェ"
    }
  },
  "amenity/cafe|カフェ・ド・クリエ": {
    "count": 80,
    "countryCodes": ["jp"],
    "tags": {
      "amenity": "cafe",
      "brand": "カフェ・ド・クリエ",
      "brand:en": "Cafe de CRIE",
      "brand:wikidata": "Q17219077",
      "brand:wikipedia": "ja:ポッカクリエイト",
      "name": "カフェ・ド・クリエ",
      "name:en": "Cafe de CRIE"
    }
  },
  "amenity/cafe|カフェ・ベローチェ": {
    "count": 110,
    "countryCodes": ["jp"],
    "tags": {
      "amenity": "cafe",
      "brand": "カフェ・ベローチェ",
      "brand:en": "CAFFÈ VELOCE",
      "brand:wikidata": "Q11294597",
      "brand:wikipedia": "ja:カフェ・ベローチェ",
      "cuisine": "coffee_shop",
      "name": "カフェ・ベローチェ",
      "name:en": "CAFFÈ VELOCE"
    }
  },
  "amenity/cafe|コメダ珈琲店": {
    "count": 251,
    "countryCodes": ["jp"],
    "tags": {
      "amenity": "cafe",
      "brand": "コメダ珈琲店",
      "brand:en": "Komeda Coffee Shop",
      "brand:wikidata": "Q11302679",
      "brand:wikipedia": "ja:コメダ",
      "cuisine": "coffee_shop",
      "name": "コメダ珈琲店",
      "name:en": "Komeda Coffee Shop"
    }
  },
  "amenity/cafe|サンマルクカフェ": {
    "count": 164,
    "countryCodes": ["jp"],
    "tags": {
      "amenity": "cafe",
      "brand": "サンマルクカフェ",
      "brand:en": "ST.MARC CAFÉ",
      "brand:wikidata": "Q11305989",
      "brand:wikipedia": "ja:サンマルクホールディングス",
      "cuisine": "coffee_shop",
      "name": "サンマルクカフェ",
      "name:en": "ST.MARC CAFÉ"
    }
  },
  "amenity/cafe|スターバックス": {
    "count": 629,
    "countryCodes": ["jp"],
    "tags": {
      "amenity": "cafe",
      "brand": "スターバックス",
      "brand:en": "Starbucks",
      "brand:wikidata": "Q37158",
      "brand:wikipedia": "ja:スターバックス",
      "cuisine": "coffee_shop",
      "name": "スターバックス",
      "name:en": "Starbucks"
    }
  },
  "amenity/cafe|タリーズコーヒー": {
    "count": 273,
    "countryCodes": ["jp"],
    "tags": {
      "amenity": "cafe",
      "brand": "タリーズコーヒー",
      "brand:en": "Tully's Coffee",
      "brand:wikidata": "Q3541983",
      "brand:wikipedia": "en:Tully's Coffee",
      "name": "タリーズコーヒー",
      "name:en": "Tully's Coffee"
    }
  },
  "amenity/cafe|ドトールコーヒーショップ": {
    "count": 509,
    "countryCodes": ["jp"],
    "tags": {
      "amenity": "cafe",
      "brand": "ドトールコーヒーショップ",
      "brand:en": "Doutor",
      "brand:wikidata": "Q11322732",
      "brand:wikipedia": "ja:ドトールコーヒーショップ",
      "cuisine": "coffee_shop",
      "name": "ドトールコーヒーショップ",
      "name:en": "Doutor Coffee Shop"
    }
  },
  "amenity/cafe|星巴克": {
    "count": 289,
    "countryCodes": ["cn", "tw"],
    "tags": {
      "amenity": "cafe",
      "brand": "星巴克",
      "brand:en": "Starbucks",
      "brand:wikidata": "Q37158",
      "brand:wikipedia": "zh:星巴克",
      "cuisine": "coffee_shop",
      "name": "星巴克",
      "name:en": "Starbucks"
    }
  },
  "amenity/cafe|珈琲館": {
    "countryCodes": ["jp"],
    "nocount": true,
    "tags": {
      "amenity": "cafe",
      "brand": "珈琲館",
      "brand:en": "Kohikan",
      "brand:wikidata": "Q11573290",
      "brand:wikipedia": "ja:珈琲館",
      "cuisine": "coffee_shop",
      "name": "珈琲館",
      "name:en": "Kohikan"
    }
  },
  "amenity/cafe|스타벅스": {
    "count": 96,
    "countryCodes": ["kr"],
    "tags": {
      "amenity": "cafe",
      "brand": "스타벅스",
      "brand:en": "Starbucks",
      "brand:wikidata": "Q37158",
      "brand:wikipedia": "ko:스타벅스",
      "cuisine": "coffee_shop",
      "name": "스타벅스",
      "name:en": "Starbucks"
    }
  }
}