{
  "brands/amenity/car_sharing": [
    {
      "displayName": "Bluely",
      "id": "bluely-aa44e0",
      "locationSet": {"include": ["fr"]},
      "matchNames": ["station bluely"],
      "oldid": "amenity/car_sharing|Bluely",
      "tags": {
        "amenity": "car_sharing",
        "brand": "Bluely",
        "brand:wikidata": "Q16039715",
        "brand:wikipedia": "fr:Bluely",
        "name": "Bluely"
      }
    },
    {
      "displayName": "Enterprise Car Club",
      "id": "enterprisecarclub-251e74",
      "locationSet": {"include": ["gb"]},
      "matchNames": ["city car club"],
      "oldid": "amenity/car_sharing|Enterprise Car Club",
      "tags": {
        "amenity": "car_sharing",
        "brand": "Enterprise Car Club",
        "brand:wikidata": "Q5123055",
        "brand:wikipedia": "en:Enterprise Car Club",
        "name": "Enterprise Car Club"
      }
    },
    {
      "displayName": "Greenwheels",
      "id": "greenwheels-6b2f32",
      "locationSet": {"include": ["de", "nl"]},
      "oldid": "amenity/car_sharing|Greenwheels",
      "tags": {
        "amenity": "car_sharing",
        "brand": "Greenwheels",
        "brand:wikidata": "Q316782",
        "brand:wikipedia": "en:Greenwheels",
        "name": "Greenwheels"
      }
    },
    {
      "displayName": "stadtmobil",
      "id": "stadtmobil-6dce68",
      "locationSet": {"include": ["de"]},
      "matchNames": [
        "stadtmobil carsharing-station"
      ],
      "oldid": "amenity/car_sharing|stadtmobil",
      "tags": {
        "amenity": "car_sharing",
        "brand": "stadtmobil",
        "brand:wikidata": "Q2327629",
        "brand:wikipedia": "en:Stadtmobil",
        "name": "stadtmobil"
      }
    },
    {
      "displayName": "teilAuto",
      "id": "teilauto-6dce68",
      "locationSet": {"include": ["de"]},
      "oldid": "amenity/car_sharing|teilAuto",
      "tags": {
        "amenity": "car_sharing",
        "brand": "teilAuto",
        "brand:wikidata": "Q2400658",
        "brand:wikipedia": "de:TeilAuto",
        "name": "teilAuto"
      }
    },
    {
      "displayName": "Zipcar",
      "id": "zipcar-e90be7",
      "locationSet": {"include": ["001"]},
      "oldid": "amenity/car_sharing|Zipcar",
      "tags": {
        "amenity": "car_sharing",
        "brand": "Zipcar",
        "brand:wikidata": "Q1069924",
        "brand:wikipedia": "en:Zipcar",
        "name": "Zipcar"
      }
    },
    {
      "displayName": "タイムズカーシェア",
      "id": "タイムズカーシェア-01c6fa",
      "locationSet": {"include": ["jp"]},
      "oldid": "amenity/car_sharing|タイムズカーシェア",
      "tags": {
        "amenity": "car_sharing",
        "brand": "タイムズカーシェア",
        "brand:en": "Times Car Share",
        "brand:ja": "タイムズカーシェア",
        "brand:wikidata": "Q17987881",
        "brand:wikipedia": "ja:タイムズカーシェア",
        "name": "タイムズカーシェア",
        "name:en": "Times Car Share",
        "name:ja": "タイムズカーシェア"
      }
    }
  ]
}