{
  "amenity/car_rental|Alamo": {
    "count": 74,
    "tags": {
      "amenity": "car_rental",
      "brand": "Alamo",
      "brand:wikidata": "Q1429287",
      "brand:wikipedia": "en:Alamo Rent a Car",
      "name": "Alamo"
    }
  },
  "amenity/car_rental|Avis": {
    "count": 593,
    "match": ["amenity/car_rental|AVIS"],
    "tags": {
      "amenity": "car_rental",
      "brand": "Avis",
      "brand:wikidata": "Q791136",
      "brand:wikipedia": "en:Avis Rent a Car",
      "name": "Avis"
    }
  },
  "amenity/car_rental|Budget": {
    "count": 265,
    "tags": {
      "amenity": "car_rental",
      "brand": "Budget",
      "brand:wikidata": "Q1001437",
      "brand:wikipedia": "en:Budget Rent a Car",
      "name": "Budget"
    }
  },
  "amenity/car_rental|Dollar": {
    "nocount": true,
    "tags": {
      "amenity": "car_rental",
      "brand": "Dollar",
      "brand:wikidata": "Q1235661",
      "brand:wikipedia": "en:Dollar Rent A Car",
      "name": "Dollar"
    }
  },
  "amenity/car_rental|Enterprise": {
    "count": 584,
    "match": [
      "amenity/car_rental|Enterprise Rent-A-Car",
      "amenity/car_rental|Enterprise Rent-a-Car"
    ],
    "tags": {
      "amenity": "car_rental",
      "brand": "Enterprise",
      "brand:wikidata": "Q17085454",
      "brand:wikipedia": "en:Enterprise Rent-A-Car",
      "name": "Enterprise"
    }
  },
  "amenity/car_rental|Europcar": {
    "count": 732,
    "tags": {
      "amenity": "car_rental",
      "brand": "Europcar",
      "brand:wikidata": "Q1376256",
      "brand:wikipedia": "en:Europcar",
      "name": "Europcar"
    }
  },
  "amenity/car_rental|Hertz": {
    "count": 788,
    "tags": {
      "amenity": "car_rental",
      "brand": "Hertz",
      "brand:wikidata": "Q1543874",
      "brand:wikipedia": "en:The Hertz Corporation",
      "name": "Hertz"
    }
  },
  "amenity/car_rental|Localiza": {
    "count": 80,
    "tags": {
      "amenity": "car_rental",
      "brand": "Localiza",
      "brand:wikidata": "Q10319490",
      "brand:wikipedia": "en:Localiza",
      "name": "Localiza"
    }
  },
  "amenity/car_rental|Sixt": {
    "count": 372,
    "tags": {
      "amenity": "car_rental",
      "brand": "Sixt",
      "brand:wikidata": "Q705664",
      "brand:wikipedia": "en:Sixt",
      "name": "Sixt"
    }
  },
  "amenity/car_rental|Thrifty": {
    "count": 99,
    "tags": {
      "amenity": "car_rental",
      "brand": "Thrifty",
      "brand:wikidata": "Q2429546",
      "brand:wikipedia": "en:Thrifty Car Rental",
      "name": "Thrifty"
    }
  },
  "amenity/car_rental|U-Haul": {
    "count": 162,
    "tags": {
      "amenity": "car_rental",
      "brand": "U-Haul",
      "brand:wikidata": "Q7862902",
      "brand:wikipedia": "en:U-Haul",
      "name": "U-Haul"
    }
  },
  "amenity/car_rental|オリックスレンタカー": {
    "count": 77,
    "countryCodes": ["jp"],
    "tags": {
      "amenity": "car_rental",
      "brand": "オリックスレンタカー",
      "brand:en": "ORIX Car Rental",
      "brand:wikidata": "Q11123021",
      "brand:wikipedia": "ja:オリックスレンタカー",
      "name": "オリックスレンタカー",
      "name:en": "ORIX Car Rental"
    }
  },
  "amenity/car_rental|トヨタレンタカー": {
    "count": 100,
    "countryCodes": ["jp"],
    "match": ["amenity/car_rental|トヨタレンタリース"],
    "tags": {
      "amenity": "car_rental",
      "brand": "トヨタレンタカー",
      "brand:en": "Toyota Rental Car",
      "brand:wikidata": "Q11321580",
      "brand:wikipedia": "ja:トヨタレンタリース",
      "name": "トヨタレンタカー",
      "name:en": "Toyota Rental Car"
    }
  },
  "amenity/car_rental|ニッポンレンタカー": {
    "count": 160,
    "countryCodes": ["jp"],
    "tags": {
      "amenity": "car_rental",
      "brand": "ニッポンレンタカー",
      "brand:en": "Nippon Car Rental",
      "brand:wikidata": "Q11086533",
      "brand:wikipedia": "ja:ニッポンレンタカー",
      "name": "ニッポンレンタカー",
      "name:en": "Nippon Car Rental"
    }
  },
  "amenity/car_rental|日産レンタカー": {
    "count": 66,
    "countryCodes": ["jp"],
    "tags": {
      "amenity": "car_rental",
      "brand": "日産レンタカー",
      "brand:en": "Nissan Car Rental",
      "brand:wikidata": "Q11086838",
      "brand:wikipedia": "ja:日産レンタカー",
      "name": "日産レンタカー",
      "name:en": "Nissan Car Rental"
    }
  }
}