{
  "amenity/childcare|Kids 'R' Kids": {
    "countryCodes": ["us"],
    "matchNames": ["kids are kids"],
    "tags": {
      "after_school": "yes",
      "amenity": "childcare",
      "brand": "Kids 'R' Kids",
      "brand:wikidata": "Q65560342",
      "grades": "PK",
      "name": "Kids 'R' Kids",
      "nursery": "yes",
      "official_name": "Kids 'R' Kids Learning Academies",
      "preschool": "yes"
    }
  },
  "amenity/childcare|YMCA Child Care": {
    "countryCodes": ["us"],
    "matchNames": [
      "ymca",
      "ymca child care center"
    ],
    "tags": {
      "amenity": "childcare",
      "brand": "YMCA",
      "brand:wikidata": "Q157169",
      "brand:wikipedia": "en:YMCA",
      "name": "YMCA Child Care"
    }
  },
  "amenity/childcare|ポポラー": {
    "countryCodes": ["jp"],
    "tags": {
      "amenity": "childcare",
      "brand": "ポポラー",
      "brand:en": "Popolar",
      "brand:ja": "ポポラー",
      "brand:wikidata": "Q91945087",
      "name": "ポポラー",
      "name:en": "Popolar",
      "name:ja": "ポポラー"
    }
  }
}