{
  "amenity/cinema|109シネマズ": {
    "countryCodes": ["jp"],
    "nocount": true,
    "tags": {
      "amenity": "cinema",
      "brand": "109シネマズ",
      "brand:en": "109 Cinemas",
      "brand:wikidata": "Q10854269",
      "brand:wikipedia": "ja:109シネマズ",
      "name": "109シネマズ",
      "name:en": "109 Cinemas",
      "operator": "株式会社 東急レクリエーション",
      "operator:en": "Tokyu Recreation Co., Ltd.",
      "operator:wikidata": "Q11527011",
      "operator:wikipedia": "ja:東急レクリエーション"
    }
  },
  "amenity/cinema|Cinema City": {
    "count": 66,
    "logos": {
      "wikidata": "https://commons.wikimedia.org/w/index.php?title=Special%3ARedirect%2Ffile%2FCinema%20City.svg&width=100"
    },
    "tags": {
      "amenity": "cinema",
      "brand": "Cinema City",
      "brand:wikidata": "Q543651",
      "brand:wikipedia": "en:Cinema City International",
      "name": "Cinema City"
    }
  },
  "amenity/cinema|Cinemark": {
    "count": 108,
    "logos": {
      "wikidata": "https://commons.wikimedia.org/w/index.php?title=Special%3ARedirect%2Ffile%2FCinemark%20logo.svg&width=100",
      "facebook": "https://graph.facebook.com/cinemarkoficial/picture?type=square",
      "twitter": "https://pbs.twimg.com/profile_images/740686854589124608/M-Hrp9WB_bigger.jpg"
    },
    "tags": {
      "amenity": "cinema",
      "brand": "Cinemark",
      "brand:wikidata": "Q707530",
      "brand:wikipedia": "en:Cinemark Theatres",
      "name": "Cinemark"
    }
  },
  "amenity/cinema|Cinemex": {
    "count": 102,
    "tags": {
      "amenity": "cinema",
      "brand": "Cinemex",
      "brand:wikidata": "Q3333072",
      "brand:wikipedia": "en:Cinemex",
      "name": "Cinemex"
    }
  },
  "amenity/cinema|Cineplanet": {
    "logos": {
      "wikidata": "https://commons.wikimedia.org/w/index.php?title=Special%3ARedirect%2Ffile%2F2015-11-30%20lunes%20162542%20-%20Cineplanet.jpg&width=100"
    },
    "nocount": true,
    "tags": {
      "amenity": "cinema",
      "brand": "Cineplanet",
      "brand:wikidata": "Q5769680",
      "brand:wikipedia": "es:Cineplanet",
      "name": "Cineplanet",
      "operator": "Grupo Intercorp",
      "operator:wikidata": "Q23008916",
      "operator:wikipedia": "es:Intercorp"
    }
  },
  "amenity/cinema|Cinepolis": {
    "count": 101,
    "logos": {
      "wikidata": "https://commons.wikimedia.org/w/index.php?title=Special%3ARedirect%2Ffile%2FCin%C3%A9polis%20logo.svg&width=100",
      "facebook": "https://graph.facebook.com/cinepolisbrasil/picture?type=square",
      "twitter": "https://pbs.twimg.com/profile_images/882658486596890624/ZtkJn_Ti_bigger.jpg"
    },
    "match": ["amenity/cinema|Cinépolis"],
    "tags": {
      "amenity": "cinema",
      "brand": "Cinepolis",
      "brand:wikidata": "Q5686673",
      "brand:wikipedia": "en:Cinépolis",
      "name": "Cinepolis"
    }
  },
  "amenity/cinema|Cineworld": {
    "count": 75,
    "logos": {
      "twitter": "https://pbs.twimg.com/profile_images/854986890575065089/WujkAUca_bigger.jpg"
    },
    "tags": {
      "amenity": "cinema",
      "brand": "Cineworld",
      "brand:wikidata": "Q5120901",
      "brand:wikipedia": "en:Cineworld",
      "name": "Cineworld"
    }
  },
  "amenity/cinema|MOVIX": {
    "countryCodes": ["jp"],
    "nocount": true,
    "tags": {
      "amenity": "cinema",
      "brand": "MOVIX",
      "brand:wikidata": "Q11532184",
      "brand:wikipedia": "ja:松竹マルチプレックスシアターズ",
      "name": "MOVIX",
      "official_name": "松竹マルチプレックスシアターズ",
      "official_name:en": "Shochiku Multiplex Theatres",
      "operator": "株式会社松竹マルチプレックスシアターズ",
      "operator:en": "Shochiku Multiplex Theatres, Ltd."
    }
  },
  "amenity/cinema|Odeon": {
    "count": 88,
    "logos": {
      "wikidata": "https://commons.wikimedia.org/w/index.php?title=Special%3ARedirect%2Ffile%2FOdeon%20logo.svg&width=100",
      "twitter": "https://pbs.twimg.com/profile_images/761156055153991680/Rfb_aZyw_bigger.jpg"
    },
    "tags": {
      "amenity": "cinema",
      "brand": "Odeon",
      "brand:wikidata": "Q6127470",
      "brand:wikipedia": "en:Odeon Cinemas",
      "name": "Odeon"
    }
  },
  "amenity/cinema|TOHOシネマズ": {
    "countryCodes": ["jp"],
    "nocount": true,
    "tags": {
      "amenity": "cinema",
      "brand": "TOHOシネマズ",
      "brand:en": "TOHO CINEMAS",
      "brand:wikidata": "Q11235261",
      "brand:wikipedia": "ja:TOHOシネマズ",
      "name": "TOHOシネマズ",
      "name:en": "Toho Cinemas",
      "operator": "TOHOシネマズ株式会社",
      "operator:en": "TOHO CINEMAS LTD."
    }
  },
  "amenity/cinema|Октябрь": {
    "count": 53,
    "tags": {
      "amenity": "cinema",
      "brand": "Октябрь",
      "name": "Октябрь"
    }
  },
  "amenity/cinema|イオンシネマ": {
    "countryCodes": ["jp"],
    "nocount": true,
    "tags": {
      "amenity": "cinema",
      "brand": "イオンシネマ",
      "brand:en": "AEON Cinema",
      "brand:wikidata": "Q17192792",
      "brand:wikipedia": "ja:イオンエンターテイメント",
      "name": "イオンシネマ",
      "name:en": "AEON Cinema",
      "operator": "イオンエンターテイメント株式会社",
      "operator:en": "Aeon Entertainment Co., Ltd."
    }
  },
  "amenity/cinema|ユナイテッド・シネマ": {
    "countryCodes": ["jp"],
    "logos": {
      "twitter": "https://pbs.twimg.com/profile_images/857443773231513600/PRdKnkLq_bigger.jpg"
    },
    "nocount": true,
    "tags": {
      "amenity": "cinema",
      "brand": "ユナイテッド・シネマ",
      "brand:en": "United Cinemas",
      "brand:wikidata": "Q11345629",
      "brand:wikipedia": "ja:ユナイテッド・シネマ",
      "name": "ユナイテッド・シネマ",
      "name:en": "United Cinemas",
      "operator": "ユナイテッド・シネマ株式会社",
      "operator:en": "UNITED CINEMAS CO., LTD."
    }
  }
}