{
  "amenity/clinic|Aid Post": {
    "tags": {
      "amenity": "clinic",
      "brand": "Aid Post",
      "name": "Aid Post"
    }
  },
  "amenity/clinic|Centro Médico": {
    "tags": {
      "amenity": "clinic",
      "brand": "Centro Médico",
      "name": "Centro Médico"
    }
  },
  "amenity/clinic|Centro de Salud": {
    "tags": {
      "amenity": "clinic",
      "brand": "Centro de Salud",
      "name": "Centro de Salud"
    }
  },
  "amenity/clinic|Centro de Saúde": {
    "tags": {
      "amenity": "clinic",
      "brand": "Centro de Saúde",
      "name": "Centro de Saúde"
    }
  },
  "amenity/clinic|Centro de salud": {
    "tags": {
      "amenity": "clinic",
      "brand": "Centro de salud",
      "name": "Centro de salud"
    }
  },
  "amenity/clinic|CityMD": {
    "countryCodes": ["us"],
    "tags": {
      "amenity": "clinic",
      "brand": "CityMD",
      "brand:wikidata": "Q22295471",
      "brand:wikipedia": "en:CityMD",
      "healthcare": "clinic",
      "name": "CityMD"
    }
  },
  "amenity/clinic|Consultorio": {
    "tags": {
      "amenity": "clinic",
      "brand": "Consultorio",
      "name": "Consultorio"
    }
  },
  "amenity/clinic|Consultorio Local": {
    "tags": {
      "amenity": "clinic",
      "brand": "Consultorio Local",
      "name": "Consultorio Local"
    }
  },
  "amenity/clinic|Consultorio Médico": {
    "tags": {
      "amenity": "clinic",
      "brand": "Consultorio Médico",
      "name": "Consultorio Médico"
    }
  },
  "amenity/clinic|Consultorio médico": {
    "tags": {
      "amenity": "clinic",
      "brand": "Consultorio médico",
      "name": "Consultorio médico"
    }
  },
  "amenity/clinic|DaVita Dialysis": {
    "countryCodes": ["us"],
    "matchNames": [
      "davita",
      "davita kidney care"
    ],
    "tags": {
      "amenity": "clinic",
      "brand": "DaVita Dialysis",
      "brand:wikidata": "Q5207184",
      "healthcare": "dialysis",
      "healthcare:speciality": "dialysis",
      "name": "DaVita Dialysis"
    }
  },
  "amenity/clinic|Dialysis Clinic": {
    "countryCodes": ["us"],
    "matchNames": ["dialysis clinic inc"],
    "tags": {
      "amenity": "clinic",
      "brand": "Dialysis Clinic",
      "brand:wikidata": "Q5270633",
      "brand:wikipedia": "en:Dialysis Clinic, Inc.",
      "healthcare": "dialysis",
      "healthcare:speciality": "dialysis",
      "name": "Dialysis Clinic",
      "short_name": "DCI"
    }
  },
  "amenity/clinic|Fresenius Kidney Care": {
    "countryCodes": ["us"],
    "tags": {
      "amenity": "clinic",
      "brand": "Fresenius Kidney Care",
      "brand:wikidata": "Q650259",
      "brand:wikipedia": "en:Fresenius Medical Care",
      "healthcare": "dialysis",
      "healthcare:speciality": "dialysis",
      "name": "Fresenius Kidney Care"
    }
  },
  "amenity/clinic|Fresenius Medical Care": {
    "countryCodes": ["us"],
    "tags": {
      "amenity": "clinic",
      "brand": "Fresenius Medical Care",
      "brand:wikidata": "Q650259",
      "brand:wikipedia": "en:Fresenius Medical Care",
      "healthcare": "dialysis",
      "healthcare:speciality": "dialysis",
      "name": "Fresenius Medical Care"
    }
  },
  "amenity/clinic|Planned Parenthood": {
    "countryCodes": ["us"],
    "matchTags": [
      "amenity/doctors",
      "amenity/social_facility"
    ],
    "tags": {
      "amenity": "clinic",
      "brand": "Planned Parenthood",
      "brand:wikidata": "Q2553262",
      "brand:wikipedia": "en:Planned Parenthood",
      "healthcare": "counselling",
      "healthcare:counselling": "antenatal;sexual",
      "name": "Planned Parenthood"
    }
  },
  "amenity/clinic|Poliklinika": {
    "tags": {
      "amenity": "clinic",
      "brand": "Poliklinika",
      "name": "Poliklinika"
    }
  },
  "amenity/clinic|Polyclinique": {
    "tags": {
      "amenity": "clinic",
      "brand": "Polyclinique",
      "name": "Polyclinique"
    }
  },
  "amenity/clinic|Posyandu": {
    "tags": {
      "amenity": "clinic",
      "brand": "Posyandu",
      "name": "Posyandu"
    }
  },
  "amenity/clinic|Puskesmas": {
    "tags": {
      "amenity": "clinic",
      "brand": "Puskesmas",
      "name": "Puskesmas"
    }
  },
  "amenity/clinic|Satellite Healthcare": {
    "countryCodes": ["us"],
    "matchNames": [
      "satellite",
      "satellite dialysis"
    ],
    "tags": {
      "amenity": "clinic",
      "brand": "Satellite Healthcare",
      "brand:wikidata": "Q50039787",
      "healthcare": "dialysis",
      "healthcare:speciality": "dialysis",
      "name": "Satellite Healthcare"
    }
  },
  "amenity/clinic|Terveystalo": {
    "countryCodes": ["fi"],
    "tags": {
      "amenity": "clinic",
      "brand": "Terveystalo",
      "brand:wikidata": "Q11897034",
      "brand:wikipedia": "fi:Terveystalo",
      "healthcare": "clinic",
      "name": "Terveystalo"
    }
  },
  "amenity/clinic|Unidade Básica de Saúde": {
    "tags": {
      "amenity": "clinic",
      "brand": "Unidade Básica de Saúde",
      "name": "Unidade Básica de Saúde"
    }
  },
  "amenity/clinic|VA Clinic": {
    "countryCodes": ["us"],
    "matchNames": [
      "department of veterans affairs clinic",
      "veterans administration",
      "veterans administration clinic",
      "veterans affairs",
      "veterans affairs clinic"
    ],
    "tags": {
      "amenity": "clinic",
      "brand": "VA",
      "brand:wikidata": "Q6580225",
      "brand:wikipedia": "en:Veterans Health Administration",
      "healthcare": "clinic",
      "healthcare:for": "veterans",
      "name": "VA Clinic",
      "short_name": "VA"
    }
  },
  "amenity/clinic|ZoomCare": {
    "countryCodes": ["us"],
    "tags": {
      "amenity": "clinic",
      "brand": "ZoomCare",
      "brand:wikidata": "Q64120374",
      "brand:wikipedia": "en:ZoomCare",
      "healthcare": "clinic",
      "name": "ZoomCare",
      "urgent_care": "yes"
    }
  },
  "amenity/clinic|Амбулатория": {
    "tags": {
      "amenity": "clinic",
      "brand": "Амбулатория",
      "name": "Амбулатория"
    }
  },
  "amenity/clinic|Амбулаторія": {
    "tags": {
      "amenity": "clinic",
      "brand": "Амбулаторія",
      "name": "Амбулаторія"
    }
  },
  "amenity/clinic|Детская поликлиника": {
    "tags": {
      "amenity": "clinic",
      "brand": "Детская поликлиника",
      "name": "Детская поликлиника"
    }
  },
  "amenity/clinic|Женская консультация": {
    "tags": {
      "amenity": "clinic",
      "brand": "Женская консультация",
      "name": "Женская консультация"
    }
  },
  "amenity/clinic|Поликлиника": {
    "tags": {
      "amenity": "clinic",
      "brand": "Поликлиника",
      "name": "Поликлиника"
    }
  },
  "amenity/clinic|Поликлиника №1": {
    "tags": {
      "amenity": "clinic",
      "brand": "Поликлиника №1",
      "name": "Поликлиника №1"
    }
  },
  "amenity/clinic|Поліклініка": {
    "tags": {
      "amenity": "clinic",
      "brand": "Поліклініка",
      "name": "Поліклініка"
    }
  },
  "amenity/clinic|ФАП": {
    "tags": {
      "amenity": "clinic",
      "brand": "ФАП",
      "name": "ФАП"
    }
  },
  "amenity/clinic|درمانگاه": {
    "tags": {
      "amenity": "clinic",
      "brand": "درمانگاه",
      "name": "درمانگاه"
    }
  }
}