{
  "amenity": {
    "fast_food": [
      {
        "displayName": "241 Pizza",
        "id": "241pizza-1a4275",
        "locationSet": {"include": ["ca"]},
        "oldid": "amenity/fast_food|241 Pizza",
        "tags": {
          "amenity": "fast_food",
          "brand": "241 Pizza",
          "brand:wikidata": "Q4631768",
          "brand:wikipedia": "en:241 Pizza",
          "cuisine": "pizza",
          "name": "241 Pizza",
          "takeaway": "yes"
        }
      },
      {
        "displayName": "A&W (Canada)",
        "id": "aandw-1a4275",
        "locationSet": {"include": ["ca"]},
        "nomatch": [
          "amenity/fast_food|A&W~(USA)"
        ],
        "oldid": "amenity/fast_food|A&W~(Canada)",
        "tags": {
          "amenity": "fast_food",
          "brand": "A&W",
          "brand:wikidata": "Q2818848",
          "brand:wikipedia": "en:A&W (Canada)",
          "cuisine": "burger",
          "name": "A&W",
          "takeaway": "yes"
        }
      },
      {
        "displayName": "A&W (USA)",
        "id": "aandw-bc6fd8",
        "locationSet": {"include": ["us"]},
        "nomatch": [
          "amenity/fast_food|A&W~(Canada)"
        ],
        "oldid": "amenity/fast_food|A&W~(USA)",
        "tags": {
          "amenity": "fast_food",
          "brand": "A&W",
          "brand:wikidata": "Q277641",
          "brand:wikipedia": "en:A&W Restaurants",
          "cuisine": "burger",
          "name": "A&W",
          "takeaway": "yes"
        }
      },
      {
        "displayName": "Andok's",
        "id": "andoks-a76be0",
        "locationSet": {"include": ["ph"]},
        "oldid": "amenity/fast_food|Andok's",
        "tags": {
          "amenity": "fast_food",
          "brand": "Andok's",
          "brand:wikidata": "Q62267166",
          "cuisine": "chicken",
          "name": "Andok's",
          "takeaway": "yes"
        }
      },
      {
        "displayName": "Angel's Burger",
        "id": "angelsburger-a76be0",
        "locationSet": {"include": ["ph"]},
        "oldid": "amenity/fast_food|Angel's Burger",
        "tags": {
          "amenity": "fast_food",
          "brand": "Angel's Burger",
          "brand:wikidata": "Q62267228",
          "cuisine": "burger",
          "name": "Angel's Burger",
          "takeaway": "yes"
        }
      },
      {
        "displayName": "Arby's",
        "id": "arbys-f43248",
        "locationSet": {
          "include": ["ca", "tr", "us"]
        },
        "oldid": "amenity/fast_food|Arby's",
        "tags": {
          "amenity": "fast_food",
          "brand": "Arby's",
          "brand:wikidata": "Q630866",
          "brand:wikipedia": "en:Arby's",
          "cuisine": "sandwich",
          "name": "Arby's",
          "takeaway": "yes"
        }
      },
      {
        "displayName": "Arctic Circle",
        "id": "arcticcircle-bc6fd8",
        "locationSet": {"include": ["us"]},
        "oldid": "amenity/fast_food|Arctic Circle",
        "tags": {
          "amenity": "fast_food",
          "brand": "Arctic Circle",
          "brand:wikidata": "Q4787501",
          "brand:wikipedia": "en:Arctic Circle Restaurants",
          "cuisine": "burger",
          "name": "Arctic Circle",
          "takeaway": "yes"
        }
      },
      {
        "displayName": "Au Bon Pain",
        "id": "aubonpain-becab2",
        "locationSet": {
          "include": ["in", "th", "us"]
        },
        "oldid": "amenity/fast_food|Au Bon Pain",
        "tags": {
          "amenity": "fast_food",
          "brand": "Au Bon Pain",
          "brand:wikidata": "Q4818942",
          "brand:wikipedia": "en:Au Bon Pain",
          "cuisine": "sandwich",
          "name": "Au Bon Pain",
          "takeaway": "yes"
        }
      },
      {
        "displayName": "Auntie Anne's",
        "id": "auntieannes-bc6fd8",
        "locationSet": {"include": ["us"]},
        "matchNames": ["auntie annes pretzels"],
        "oldid": "amenity/fast_food|Auntie Anne's",
        "tags": {
          "amenity": "fast_food",
          "brand": "Auntie Anne's",
          "brand:wikidata": "Q4822010",
          "brand:wikipedia": "en:Auntie Anne's",
          "cuisine": "pretzel",
          "name": "Auntie Anne's",
          "takeaway": "yes"
        }
      },
      {
        "displayName": "Back Yard Burgers",
        "id": "backyardburgers-bc6fd8",
        "locationSet": {"include": ["us"]},
        "oldid": "amenity/fast_food|Back Yard Burgers",
        "tags": {
          "amenity": "fast_food",
          "brand": "Back Yard Burgers",
          "brand:wikidata": "Q2878376",
          "brand:wikipedia": "en:Back Yard Burgers",
          "cuisine": "burger",
          "name": "Back Yard Burgers",
          "takeaway": "yes"
        }
      },
      {
        "displayName": "Baja Fresh",
        "id": "bajafresh-bc6fd8",
        "locationSet": {"include": ["us"]},
        "oldid": "amenity/fast_food|Baja Fresh",
        "tags": {
          "amenity": "fast_food",
          "brand": "Baja Fresh",
          "brand:wikidata": "Q2880019",
          "brand:wikipedia": "en:Baja Fresh",
          "cuisine": "mexican",
          "name": "Baja Fresh",
          "takeaway": "yes"
        }
      },
      {
        "displayName": "Barburrito",
        "id": "barburrito-ac6a6a",
        "locationSet": {"include": ["gb"]},
        "oldid": "amenity/fast_food|Barburrito",
        "tags": {
          "amenity": "fast_food",
          "brand": "Barburrito",
          "brand:wikidata": "Q16983668",
          "brand:wikipedia": "en:Barburrito",
          "cuisine": "mexican",
          "name": "Barburrito",
          "takeaway": "yes"
        }
      },
      {
        "displayName": "Bembos",
        "id": "bembos-9b77b2",
        "locationSet": {"include": ["pe"]},
        "oldid": "amenity/fast_food|Bembos",
        "tags": {
          "amenity": "fast_food",
          "brand": "Bembos",
          "brand:wikidata": "Q466971",
          "brand:wikipedia": "en:Bembos",
          "cuisine": "burger",
          "name": "Bembos",
          "takeaway": "yes"
        }
      },
      {
        "displayName": "Big Fernand",
        "id": "bigfernand-e0ebf9",
        "locationSet": {
          "include": ["ae", "fr", "lu"]
        },
        "oldid": "amenity/fast_food|Big Fernand",
        "tags": {
          "amenity": "fast_food",
          "brand": "Big Fernand",
          "brand:wikidata": "Q19521346",
          "brand:wikipedia": "fr:Big Fernand",
          "cuisine": "burger",
          "name": "Big Fernand",
          "takeaway": "yes"
        }
      },
      {
        "displayName": "Biscuitville",
        "id": "biscuitville-bc6fd8",
        "locationSet": {"include": ["us"]},
        "oldid": "amenity/fast_food|Biscuitville",
        "tags": {
          "amenity": "fast_food",
          "brand": "Biscuitville",
          "brand:wikidata": "Q4917274",
          "brand:wikipedia": "en:Biscuitville",
          "cuisine": "american;breakfast",
          "name": "Biscuitville",
          "takeaway": "yes"
        }
      },
      {
        "displayName": "Blackjack Pizza",
        "id": "blackjackpizza-bc6fd8",
        "locationSet": {"include": ["us"]},
        "oldid": "amenity/fast_food|Blackjack Pizza",
        "tags": {
          "amenity": "fast_food",
          "brand": "Blackjack Pizza",
          "brand:wikidata": "Q4923061",
          "brand:wikipedia": "en:Blackjack Pizza",
          "cuisine": "pizza",
          "name": "Blackjack Pizza",
          "takeaway": "yes"
        }
      },
      {
        "displayName": "Blimpie",
        "id": "blimpie-bc6fd8",
        "locationSet": {"include": ["us"]},
        "oldid": "amenity/fast_food|Blimpie",
        "tags": {
          "amenity": "fast_food",
          "brand": "Blimpie",
          "brand:wikidata": "Q4926479",
          "brand:wikipedia": "en:Blimpie",
          "cuisine": "sandwich",
          "name": "Blimpie",
          "takeaway": "yes"
        }
      },
      {
        "displayName": "Bob's",
        "id": "bobs-6d48f3",
        "locationSet": {
          "include": ["ao", "br", "cl", "pt"]
        },
        "oldid": "amenity/fast_food|Bob's",
        "tags": {
          "amenity": "fast_food",
          "brand": "Bob's",
          "brand:wikidata": "Q1392113",
          "brand:wikipedia": "en:Bob's",
          "cuisine": "burger",
          "name": "Bob's",
          "takeaway": "yes"
        }
      },
      {
        "displayName": "Bojangles'",
        "id": "bojangles-bc6fd8",
        "locationSet": {"include": ["us"]},
        "oldid": "amenity/fast_food|Bojangles'",
        "tags": {
          "amenity": "fast_food",
          "brand": "Bojangles'",
          "brand:wikidata": "Q891163",
          "brand:wikipedia": "en:Bojangles' Famous Chicken 'n Biscuits",
          "cuisine": "chicken",
          "name": "Bojangles'",
          "official_name": "Bojangles' Famous Chicken 'n Biscuits",
          "takeaway": "yes"
        }
      },
      {
        "displayName": "Booster Juice",
        "id": "boosterjuice-1a4275",
        "locationSet": {"include": ["ca"]},
        "matchTags": ["shop/beverages"],
        "oldid": "amenity/fast_food|Booster Juice",
        "tags": {
          "amenity": "fast_food",
          "brand": "Booster Juice",
          "brand:wikidata": "Q4943796",
          "brand:wikipedia": "en:Booster Juice",
          "cuisine": "juice",
          "name": "Booster Juice",
          "takeaway": "yes"
        }
      },
      {
        "displayName": "Boston Market",
        "id": "bostonmarket-bc6fd8",
        "locationSet": {"include": ["us"]},
        "oldid": "amenity/fast_food|Boston Market",
        "tags": {
          "amenity": "fast_food",
          "brand": "Boston Market",
          "brand:wikidata": "Q603617",
          "brand:wikipedia": "en:Boston Market",
          "cuisine": "american;chicken",
          "name": "Boston Market",
          "takeaway": "yes"
        }
      },
      {
        "displayName": "Braum's",
        "id": "braums-bc6fd8",
        "locationSet": {"include": ["us"]},
        "matchTags": ["shop/dairy"],
        "oldid": "amenity/fast_food|Braum's",
        "tags": {
          "amenity": "fast_food",
          "brand": "Braum's",
          "brand:wikidata": "Q4958263",
          "brand:wikipedia": "en:Braum's",
          "cuisine": "ice_cream",
          "name": "Braum's",
          "shop": "dairy",
          "takeaway": "yes"
        }
      },
      {
        "displayName": "Bruegger's Bagels",
        "id": "brueggersbagels-bc6fd8",
        "locationSet": {"include": ["us"]},
        "matchNames": [
          "breuger's",
          "breugger's",
          "bruger's",
          "brugger's"
        ],
        "oldid": "amenity/fast_food|Bruegger's Bagels",
        "tags": {
          "amenity": "fast_food",
          "brand": "Bruegger's Bagels",
          "brand:wikidata": "Q4978656",
          "brand:wikipedia": "en:Bruegger's",
          "cuisine": "bagel",
          "name": "Bruegger's Bagels",
          "short_name": "Bruegger's",
          "takeaway": "yes"
        }
      },
      {
        "displayName": "Buona",
        "id": "buona-bc6fd8",
        "locationSet": {"include": ["us"]},
        "oldid": "amenity/fast_food|Buona",
        "tags": {
          "amenity": "fast_food",
          "brand": "Buona",
          "brand:wikidata": "Q23461372",
          "brand:wikipedia": "en:Buona",
          "cuisine": "italian",
          "name": "Buona",
          "takeaway": "yes"
        }
      },
      {
        "displayName": "Burger Fuel",
        "id": "burgerfuel-4b1779",
        "locationSet": {
          "include": [
            "ae",
            "iq",
            "nz",
            "sa",
            "us"
          ]
        },
        "oldid": "amenity/fast_food|Burger Fuel",
        "tags": {
          "amenity": "fast_food",
          "brand": "Burger Fuel",
          "brand:wikidata": "Q4998537",
          "brand:wikipedia": "en:Burger Fuel",
          "cuisine": "burger",
          "name": "Burger Fuel",
          "takeaway": "yes"
        }
      },
      {
        "displayName": "Burger King",
        "id": "burgerking-45fdb7",
        "locationSet": {"include": ["001"]},
        "matchNames": ["burguer king"],
        "oldid": "amenity/fast_food|Burger King",
        "tags": {
          "amenity": "fast_food",
          "brand": "Burger King",
          "brand:wikidata": "Q177054",
          "brand:wikipedia": "en:Burger King",
          "cuisine": "burger",
          "name": "Burger King",
          "takeaway": "yes"
        }
      },
      {
        "displayName": "Burger Machine",
        "id": "burgermachine-a76be0",
        "locationSet": {"include": ["ph"]},
        "oldid": "amenity/fast_food|Burger Machine",
        "tags": {
          "amenity": "fast_food",
          "brand": "Burger Machine",
          "brand:wikidata": "Q4998549",
          "brand:wikipedia": "en:Burger Machine",
          "cuisine": "burger",
          "name": "Burger Machine",
          "takeaway": "yes"
        }
      },
      {
        "displayName": "BurgerFi",
        "id": "burgerfi-bc6fd8",
        "locationSet": {"include": ["us"]},
        "oldid": "amenity/fast_food|BurgerFi",
        "tags": {
          "amenity": "fast_food",
          "brand": "BurgerFi",
          "brand:wikidata": "Q39045496",
          "brand:wikipedia": "en:BurgerFi",
          "cuisine": "burger",
          "name": "BurgerFi",
          "takeaway": "yes"
        }
      },
      {
        "displayName": "Burgerim",
        "id": "burgerim-a52fd8",
        "locationSet": {"include": ["il"]},
        "oldid": "amenity/fast_food|Burgerim",
        "tags": {
          "amenity": "fast_food",
          "brand": "Burgerim",
          "brand:en": "Burgerim",
          "brand:he": "בורגרים",
          "brand:wikidata": "Q64760354",
          "cuisine": "burger",
          "name": "Burgerim",
          "name:en": "Burgerim",
          "name:he": "בורגרים",
          "takeaway": "yes"
        }
      },
      {
        "displayName": "Burgers Bar",
        "id": "burgersbar-a52fd8",
        "locationSet": {"include": ["il"]},
        "oldid": "amenity/fast_food|Burgers Bar",
        "tags": {
          "amenity": "fast_food",
          "brand": "Burgers Bar",
          "brand:en": "Burgers Bar",
          "brand:he": "בורגרס בר",
          "brand:wikidata": "Q64760337",
          "cuisine": "burger",
          "diet:kosher": "yes",
          "name": "Burgers Bar",
          "name:en": "Burgers Bar",
          "name:he": "בורגרס בר",
          "takeaway": "yes"
        }
      },
      {
        "displayName": "Burgerville",
        "id": "burgerville-bc6fd8",
        "locationSet": {"include": ["us"]},
        "oldid": "amenity/fast_food|Burgerville",
        "tags": {
          "amenity": "fast_food",
          "brand": "Burgerville",
          "brand:wikidata": "Q4998570",
          "brand:wikipedia": "en:Burgerville",
          "cuisine": "burger",
          "name": "Burgerville",
          "takeaway": "yes"
        }
      },
      {
        "displayName": "California Fish Grill",
        "id": "californiafishgrill-bc6fd8",
        "locationSet": {"include": ["us"]},
        "oldid": "amenity/fast_food|California Fish Grill",
        "tags": {
          "amenity": "fast_food",
          "brand": "California Fish Grill",
          "brand:wikidata": "Q55606435",
          "brand:wikipedia": "en:California Fish Grill",
          "cuisine": "seafood",
          "name": "California Fish Grill",
          "takeaway": "yes"
        }
      },
      {
        "displayName": "Captain D's",
        "id": "captainds-bc6fd8",
        "locationSet": {"include": ["us"]},
        "oldid": "amenity/fast_food|Captain D's",
        "tags": {
          "amenity": "fast_food",
          "brand": "Captain D's",
          "brand:wikidata": "Q5036616",
          "brand:wikipedia": "en:Captain D's",
          "cuisine": "seafood",
          "name": "Captain D's",
          "takeaway": "yes"
        }
      },
      {
        "displayName": "Carl's Jr.",
        "id": "carlsjr-45fdb7",
        "locationSet": {"include": ["001"]},
        "oldid": "amenity/fast_food|Carl's Jr.",
        "tags": {
          "amenity": "fast_food",
          "brand": "Carl's Jr.",
          "brand:wikidata": "Q1043486",
          "brand:wikipedia": "en:Carl's Jr.",
          "cuisine": "burger",
          "name": "Carl's Jr.",
          "takeaway": "yes"
        }
      },
      {
        "displayName": "Charleys Philly Steaks",
        "id": "charleysphillysteaks-bc6fd8",
        "locationSet": {"include": ["us"]},
        "matchNames": ["charleys"],
        "oldid": "amenity/fast_food|Charleys Philly Steaks",
        "tags": {
          "amenity": "fast_food",
          "brand": "Charleys Philly Steaks",
          "brand:wikidata": "Q1066777",
          "brand:wikipedia": "en:Charleys Philly Steaks",
          "cuisine": "sandwich",
          "name": "Charleys Philly Steaks",
          "takeaway": "yes"
        }
      },
      {
        "displayName": "Checkers",
        "id": "checkers-45fdb7",
        "locationSet": {"include": ["001"]},
        "nomatch": ["shop/supermarket|Checkers"],
        "oldid": "amenity/fast_food|Checkers",
        "tags": {
          "amenity": "fast_food",
          "brand": "Checkers",
          "brand:wikidata": "Q63919315",
          "cuisine": "burger",
          "name": "Checkers",
          "takeaway": "yes"
        }
      },
      {
        "displayName": "Chester's",
        "id": "chesters-bc6fd8",
        "locationSet": {"include": ["us"]},
        "matchNames": ["chesters chicken"],
        "oldid": "amenity/fast_food|Chester's",
        "tags": {
          "amenity": "fast_food",
          "brand": "Chester's",
          "brand:wikidata": "Q5093401",
          "brand:wikipedia": "en:Chester's International",
          "cuisine": "chicken",
          "name": "Chester's",
          "takeaway": "yes"
        }
      },
      {
        "displayName": "Chick-fil-A",
        "id": "chickfila-bc6fd8",
        "locationSet": {"include": ["us"]},
        "oldid": "amenity/fast_food|Chick-fil-A",
        "tags": {
          "amenity": "fast_food",
          "brand": "Chick-fil-A",
          "brand:wikidata": "Q491516",
          "brand:wikipedia": "en:Chick-fil-A",
          "cuisine": "chicken",
          "name": "Chick-fil-A",
          "takeaway": "yes"
        }
      },
      {
        "displayName": "Chicken Express",
        "id": "chickenexpress-bc6fd8",
        "locationSet": {"include": ["us"]},
        "oldid": "amenity/fast_food|Chicken Express",
        "tags": {
          "amenity": "fast_food",
          "brand": "Chicken Express",
          "brand:wikidata": "Q5096235",
          "brand:wikipedia": "en:Chicken Express",
          "cuisine": "chicken",
          "name": "Chicken Express",
          "takeaway": "yes"
        }
      },
      {
        "displayName": "Chicken Treat",
        "id": "chickentreat-bc6fd8",
        "locationSet": {"include": ["us"]},
        "oldid": "amenity/fast_food|Chicken Treat",
        "tags": {
          "amenity": "fast_food",
          "brand": "Chicken Treat",
          "brand:wikidata": "Q5096274",
          "brand:wikipedia": "en:Chicken Treat",
          "cuisine": "chicken",
          "name": "Chicken Treat",
          "takeaway": "yes"
        }
      },
      {
        "displayName": "China Garden",
        "id": "chinagarden-5236ea",
        "locationSet": {"include": ["gb", "us"]},
        "oldid": "amenity/fast_food|China Garden",
        "tags": {
          "amenity": "fast_food",
          "brand": "China Garden",
          "cuisine": "chinese",
          "name": "China Garden",
          "takeaway": "yes"
        }
      },
      {
        "displayName": "China Wok",
        "id": "chinawok-45fdb7",
        "locationSet": {"include": ["001"]},
        "oldid": "amenity/fast_food|China Wok",
        "tags": {
          "amenity": "fast_food",
          "brand": "China Wok",
          "brand:wikidata": "Q5766542",
          "brand:wikipedia": "es:China Wok",
          "cuisine": "chinese",
          "name": "China Wok",
          "takeaway": "yes"
        }
      },
      {
        "displayName": "Chipotle",
        "id": "chipotle-45fdb7",
        "locationSet": {"include": ["001"]},
        "oldid": "amenity/fast_food|Chipotle",
        "tags": {
          "amenity": "fast_food",
          "brand": "Chipotle",
          "brand:wikidata": "Q465751",
          "brand:wikipedia": "en:Chipotle Mexican Grill",
          "cuisine": "mexican",
          "name": "Chipotle",
          "official_name": "Chipotle Mexican Grill",
          "takeaway": "yes"
        }
      },
      {
        "displayName": "Chopt",
        "id": "chopt-bc6fd8",
        "locationSet": {"include": ["us"]},
        "oldid": "amenity/fast_food|Chopt",
        "tags": {
          "amenity": "fast_food",
          "brand": "Chopt",
          "brand:wikidata": "Q17509305",
          "brand:wikipedia": "en:Chopt",
          "cuisine": "salad",
          "name": "Chopt",
          "takeaway": "yes"
        }
      },
      {
        "displayName": "Chowking",
        "id": "chowking-a76be0",
        "locationSet": {"include": ["ph"]},
        "oldid": "amenity/fast_food|Chowking",
        "tags": {
          "amenity": "fast_food",
          "brand": "Chowking",
          "brand:wikidata": "Q1076816",
          "brand:wikipedia": "en:Chowking",
          "cuisine": "asian",
          "name": "Chowking",
          "takeaway": "yes"
        }
      },
      {
        "displayName": "Church's Chicken",
        "id": "churchschicken-45fdb7",
        "locationSet": {"include": ["001"]},
        "oldid": "amenity/fast_food|Church's Chicken",
        "tags": {
          "amenity": "fast_food",
          "brand": "Church's Chicken",
          "brand:wikidata": "Q1089932",
          "brand:wikipedia": "en:Church's Chicken",
          "cuisine": "chicken",
          "name": "Church's Chicken",
          "takeaway": "yes"
        }
      },
      {
        "displayName": "Cinnabon",
        "id": "cinnabon-45fdb7",
        "locationSet": {"include": ["001"]},
        "matchTags": ["shop/confectionery"],
        "oldid": "amenity/fast_food|Cinnabon",
        "tags": {
          "amenity": "fast_food",
          "brand": "Cinnabon",
          "brand:wikidata": "Q1092539",
          "brand:wikipedia": "en:Cinnabon",
          "cuisine": "dessert",
          "name": "Cinnabon",
          "takeaway": "yes"
        }
      },
      {
        "displayName": "CoCo壱番屋",
        "id": "coco壱番屋-107248",
        "locationSet": {"include": ["cn", "jp"]},
        "oldid": "amenity/fast_food|CoCo壱番屋",
        "tags": {
          "amenity": "fast_food",
          "brand": "CoCo壱番屋",
          "brand:en": "CoCo Ichibanya",
          "brand:ja": "CoCo壱番屋",
          "brand:wikidata": "Q5986105",
          "brand:wikipedia": "en:Ichibanya",
          "cuisine": "japanese",
          "name": "CoCo壱番屋",
          "name:en": "CoCo Ichibanya",
          "name:ja": "CoCo壱番屋",
          "takeaway": "yes"
        }
      },
      {
        "displayName": "Cook Out",
        "id": "cookout-bc6fd8",
        "locationSet": {"include": ["us"]},
        "oldid": "amenity/fast_food|Cook Out",
        "tags": {
          "amenity": "fast_food",
          "brand": "Cook Out",
          "brand:wikidata": "Q5166992",
          "brand:wikipedia": "en:Cook Out (restaurant)",
          "cuisine": "american",
          "name": "Cook Out",
          "takeaway": "yes"
        }
      },
      {
        "displayName": "Così",
        "id": "cosi-bc6fd8",
        "locationSet": {"include": ["us"]},
        "oldid": "amenity/fast_food|Così",
        "tags": {
          "amenity": "fast_food",
          "brand": "Così",
          "brand:wikidata": "Q5175243",
          "brand:wikipedia": "en:Così (restaurant)",
          "cuisine": "sandwich",
          "name": "Così",
          "takeaway": "yes"
        }
      },
      {
        "displayName": "Crust",
        "id": "crust-111666",
        "locationSet": {"include": ["au"]},
        "oldid": "amenity/fast_food|Crust",
        "tags": {
          "amenity": "fast_food",
          "brand": "Crust",
          "cuisine": "pizza",
          "name": "Crust",
          "official_name": "Crust Gourmet Pizza Bar",
          "takeaway": "yes"
        }
      },
      {
        "displayName": "Cultures",
        "id": "cultures-1a4275",
        "locationSet": {"include": ["ca"]},
        "oldid": "amenity/fast_food|Cultures",
        "tags": {
          "amenity": "fast_food",
          "brand": "Cultures",
          "brand:wikidata": "Q64876898",
          "cuisine": "sandwich",
          "name": "Cultures",
          "takeaway": "yes"
        }
      },
      {
        "displayName": "Culver's",
        "id": "culvers-bc6fd8",
        "locationSet": {"include": ["us"]},
        "oldid": "amenity/fast_food|Culver's",
        "tags": {
          "amenity": "fast_food",
          "brand": "Culver's",
          "brand:wikidata": "Q1143589",
          "brand:wikipedia": "en:Culver's",
          "cuisine": "burger",
          "name": "Culver's",
          "takeaway": "yes"
        }
      },
      {
        "displayName": "Cœur de Blé",
        "id": "coeurdeble-4e4abd",
        "locationSet": {"include": ["fr"]},
        "oldid": "amenity/fast_food|Cœur de Blé",
        "tags": {
          "amenity": "fast_food",
          "brand": "Cœur de Blé",
          "brand:en": "Coeur de Blé",
          "brand:fr": "Cœur de Blé",
          "brand:wikidata": "Q95745666",
          "cuisine": "sandwich",
          "name": "Cœur de Blé",
          "name:en": "Coeur de Blé",
          "name:fr": "Cœur de Blé",
          "takeaway": "yes"
        }
      },
      {
        "displayName": "DQ Grill & Chill",
        "id": "dqgrillandchill-597726",
        "locationSet": {"include": ["ca", "us"]},
        "matchNames": [
          "dairy queen chill & grill"
        ],
        "nomatch": [
          "amenity/fast_food|Dairy Queen"
        ],
        "oldid": "amenity/fast_food|DQ Grill & Chill",
        "tags": {
          "amenity": "fast_food",
          "brand": "DQ Grill & Chill",
          "brand:wikidata": "Q1141226",
          "brand:wikipedia": "en:Dairy Queen",
          "cuisine": "ice_cream;burger",
          "name": "DQ Grill & Chill",
          "takeaway": "yes"
        }
      },
      {
        "displayName": "Dairy Queen",
        "id": "dairyqueen-45fdb7",
        "locationSet": {"include": ["001"]},
        "matchNames": ["dq"],
        "nomatch": [
          "amenity/fast_food|DQ Grill & Chill"
        ],
        "oldid": "amenity/fast_food|Dairy Queen",
        "tags": {
          "amenity": "fast_food",
          "brand": "Dairy Queen",
          "brand:wikidata": "Q1141226",
          "brand:wikipedia": "en:Dairy Queen",
          "cuisine": "ice_cream;burger",
          "name": "Dairy Queen",
          "takeaway": "yes"
        }
      },
      {
        "displayName": "Daylight Donuts",
        "id": "daylightdonuts-bc6fd8",
        "locationSet": {"include": ["us"]},
        "oldid": "amenity/fast_food|Daylight Donuts",
        "tags": {
          "amenity": "fast_food",
          "brand": "Daylight Donuts",
          "brand:wikidata": "Q48970508",
          "brand:wikipedia": "en:Daylight Donuts",
          "cuisine": "donut",
          "name": "Daylight Donuts",
          "takeaway": "yes"
        }
      },
      {
        "displayName": "Debonairs Pizza",
        "id": "debonairspizza-657ac0",
        "locationSet": {
          "include": [
            "ae",
            "bw",
            "ke",
            "ls",
            "mu",
            "mw",
            "mz",
            "na",
            "ng",
            "sd",
            "ss",
            "sz",
            "za",
            "zm"
          ]
        },
        "matchNames": ["debonairs"],
        "oldid": "amenity/fast_food|Debonairs Pizza",
        "tags": {
          "amenity": "fast_food",
          "brand": "Debonairs Pizza",
          "brand:wikidata": "Q65079407",
          "brand:wikipedia": "en:Debonairs Pizza",
          "cuisine": "pizza",
          "name": "Debonairs Pizza",
          "takeaway": "yes"
        }
      },
      {
        "displayName": "Del Taco",
        "id": "deltaco-bc6fd8",
        "locationSet": {"include": ["us"]},
        "oldid": "amenity/fast_food|Del Taco",
        "tags": {
          "amenity": "fast_food",
          "brand": "Del Taco",
          "brand:wikidata": "Q1183818",
          "brand:wikipedia": "en:Del Taco",
          "cuisine": "mexican",
          "name": "Del Taco",
          "takeaway": "yes"
        }
      },
      {
        "displayName": "Dig Inn",
        "id": "diginn-bc6fd8",
        "locationSet": {"include": ["us"]},
        "oldid": "amenity/fast_food|Dig Inn",
        "tags": {
          "amenity": "fast_food",
          "brand": "Dig Inn",
          "brand:wikidata": "Q28226241",
          "brand:wikipedia": "en:Dig Inn",
          "cuisine": "regional",
          "name": "Dig Inn",
          "takeaway": "yes"
        }
      },
      {
        "displayName": "Dixy Chicken",
        "id": "dixychicken-fde4c1",
        "locationSet": {
          "include": [
            "bn",
            "gb",
            "in",
            "no",
            "nz",
            "pk",
            "sa",
            "sy",
            "us"
          ]
        },
        "oldid": "amenity/fast_food|Dixy Chicken",
        "tags": {
          "amenity": "fast_food",
          "brand": "Dixy Chicken",
          "brand:wikidata": "Q5285003",
          "brand:wikipedia": "en:Dixy Chicken",
          "cuisine": "chicken",
          "diet:halal": "yes",
          "name": "Dixy Chicken",
          "takeaway": "yes"
        }
      },
      {
        "displayName": "Domino's",
        "id": "dominos-45fdb7",
        "locationSet": {"include": ["001"]},
        "matchNames": ["dominos pizza"],
        "oldid": "amenity/fast_food|Domino's",
        "tags": {
          "amenity": "fast_food",
          "brand": "Domino's",
          "brand:wikidata": "Q839466",
          "brand:wikipedia": "en:Domino's Pizza",
          "cuisine": "pizza",
          "name": "Domino's",
          "takeaway": "yes"
        }
      },
      {
        "displayName": "Donut King",
        "id": "donutking-111666",
        "locationSet": {"include": ["au"]},
        "oldid": "amenity/fast_food|Donut King",
        "tags": {
          "amenity": "fast_food",
          "brand": "Donut King",
          "brand:wikidata": "Q5296921",
          "brand:wikipedia": "en:Donut King",
          "cuisine": "donut;coffee_shop",
          "name": "Donut King",
          "takeaway": "yes"
        }
      },
      {
        "displayName": "Dunkin' Donuts",
        "id": "dunkindonuts-45fdb7",
        "locationSet": {"include": ["001"]},
        "matchNames": ["dunkin doughnuts"],
        "oldid": "amenity/fast_food|Dunkin' Donuts",
        "tags": {
          "amenity": "fast_food",
          "brand": "Dunkin' Donuts",
          "brand:wikidata": "Q847743",
          "brand:wikipedia": "en:Dunkin' Donuts",
          "cuisine": "donut;coffee_shop",
          "name": "Dunkin' Donuts",
          "takeaway": "yes"
        }
      },
      {
        "displayName": "EAT.",
        "id": "eat-ac6a6a",
        "locationSet": {"include": ["gb"]},
        "oldid": "amenity/fast_food|EAT.",
        "tags": {
          "amenity": "fast_food",
          "brand": "EAT.",
          "brand:wikidata": "Q5331219",
          "brand:wikipedia": "en:Eat (restaurant)",
          "cuisine": "sandwich",
          "name": "EAT.",
          "takeaway": "yes"
        }
      },
      {
        "displayName": "East of Chicago Pizza",
        "id": "eastofchicagopizza-bc6fd8",
        "locationSet": {"include": ["us"]},
        "oldid": "amenity/fast_food|East of Chicago Pizza",
        "tags": {
          "amenity": "fast_food",
          "brand": "East of Chicago Pizza",
          "brand:wikidata": "Q5329751",
          "brand:wikipedia": "en:East of Chicago Pizza",
          "cuisine": "pizza",
          "name": "East of Chicago Pizza",
          "takeaway": "yes"
        }
      },
      {
        "displayName": "Einstein Bros. Bagels",
        "id": "einsteinbrosbagels-bc6fd8",
        "locationSet": {"include": ["us"]},
        "matchNames": [
          "einstein bros",
          "einstein brothers"
        ],
        "oldid": "amenity/fast_food|Einstein Bros. Bagels",
        "tags": {
          "alt_name": "Einstein Brothers Bagels",
          "amenity": "fast_food",
          "brand": "Einstein Bros. Bagels",
          "brand:wikidata": "Q5349788",
          "brand:wikipedia": "en:Einstein Bros. Bagels",
          "cuisine": "bagel",
          "name": "Einstein Bros. Bagels",
          "takeaway": "yes"
        }
      },
      {
        "displayName": "El Pollo Loco",
        "id": "elpolloloco-150792",
        "locationSet": {"include": ["mx", "us"]},
        "oldid": "amenity/fast_food|El Pollo Loco",
        "tags": {
          "amenity": "fast_food",
          "brand": "El Pollo Loco",
          "brand:wikidata": "Q2353849",
          "brand:wikipedia": "en:El Pollo Loco",
          "cuisine": "mexican",
          "name": "El Pollo Loco",
          "takeaway": "yes"
        }
      },
      {
        "displayName": "Elevation Burger",
        "id": "elevationburger-e2f0e4",
        "locationSet": {
          "include": ["bh", "kw", "qa", "us"]
        },
        "oldid": "amenity/fast_food|Elevation Burger",
        "tags": {
          "amenity": "fast_food",
          "brand": "Elevation Burger",
          "brand:wikidata": "Q15291092",
          "brand:wikipedia": "en:Elevation Burger",
          "cuisine": "burger",
          "name": "Elevation Burger",
          "takeaway": "yes"
        }
      },
      {
        "displayName": "Es Teler 77",
        "id": "esteler77-45fdb7",
        "locationSet": {"include": ["001"]},
        "oldid": "amenity/fast_food|Es Teler 77",
        "tags": {
          "amenity": "fast_food",
          "brand": "Es Teler 77",
          "brand:wikidata": "Q5396630",
          "cuisine": "indonesian",
          "name": "Es Teler 77",
          "takeaway": "yes"
        }
      },
      {
        "displayName": "Everest",
        "id": "everest-d9fbdc",
        "locationSet": {"include": ["gr"]},
        "oldid": "amenity/fast_food|Everest",
        "tags": {
          "amenity": "fast_food",
          "brand": "Everest",
          "brand:wikidata": "Q62273299",
          "cuisine": "burger",
          "name": "Everest",
          "takeaway": "yes"
        }
      },
      {
        "displayName": "Extreme Pita",
        "id": "extremepita-597726",
        "locationSet": {"include": ["ca", "us"]},
        "oldid": "amenity/fast_food|Extreme Pita",
        "tags": {
          "amenity": "fast_food",
          "brand": "Extreme Pita",
          "brand:wikidata": "Q5422367",
          "brand:wikipedia": "en:Extreme Pita",
          "cuisine": "pita",
          "name": "Extreme Pita",
          "takeaway": "yes"
        }
      },
      {
        "displayName": "Extreme Pizza",
        "id": "extremepizza-45fdb7",
        "locationSet": {"include": ["001"]},
        "oldid": "amenity/fast_food|Extreme Pizza",
        "tags": {
          "amenity": "fast_food",
          "brand": "Extreme Pizza",
          "brand:wikidata": "Q5422364",
          "brand:wikipedia": "en:Extreme Pizza",
          "cuisine": "pizza",
          "name": "Extreme Pizza",
          "takeaway": "yes"
        }
      },
      {
        "displayName": "Fazoli's",
        "id": "fazolis-bc6fd8",
        "locationSet": {"include": ["us"]},
        "oldid": "amenity/fast_food|Fazoli's",
        "tags": {
          "amenity": "fast_food",
          "brand": "Fazoli's",
          "brand:wikidata": "Q1399195",
          "brand:wikipedia": "en:Fazoli's",
          "cuisine": "italian",
          "name": "Fazoli's",
          "takeaway": "yes"
        }
      },
      {
        "displayName": "Febo",
        "id": "febo-66df72",
        "locationSet": {"include": ["nl"]},
        "oldid": "amenity/fast_food|Febo",
        "tags": {
          "amenity": "fast_food",
          "brand": "Febo",
          "brand:wikidata": "Q582245",
          "brand:wikipedia": "nl:Febo (snackbar)",
          "cuisine": "burger",
          "name": "Febo",
          "takeaway": "yes"
        }
      },
      {
        "displayName": "Figaro's Pizza",
        "id": "figarospizza-45fdb7",
        "locationSet": {"include": ["001"]},
        "oldid": "amenity/fast_food|Figaro's Pizza",
        "tags": {
          "amenity": "fast_food",
          "brand": "Figaro's Pizza",
          "brand:wikidata": "Q48802600",
          "brand:wikipedia": "en:Figaro's Pizza",
          "cuisine": "pizza",
          "name": "Figaro's Pizza",
          "takeaway": "yes"
        }
      },
      {
        "displayName": "Firehouse Subs",
        "id": "firehousesubs-597726",
        "locationSet": {"include": ["ca", "us"]},
        "oldid": "amenity/fast_food|Firehouse Subs",
        "tags": {
          "amenity": "fast_food",
          "brand": "Firehouse Subs",
          "brand:wikidata": "Q5451873",
          "brand:wikipedia": "en:Firehouse Subs",
          "cuisine": "sandwich",
          "name": "Firehouse Subs",
          "takeaway": "yes"
        }
      },
      {
        "displayName": "Five Guys",
        "id": "fiveguys-45fdb7",
        "locationSet": {"include": ["001"]},
        "oldid": "amenity/fast_food|Five Guys",
        "tags": {
          "amenity": "fast_food",
          "brand": "Five Guys",
          "brand:wikidata": "Q1131810",
          "brand:wikipedia": "en:Five Guys",
          "cuisine": "burger",
          "name": "Five Guys",
          "official_name": "Five Guys Burgers and Fries",
          "takeaway": "yes"
        }
      },
      {
        "displayName": "Freddy's",
        "id": "freddys-bc6fd8",
        "locationSet": {"include": ["us"]},
        "oldid": "amenity/fast_food|Freddy's",
        "tags": {
          "amenity": "fast_food",
          "brand": "Freddy's",
          "brand:wikidata": "Q5496837",
          "brand:wikipedia": "en:Freddy's Frozen Custard & Steakburgers",
          "cuisine": "ice_cream;burger",
          "name": "Freddy's",
          "official_name": "Freddys Frozen Custard & Steakburgers",
          "takeaway": "yes"
        }
      },
      {
        "displayName": "Freebirds",
        "id": "freebirds-bc6fd8",
        "locationSet": {"include": ["us"]},
        "oldid": "amenity/fast_food|Freebirds",
        "tags": {
          "amenity": "fast_food",
          "brand": "Freebirds",
          "brand:wikidata": "Q5500367",
          "brand:wikipedia": "en:Freebirds World Burrito",
          "cuisine": "mexican",
          "name": "Freebirds",
          "takeaway": "yes"
        }
      },
      {
        "displayName": "Freshslice Pizza",
        "id": "freshslicepizza-1a4275",
        "locationSet": {"include": ["ca"]},
        "oldid": "amenity/fast_food|Freshslice Pizza",
        "tags": {
          "amenity": "fast_food",
          "brand": "Freshslice Pizza",
          "brand:wikidata": "Q5503082",
          "brand:wikipedia": "en:Freshslice Pizza",
          "cuisine": "pizza",
          "name": "Freshslice Pizza",
          "takeaway": "yes"
        }
      },
      {
        "displayName": "Freshëns",
        "id": "freshens-bc6fd8",
        "locationSet": {"include": ["us"]},
        "oldid": "amenity/fast_food|Freshëns",
        "tags": {
          "amenity": "fast_food",
          "brand": "Freshëns",
          "brand:wikidata": "Q88353412",
          "cuisine": "juice;salad",
          "name": "Freshëns",
          "takeaway": "yes"
        }
      },
      {
        "displayName": "Frisby",
        "id": "frisby-aca5ec",
        "locationSet": {"include": ["co"]},
        "oldid": "amenity/fast_food|Frisby",
        "tags": {
          "amenity": "fast_food",
          "brand": "Frisby",
          "brand:wikidata": "Q7225732",
          "brand:wikipedia": "en:Frisby (restaurant)",
          "cuisine": "chicken",
          "delivery": "yes",
          "name": "Frisby",
          "takeaway": "yes"
        }
      },
      {
        "displayName": "Froots",
        "id": "froots-45fdb7",
        "locationSet": {"include": ["001"]},
        "oldid": "amenity/fast_food|Froots",
        "tags": {
          "amenity": "fast_food",
          "brand": "Froots",
          "brand:wikidata": "Q96203860",
          "cuisine": "juice;salad",
          "name": "Froots",
          "takeaway": "yes"
        }
      },
      {
        "displayName": "Gabriel Pizza",
        "id": "gabrielpizza-1a4275",
        "locationSet": {"include": ["ca"]},
        "oldid": "amenity/fast_food|Gabriel Pizza",
        "tags": {
          "amenity": "fast_food",
          "brand": "Gabriel Pizza",
          "brand:wikidata": "Q5515791",
          "brand:wikipedia": "en:Gabriel Pizza",
          "cuisine": "pizza",
          "name": "Gabriel Pizza",
          "takeaway": "yes"
        }
      },
      {
        "displayName": "Gino's Pizza & Spaghetti House (West Virginia)",
        "id": "ginospizzaandspaghettihouse-bc6fd8",
        "locationSet": {"include": ["us"]},
        "oldid": "amenity/fast_food|Gino's Pizza & Spaghetti House~(West Virginia)",
        "tags": {
          "amenity": "fast_food",
          "brand": "Gino's Pizza & Spaghetti House",
          "brand:wikidata": "Q5563205",
          "brand:wikipedia": "en:Gino's Pizza and Spaghetti",
          "cuisine": "pizza",
          "name": "Gino's Pizza & Spaghetti House",
          "takeaway": "yes"
        }
      },
      {
        "displayName": "Gino's Pizza (Canada)",
        "id": "ginospizza-1a4275",
        "locationSet": {"include": ["ca"]},
        "oldid": "amenity/fast_food|Gino's Pizza~(Canada)",
        "tags": {
          "amenity": "fast_food",
          "brand": "Gino's Pizza",
          "brand:wikidata": "Q84029134",
          "cuisine": "pizza",
          "name": "Gino's Pizza",
          "takeaway": "yes"
        }
      },
      {
        "displayName": "Gold Star Chili",
        "id": "goldstarchili-bc6fd8",
        "locationSet": {"include": ["us"]},
        "oldid": "amenity/fast_food|Gold Star Chili",
        "tags": {
          "alt_name": "Gold Star",
          "amenity": "fast_food",
          "brand": "Gold Star Chili",
          "brand:wikidata": "Q16994254",
          "brand:wikipedia": "en:Gold Star Chili",
          "cuisine": "chili",
          "name": "Gold Star Chili",
          "takeaway": "yes"
        }
      },
      {
        "displayName": "Golden Chick",
        "id": "goldenchick-bc6fd8",
        "locationSet": {"include": ["us"]},
        "oldid": "amenity/fast_food|Golden Chick",
        "tags": {
          "amenity": "fast_food",
          "brand": "Golden Chick",
          "brand:wikidata": "Q3772930",
          "brand:wikipedia": "en:Golden Chick",
          "cuisine": "chicken",
          "name": "Golden Chick",
          "takeaway": "yes"
        }
      },
      {
        "displayName": "Golden Krust Caribbean Bakery & Grill",
        "id": "goldenkrust-597726",
        "locationSet": {"include": ["ca", "us"]},
        "oldid": "amenity/fast_food|Golden Krust Caribbean Bakery & Grill",
        "tags": {
          "amenity": "fast_food",
          "brand": "Golden Krust Caribbean Bakery & Grill",
          "brand:wikidata": "Q5579615",
          "brand:wikipedia": "en:Golden Krust Caribbean Bakery & Grill",
          "cuisine": "caribbean",
          "name": "Golden Krust",
          "takeaway": "yes"
        }
      },
      {
        "displayName": "Good Times",
        "id": "goodtimes-bc6fd8",
        "locationSet": {"include": ["us"]},
        "oldid": "amenity/fast_food|Good Times",
        "tags": {
          "amenity": "fast_food",
          "brand": "Good Times",
          "brand:wikidata": "Q5583024",
          "brand:wikipedia": "en:Good Times Burgers & Frozen Custard",
          "cuisine": "burger;ice_cream",
          "name": "Good Times",
          "official_name": "Good Times Burgers & Frozen Custard",
          "takeaway": "yes"
        }
      },
      {
        "displayName": "Great American Cookies",
        "id": "greatamericancookies-bc6fd8",
        "locationSet": {"include": ["us"]},
        "oldid": "amenity/fast_food|Great American Cookies",
        "tags": {
          "amenity": "fast_food",
          "brand": "Great American Cookies",
          "brand:wikidata": "Q5598629",
          "brand:wikipedia": "en:Great American Cookies",
          "cuisine": "cookies",
          "name": "Great American Cookies",
          "takeaway": "yes"
        }
      },
      {
        "displayName": "Greenwich",
        "id": "greenwich-a76be0",
        "locationSet": {"include": ["ph"]},
        "oldid": "amenity/fast_food|Greenwich",
        "tags": {
          "amenity": "fast_food",
          "brand": "Greenwich",
          "brand:wikidata": "Q2691308",
          "brand:wikipedia": "en:Greenwich Pizza",
          "cuisine": "pizza",
          "name": "Greenwich",
          "takeaway": "yes"
        }
      },
      {
        "displayName": "Greggs",
        "id": "greggs-ac6a6a",
        "locationSet": {"include": ["gb"]},
        "oldid": "amenity/fast_food|Greggs",
        "tags": {
          "amenity": "fast_food",
          "brand": "Greggs",
          "brand:wikidata": "Q3403981",
          "brand:wikipedia": "en:Greggs",
          "cuisine": "sandwich;bakery",
          "name": "Greggs",
          "takeaway": "yes"
        }
      },
      {
        "displayName": "Grill'd",
        "id": "grilld-111666",
        "locationSet": {"include": ["au"]},
        "oldid": "amenity/fast_food|Grill'd",
        "tags": {
          "amenity": "fast_food",
          "brand": "Grill'd",
          "brand:wikidata": "Q18165852",
          "brand:wikipedia": "en:Grill'd",
          "cuisine": "burger",
          "name": "Grill'd",
          "takeaway": "yes"
        }
      },
      {
        "displayName": "Habib's",
        "id": "habibs-d494e5",
        "locationSet": {"include": ["br", "mx"]},
        "oldid": "amenity/fast_food|Habib's",
        "tags": {
          "amenity": "fast_food",
          "brand": "Habib's",
          "brand:wikidata": "Q2504930",
          "brand:wikipedia": "en:Habib's",
          "cuisine": "middle_eastern",
          "name": "Habib's",
          "takeaway": "yes"
        }
      },
      {
        "displayName": "Hallo Pizza",
        "id": "hallopizza-5e3731",
        "locationSet": {"include": ["de"]},
        "oldid": "amenity/fast_food|Hallo Pizza",
        "tags": {
          "amenity": "fast_food",
          "brand": "Hallo Pizza",
          "brand:wikidata": "Q1571798",
          "brand:wikipedia": "de:Hallo Pizza",
          "cuisine": "pizza",
          "name": "Hallo Pizza",
          "takeaway": "yes"
        }
      },
      {
        "displayName": "Hardee's",
        "id": "hardees-45fdb7",
        "locationSet": {"include": ["001"]},
        "oldid": "amenity/fast_food|Hardee's",
        "tags": {
          "amenity": "fast_food",
          "brand": "Hardee's",
          "brand:wikidata": "Q1585088",
          "brand:wikipedia": "en:Hardee's",
          "cuisine": "burger",
          "name": "Hardee's",
          "takeaway": "yes"
        }
      },
      {
        "displayName": "Harry Ramsden's",
        "id": "harryramsdens-d2c65e",
        "locationSet": {"include": ["gb", "ie"]},
        "oldid": "amenity/fast_food|Harry Ramsden's",
        "tags": {
          "amenity": "fast_food",
          "brand": "Harry Ramsden's",
          "brand:wikidata": "Q5671849",
          "brand:wikipedia": "en:Harry Ramsden's",
          "cuisine": "fish_and_chips",
          "name": "Harry Ramsden's",
          "takeaway": "yes"
        }
      },
      {
        "displayName": "Harvey's",
        "id": "harveys-1a4275",
        "locationSet": {"include": ["ca"]},
        "nomatch": ["shop/furniture|Harveys"],
        "oldid": "amenity/fast_food|Harvey's",
        "tags": {
          "amenity": "fast_food",
          "brand": "Harvey's",
          "brand:wikidata": "Q1466184",
          "brand:wikipedia": "en:Harvey's",
          "cuisine": "burger",
          "name": "Harvey's",
          "takeaway": "yes"
        }
      },
      {
        "displayName": "Herfy",
        "id": "herfy-77e235",
        "locationSet": {
          "include": [
            "ae",
            "bd",
            "bh",
            "kw",
            "sa"
          ]
        },
        "oldid": "amenity/fast_food|Herfy",
        "tags": {
          "amenity": "fast_food",
          "brand": "Herfy",
          "brand:ar": "هرفي",
          "brand:en": "Herfy",
          "brand:wikidata": "Q5738371",
          "brand:wikipedia": "en:Herfy",
          "cuisine": "burger",
          "name": "Herfy",
          "name:ar": "هرفي",
          "name:en": "Herfy",
          "takeaway": "yes"
        }
      },
      {
        "displayName": "Hero Certified Burgers",
        "id": "herocertifiedburgers-1a4275",
        "locationSet": {"include": ["ca"]},
        "oldid": "amenity/fast_food|Hero Certified Burgers",
        "tags": {
          "amenity": "fast_food",
          "brand": "Hero Certified Burgers",
          "brand:wikidata": "Q5742641",
          "brand:wikipedia": "en:Hero Certified Burgers",
          "cuisine": "burger",
          "name": "Hero Certified Burgers",
          "takeaway": "yes"
        }
      },
      {
        "displayName": "Hesburger",
        "id": "hesburger-45fdb7",
        "locationSet": {"include": ["001"]},
        "oldid": "amenity/fast_food|Hesburger",
        "tags": {
          "amenity": "fast_food",
          "brand": "Hesburger",
          "brand:wikidata": "Q1276832",
          "brand:wikipedia": "en:Hesburger",
          "cuisine": "burger",
          "name": "Hesburger",
          "takeaway": "yes"
        }
      },
      {
        "displayName": "Honey Baked Ham",
        "id": "honeybakedham-bc6fd8",
        "locationSet": {"include": ["us"]},
        "matchNames": ["honey baked ham company"],
        "matchTags": [
          "shop/butcher",
          "shop/deli"
        ],
        "oldid": "amenity/fast_food|Honey Baked Ham",
        "tags": {
          "alt_name": "HoneyBaked Ham",
          "amenity": "fast_food",
          "brand": "Honey Baked Ham",
          "brand:wikidata": "Q5893363",
          "brand:wikipedia": "en:The Honey Baked Ham Company",
          "cuisine": "american",
          "name": "Honey Baked Ham",
          "official_name": "The Honey Baked Ham Company",
          "takeaway": "yes"
        }
      },
      {
        "displayName": "Hot Dog on a Stick",
        "id": "hotdogonastick-bc6fd8",
        "locationSet": {"include": ["us"]},
        "oldid": "amenity/fast_food|Hot Dog on a Stick",
        "tags": {
          "amenity": "fast_food",
          "brand": "Hot Dog on a Stick",
          "brand:wikidata": "Q5909922",
          "brand:wikipedia": "en:Hot Dog on a Stick",
          "cuisine": "hot_dog",
          "name": "Hot Dog on a Stick",
          "takeaway": "yes"
        }
      },
      {
        "displayName": "Hot Head Burritos",
        "id": "hotheadburritos-bc6fd8",
        "locationSet": {"include": ["us"]},
        "oldid": "amenity/fast_food|Hot Head Burritos",
        "tags": {
          "amenity": "fast_food",
          "brand": "Hot Head Burritos",
          "brand:wikidata": "Q5910008",
          "brand:wikipedia": "en:Hot Head Burritos",
          "cuisine": "mexican",
          "name": "Hot Head Burritos",
          "short_name": "Hot Head",
          "takeaway": "yes"
        }
      },
      {
        "displayName": "HuHot",
        "id": "huhot-bc6fd8",
        "locationSet": {"include": ["us"]},
        "oldid": "amenity/fast_food|HuHot",
        "tags": {
          "amenity": "fast_food",
          "brand": "HuHot",
          "brand:wikidata": "Q5924606",
          "brand:wikipedia": "en:HuHot Mongolian Grill",
          "cuisine": "bbq",
          "name": "HuHot",
          "official_name": "HuHot Mongolian Grill",
          "takeaway": "yes"
        }
      },
      {
        "displayName": "Hungry Howie's",
        "id": "hungryhowies-bc6fd8",
        "locationSet": {"include": ["us"]},
        "matchNames": ["hungry howies pizza"],
        "oldid": "amenity/fast_food|Hungry Howie's",
        "tags": {
          "amenity": "fast_food",
          "brand": "Hungry Howie's",
          "brand:wikidata": "Q16985303",
          "brand:wikipedia": "en:Hungry Howie's Pizza",
          "cuisine": "pizza",
          "name": "Hungry Howie's",
          "takeaway": "yes"
        }
      },
      {
        "displayName": "Hungry Jacks",
        "id": "hungryjacks-111666",
        "locationSet": {"include": ["au"]},
        "oldid": "amenity/fast_food|Hungry Jacks",
        "tags": {
          "amenity": "fast_food",
          "brand": "Hungry Jacks",
          "brand:wikidata": "Q3036373",
          "brand:wikipedia": "en:Hungry Jack's",
          "cuisine": "burger",
          "name": "Hungry Jacks",
          "takeaway": "yes"
        }
      },
      {
        "displayName": "Hungry Lion",
        "id": "hungrylion-45fdb7",
        "locationSet": {"include": ["001"]},
        "oldid": "amenity/fast_food|Hungry Lion",
        "tags": {
          "amenity": "fast_food",
          "brand": "Hungry Lion",
          "cuisine": "chicken",
          "name": "Hungry Lion",
          "takeaway": "yes"
        }
      },
      {
        "displayName": "IKEA Restaurant",
        "id": "ikearestaurant-45fdb7",
        "locationSet": {"include": ["001"]},
        "oldid": "amenity/fast_food|IKEA Restaurant",
        "tags": {
          "amenity": "fast_food",
          "brand": "IKEA",
          "brand:wikidata": "Q54078",
          "brand:wikipedia": "en:IKEA",
          "cuisine": "swedish",
          "name": "IKEA Restaurant",
          "takeaway": "yes"
        }
      },
      {
        "displayName": "Imo's Pizza",
        "id": "imospizza-bc6fd8",
        "locationSet": {"include": ["us"]},
        "oldid": "amenity/fast_food|Imo's Pizza",
        "tags": {
          "amenity": "fast_food",
          "brand": "Imo's Pizza",
          "brand:wikidata": "Q6005623",
          "brand:wikipedia": "en:Imo's Pizza",
          "cuisine": "pizza",
          "name": "Imo's Pizza",
          "takeaway": "yes"
        }
      },
      {
        "displayName": "In-N-Out Burger",
        "id": "innoutburger-bc6fd8",
        "locationSet": {"include": ["us"]},
        "oldid": "amenity/fast_food|In-N-Out Burger",
        "tags": {
          "amenity": "fast_food",
          "brand": "In-N-Out Burger",
          "brand:wikidata": "Q1205312",
          "brand:wikipedia": "en:In-N-Out Burger",
          "cuisine": "burger",
          "name": "In-N-Out Burger",
          "takeaway": "yes"
        }
      },
      {
        "displayName": "Jack in the Box",
        "id": "jackinthebox-bc6fd8",
        "locationSet": {"include": ["us"]},
        "oldid": "amenity/fast_food|Jack in the Box",
        "tags": {
          "amenity": "fast_food",
          "brand": "Jack in the Box",
          "brand:wikidata": "Q1538507",
          "brand:wikipedia": "en:Jack in the Box",
          "cuisine": "burger",
          "name": "Jack in the Box",
          "takeaway": "yes"
        }
      },
      {
        "displayName": "Jack's",
        "id": "jacks-bc6fd8",
        "locationSet": {"include": ["us"]},
        "nomatch": ["shop/supermarket|Jack's"],
        "oldid": "amenity/fast_food|Jack's",
        "tags": {
          "amenity": "fast_food",
          "brand": "Jack's",
          "brand:wikidata": "Q6110826",
          "brand:wikipedia": "en:Jack's",
          "cuisine": "burger",
          "name": "Jack's",
          "takeaway": "yes"
        }
      },
      {
        "displayName": "Jamba Juice",
        "id": "jambajuice-bc6fd8",
        "locationSet": {"include": ["us"]},
        "oldid": "amenity/fast_food|Jamba Juice",
        "tags": {
          "amenity": "fast_food",
          "brand": "Jamba Juice",
          "brand:wikidata": "Q3088784",
          "brand:wikipedia": "en:Jamba Juice",
          "cuisine": "juice",
          "name": "Jamba Juice",
          "takeaway": "yes"
        }
      },
      {
        "displayName": "Jersey Mike's Subs",
        "id": "jerseymikessubs-bc6fd8",
        "locationSet": {"include": ["us"]},
        "oldid": "amenity/fast_food|Jersey Mike's Subs",
        "tags": {
          "amenity": "fast_food",
          "brand": "Jersey Mike's Subs",
          "brand:wikidata": "Q6184897",
          "brand:wikipedia": "en:Jersey Mike's Subs",
          "cuisine": "sandwich",
          "name": "Jersey Mike's Subs",
          "short_name": "Jersey Mike's",
          "takeaway": "yes"
        }
      },
      {
        "displayName": "Jimmy John's",
        "id": "jimmyjohns-bc6fd8",
        "locationSet": {"include": ["us"]},
        "oldid": "amenity/fast_food|Jimmy John's",
        "tags": {
          "amenity": "fast_food",
          "brand": "Jimmy John's",
          "brand:wikidata": "Q1689380",
          "brand:wikipedia": "en:Jimmy John's",
          "cuisine": "sandwich",
          "name": "Jimmy John's",
          "official_name": "Jimmy John's Gourmet Sandwiches",
          "takeaway": "yes"
        }
      },
      {
        "displayName": "Jimmy the Greek",
        "id": "jimmythegreek-5ec414",
        "locationSet": {"include": ["ae", "ca"]},
        "oldid": "amenity/fast_food|Jimmy the Greek",
        "tags": {
          "amenity": "fast_food",
          "brand": "Jimmy the Greek",
          "brand:wikidata": "Q17077817",
          "brand:wikipedia": "en:Jimmy the Greek (restaurant)",
          "cuisine": "greek",
          "name": "Jimmy the Greek",
          "takeaway": "yes"
        }
      },
      {
        "displayName": "Jollibee",
        "id": "jollibee-45fdb7",
        "locationSet": {"include": ["001"]},
        "oldid": "amenity/fast_food|Jollibee",
        "tags": {
          "amenity": "fast_food",
          "brand": "Jollibee",
          "brand:wikidata": "Q37614",
          "brand:wikipedia": "en:Jollibee",
          "cuisine": "burger",
          "name": "Jollibee",
          "takeaway": "yes"
        }
      },
      {
        "displayName": "Just Salad",
        "id": "justsalad-bc6fd8",
        "locationSet": {"include": ["us"]},
        "oldid": "amenity/fast_food|Just Salad",
        "tags": {
          "amenity": "fast_food",
          "brand": "Just Salad",
          "brand:wikidata": "Q23091823",
          "brand:wikipedia": "en:Just Salad",
          "cuisine": "salad",
          "name": "Just Salad",
          "takeaway": "yes"
        }
      },
      {
        "displayName": "KFC",
        "id": "kfc-45fdb7",
        "locationSet": {"include": ["001"]},
        "oldid": "amenity/fast_food|KFC",
        "tags": {
          "alt_name": "Kentucky Fried Chicken",
          "amenity": "fast_food",
          "brand": "KFC",
          "brand:wikidata": "Q524757",
          "brand:wikipedia": "en:KFC",
          "cuisine": "chicken",
          "name": "KFC",
          "takeaway": "yes"
        }
      },
      {
        "displayName": "Kernels Popcorn",
        "id": "kernelspopcorn-1a4275",
        "locationSet": {"include": ["ca"]},
        "oldid": "amenity/fast_food|Kernels Popcorn",
        "tags": {
          "amenity": "fast_food",
          "brand": "Kernels Popcorn",
          "brand:wikidata": "Q64876684",
          "cuisine": "popcorn",
          "name": "Kernels Popcorn",
          "takeaway": "yes"
        }
      },
      {
        "displayName": "Kochlöffel",
        "id": "kochloffel-877c15",
        "locationSet": {"include": ["de", "tr"]},
        "oldid": "amenity/fast_food|Kochlöffel",
        "tags": {
          "amenity": "fast_food",
          "brand": "Kochlöffel",
          "brand:wikidata": "Q315539",
          "brand:wikipedia": "en:Kochlöffel",
          "cuisine": "burger",
          "name": "Kochlöffel",
          "takeaway": "yes"
        }
      },
      {
        "displayName": "Kotipizza",
        "id": "kotipizza-89e1fc",
        "locationSet": {"include": ["fi"]},
        "oldid": "amenity/fast_food|Kotipizza",
        "tags": {
          "amenity": "fast_food",
          "brand": "Kotipizza",
          "brand:wikidata": "Q1628625",
          "brand:wikipedia": "en:Kotipizza",
          "cuisine": "pizza",
          "name": "Kotipizza",
          "takeaway": "yes"
        }
      },
      {
        "displayName": "Krispy Kreme",
        "id": "krispykreme-45fdb7",
        "locationSet": {"include": ["001"]},
        "matchNames": ["krispy kreme doughnuts"],
        "oldid": "amenity/fast_food|Krispy Kreme",
        "tags": {
          "amenity": "fast_food",
          "brand": "Krispy Kreme",
          "brand:wikidata": "Q1192805",
          "brand:wikipedia": "en:Krispy Kreme",
          "cuisine": "donut",
          "name": "Krispy Kreme",
          "takeaway": "yes"
        }
      },
      {
        "displayName": "Krispy Krunchy Chicken",
        "id": "krispykrunchychicken-150792",
        "locationSet": {"include": ["mx", "us"]},
        "matchNames": ["crispy crunchy chicken"],
        "oldid": "amenity/fast_food|Krispy Krunchy Chicken",
        "tags": {
          "amenity": "fast_food",
          "brand": "Krispy Krunchy Chicken",
          "brand:wikidata": "Q65087447",
          "brand:wikipedia": "en:Krispy Krunchy Chicken",
          "cuisine": "chicken",
          "name": "Krispy Krunchy Chicken",
          "takeaway": "yes"
        }
      },
      {
        "displayName": "Krystal",
        "id": "krystal-bc6fd8",
        "locationSet": {"include": ["us"]},
        "oldid": "amenity/fast_food|Krystal",
        "tags": {
          "amenity": "fast_food",
          "brand": "Krystal",
          "brand:wikidata": "Q472195",
          "brand:wikipedia": "en:Krystal (restaurant)",
          "cuisine": "burger",
          "name": "Krystal",
          "takeaway": "yes"
        }
      },
      {
        "displayName": "Kudu",
        "id": "kudu-d9c9b2",
        "locationSet": {
          "include": ["bh", "jo", "sa"]
        },
        "oldid": "amenity/fast_food|Kudu",
        "tags": {
          "amenity": "fast_food",
          "brand": "Kudu",
          "brand:wikidata": "Q6441777",
          "brand:wikipedia": "en:Kudu (restaurant)",
          "cuisine": "sandwich",
          "name": "Kudu",
          "takeaway": "yes"
        }
      },
      {
        "displayName": "L&L Drive-Inn (Hawaii)",
        "id": "landldriveinn-bc6fd8",
        "locationSet": {"include": ["us"]},
        "matchNames": ["l&l", "l&l drive-in"],
        "oldid": "amenity/fast_food|L&L Drive-Inn~(Hawaii)",
        "tags": {
          "amenity": "fast_food",
          "brand": "L&L Drive-Inn",
          "brand:wikidata": "Q6455441",
          "brand:wikipedia": "en:L&L Hawaiian Barbecue",
          "cuisine": "hawaiian",
          "name": "L&L Drive-Inn",
          "takeaway": "yes"
        }
      },
      {
        "displayName": "L&L Hawaiian Barbecue",
        "id": "landlhawaiianbarbecue-bc6fd8",
        "locationSet": {"include": ["us"]},
        "matchNames": ["l&l", "l&l hawaiian bbq"],
        "oldid": "amenity/fast_food|L&L Hawaiian Barbecue",
        "tags": {
          "amenity": "fast_food",
          "brand": "L&L Hawaiian Barbecue",
          "brand:wikidata": "Q6455441",
          "brand:wikipedia": "en:L&L Hawaiian Barbecue",
          "cuisine": "hawaiian",
          "name": "L&L Hawaiian Barbecue",
          "takeaway": "yes"
        }
      },
      {
        "displayName": "LEON",
        "id": "leon-39582d",
        "locationSet": {
          "include": [
            "ch",
            "gb",
            "ie",
            "nl",
            "us"
          ]
        },
        "oldid": "amenity/fast_food|LEON",
        "tags": {
          "amenity": "fast_food",
          "brand": "LEON",
          "brand:wikidata": "Q6524851",
          "brand:wikipedia": "en:Leon Restaurants",
          "cuisine": "burger;sandwich",
          "name": "LEON",
          "takeaway": "yes"
        }
      },
      {
        "displayName": "La Belle Province",
        "id": "labelleprovince-1a4275",
        "locationSet": {"include": ["ca"]},
        "oldid": "amenity/fast_food|La Belle Province",
        "tags": {
          "amenity": "fast_food",
          "brand": "La Belle Province",
          "brand:wikidata": "Q3206579",
          "brand:wikipedia": "fr:La Belle Province (restaurant)",
          "cuisine": "burger;sandwich",
          "name": "La Belle Province",
          "takeaway": "yes"
        }
      },
      {
        "displayName": "La Salsa",
        "id": "lasalsa-bc6fd8",
        "locationSet": {"include": ["us"]},
        "oldid": "amenity/fast_food|La Salsa",
        "tags": {
          "amenity": "fast_food",
          "brand": "La Salsa",
          "brand:wikidata": "Q48835190",
          "brand:wikipedia": "en:La Salsa",
          "cuisine": "tex-mex",
          "name": "La Salsa",
          "takeaway": "yes"
        }
      },
      {
        "displayName": "Lee's Famous Recipe Chicken",
        "id": "leesfamousrecipechicken-597726",
        "locationSet": {"include": ["ca", "us"]},
        "matchNames": ["lee's"],
        "oldid": "amenity/fast_food|Lee's Famous Recipe Chicken",
        "tags": {
          "amenity": "fast_food",
          "brand": "Lee's Famous Recipe Chicken",
          "brand:wikidata": "Q6512810",
          "brand:wikipedia": "en:Lee's Famous Recipe Chicken",
          "cuisine": "chicken",
          "name": "Lee's Famous Recipe Chicken",
          "takeaway": "yes"
        }
      },
      {
        "displayName": "Lee's Sandwiches",
        "id": "leessandwiches-bc6fd8",
        "locationSet": {"include": ["us"]},
        "oldid": "amenity/fast_food|Lee's Sandwiches",
        "tags": {
          "amenity": "fast_food",
          "brand": "Lee's Sandwiches",
          "brand:wikidata": "Q6512823",
          "brand:wikipedia": "en:Lee's Sandwiches",
          "cuisine": "vietnamese;sandwich",
          "name": "Lee's Sandwiches",
          "takeaway": "yes"
        }
      },
      {
        "displayName": "Little Caesars",
        "id": "littlecaesars-45fdb7",
        "locationSet": {"include": ["001"]},
        "matchNames": [
          "little caesars pizza",
          "little ceasars",
          "little ceasars pizza"
        ],
        "oldid": "amenity/fast_food|Little Caesars",
        "tags": {
          "amenity": "fast_food",
          "brand": "Little Caesars",
          "brand:wikidata": "Q1393809",
          "brand:wikipedia": "en:Little Caesars",
          "cuisine": "pizza",
          "name": "Little Caesars",
          "takeaway": "yes"
        }
      },
      {
        "displayName": "Long John Silver's",
        "id": "longjohnsilvers-45fdb7",
        "locationSet": {"include": ["001"]},
        "oldid": "amenity/fast_food|Long John Silver's",
        "tags": {
          "amenity": "fast_food",
          "brand": "Long John Silver's",
          "brand:wikidata": "Q1535221",
          "brand:wikipedia": "en:Long John Silver's",
          "cuisine": "seafood",
          "name": "Long John Silver's",
          "takeaway": "yes"
        }
      },
      {
        "displayName": "Lotteria",
        "id": "lotteria-45fdb7",
        "locationSet": {"include": ["001"]},
        "oldid": "amenity/fast_food|Lotteria",
        "tags": {
          "amenity": "fast_food",
          "brand": "Lotteria",
          "brand:wikidata": "Q249525",
          "brand:wikipedia": "en:Lotteria",
          "cuisine": "burger",
          "name": "Lotteria",
          "takeaway": "yes"
        }
      },
      {
        "displayName": "MOD Pizza",
        "id": "modpizza-bc6fd8",
        "locationSet": {"include": ["us"]},
        "oldid": "amenity/fast_food|MOD Pizza",
        "tags": {
          "amenity": "fast_food",
          "brand": "MOD Pizza",
          "brand:wikidata": "Q19903469",
          "brand:wikipedia": "en:MOD Pizza",
          "cuisine": "pizza",
          "name": "MOD Pizza",
          "takeaway": "yes"
        }
      },
      {
        "displayName": "Manchu Wok",
        "id": "manchuwok-597726",
        "locationSet": {"include": ["ca", "us"]},
        "oldid": "amenity/fast_food|Manchu Wok",
        "tags": {
          "amenity": "fast_food",
          "brand": "Manchu Wok",
          "brand:wikidata": "Q6747622",
          "brand:wikipedia": "en:Manchu Wok",
          "cuisine": "chinese",
          "name": "Manchu Wok",
          "takeaway": "yes"
        }
      },
      {
        "displayName": "Mang Inasal",
        "id": "manginasal-a76be0",
        "locationSet": {"include": ["ph"]},
        "oldid": "amenity/fast_food|Mang Inasal",
        "tags": {
          "amenity": "fast_food",
          "brand": "Mang Inasal",
          "brand:wikidata": "Q6748573",
          "brand:wikipedia": "en:Mang Inasal",
          "cuisine": "barbecue",
          "name": "Mang Inasal",
          "takeaway": "yes"
        }
      },
      {
        "displayName": "Manhattan Bagel",
        "id": "manhattanbagel-bc6fd8",
        "locationSet": {"include": ["us"]},
        "matchNames": ["manhattan bagels"],
        "oldid": "amenity/fast_food|Manhattan Bagel",
        "tags": {
          "amenity": "fast_food",
          "brand": "Manhattan Bagel",
          "brand:wikidata": "Q64517333",
          "cuisine": "bagel",
          "name": "Manhattan Bagel",
          "takeaway": "yes"
        }
      },
      {
        "displayName": "Marrybrown",
        "id": "marrybrown-45fdb7",
        "locationSet": {"include": ["001"]},
        "oldid": "amenity/fast_food|Marrybrown",
        "tags": {
          "amenity": "fast_food",
          "brand": "Marrybrown",
          "brand:wikidata": "Q3380773",
          "brand:wikipedia": "en:Marrybrown",
          "cuisine": "malaysian;chicken;burger",
          "diet:halal": "yes",
          "name": "Marrybrown",
          "takeaway": "yes"
        }
      },
      {
        "displayName": "Mary Brown's",
        "id": "marybrowns-1a4275",
        "locationSet": {"include": ["ca"]},
        "oldid": "amenity/fast_food|Mary Brown's",
        "tags": {
          "amenity": "fast_food",
          "brand": "Mary Brown's",
          "brand:wikidata": "Q6779125",
          "brand:wikipedia": "en:Mary Brown's",
          "cuisine": "chicken",
          "name": "Mary Brown's",
          "takeaway": "yes"
        }
      },
      {
        "displayName": "Max",
        "id": "max-adde0a",
        "locationSet": {"include": ["se"]},
        "oldid": "amenity/fast_food|Max",
        "tags": {
          "amenity": "fast_food",
          "brand": "Max",
          "brand:wikidata": "Q1912172",
          "brand:wikipedia": "en:Max Hamburgers",
          "cuisine": "burger",
          "name": "Max",
          "takeaway": "yes"
        }
      },
      {
        "displayName": "McDonald's",
        "id": "mcdonalds-45fdb7",
        "locationSet": {"include": ["001"]},
        "oldid": "amenity/fast_food|McDonald's",
        "tags": {
          "amenity": "fast_food",
          "brand": "McDonald's",
          "brand:wikidata": "Q38076",
          "brand:wikipedia": "en:McDonald's",
          "cuisine": "burger",
          "name": "McDonald's",
          "takeaway": "yes"
        }
      },
      {
        "displayName": "Meson Sandwiches",
        "id": "mesonsandwiches-bc6fd8",
        "locationSet": {"include": ["us"]},
        "matchNames": ["el meson"],
        "oldid": "amenity/fast_food|Meson Sandwiches",
        "tags": {
          "alt_name": "El Meson Sandwiches",
          "amenity": "fast_food",
          "brand": "Meson Sandwiches",
          "brand:wikidata": "Q5351585",
          "brand:wikipedia": "en:El Meson Sandwiches",
          "cuisine": "sandwich",
          "name": "Meson Sandwiches",
          "short_name": "Meson",
          "takeaway": "yes"
        }
      },
      {
        "displayName": "Mighty Taco",
        "id": "mightytaco-bc6fd8",
        "locationSet": {"include": ["us"]},
        "oldid": "amenity/fast_food|Mighty Taco",
        "tags": {
          "amenity": "fast_food",
          "brand": "Mighty Taco",
          "brand:wikidata": "Q6844210",
          "brand:wikipedia": "en:Mighty Taco",
          "cuisine": "mexican",
          "name": "Mighty Taco",
          "takeaway": "yes"
        }
      },
      {
        "displayName": "Minute Burger",
        "id": "minuteburger-a76be0",
        "locationSet": {"include": ["ph"]},
        "oldid": "amenity/fast_food|Minute Burger",
        "tags": {
          "amenity": "fast_food",
          "brand": "Minute Burger",
          "brand:wikidata": "Q62273503",
          "cuisine": "burger",
          "name": "Minute Burger",
          "takeaway": "yes"
        }
      },
      {
        "displayName": "Moe's Southwest Grill",
        "id": "moessouthwestgrill-bc6fd8",
        "locationSet": {"include": ["us"]},
        "oldid": "amenity/fast_food|Moe's Southwest Grill",
        "tags": {
          "amenity": "fast_food",
          "brand": "Moe's Southwest Grill",
          "brand:wikidata": "Q6889938",
          "brand:wikipedia": "en:Moe's Southwest Grill",
          "cuisine": "mexican",
          "name": "Moe's Southwest Grill",
          "short_name": "Moe's",
          "takeaway": "yes"
        }
      },
      {
        "displayName": "Morley's",
        "id": "morleys-ac6a6a",
        "locationSet": {"include": ["gb"]},
        "oldid": "amenity/fast_food|Morley's",
        "tags": {
          "amenity": "fast_food",
          "brand": "Morley's",
          "brand:wikidata": "Q21008528",
          "brand:wikipedia": "en:Morley's",
          "cuisine": "chicken",
          "name": "Morley's",
          "takeaway": "yes"
        }
      },
      {
        "displayName": "Mr. Sub",
        "id": "mrsub-45fdb7",
        "locationSet": {"include": ["001"]},
        "oldid": "amenity/fast_food|Mr. Sub",
        "tags": {
          "amenity": "fast_food",
          "brand": "Mr. Sub",
          "brand:wikidata": "Q6929225",
          "brand:wikipedia": "en:Mr. Sub",
          "cuisine": "sandwich",
          "name": "Mr. Sub",
          "takeaway": "yes"
        }
      },
      {
        "displayName": "Mucho Burrito",
        "id": "muchoburrito-e7347d",
        "locationSet": {
          "include": ["ca", "gb", "us"]
        },
        "oldid": "amenity/fast_food|Mucho Burrito",
        "tags": {
          "amenity": "fast_food",
          "brand": "Mucho Burrito",
          "brand:wikidata": "Q65148332",
          "cuisine": "mexican",
          "name": "Mucho Burrito",
          "takeaway": "yes"
        }
      },
      {
        "displayName": "Nathan's",
        "id": "nathans-bc6fd8",
        "locationSet": {"include": ["us"]},
        "matchNames": ["nathans famous"],
        "oldid": "amenity/fast_food|Nathan's",
        "tags": {
          "amenity": "fast_food",
          "brand": "Nathan's",
          "brand:wikidata": "Q1319505",
          "brand:wikipedia": "en:Nathan's Famous",
          "cuisine": "hot_dog",
          "name": "Nathan's",
          "takeaway": "yes"
        }
      },
      {
        "displayName": "Nestlé Toll House Café",
        "id": "nestletollhousecafe-bc6fd8",
        "locationSet": {"include": ["us"]},
        "oldid": "amenity/fast_food|Nestlé Toll House Café",
        "tags": {
          "amenity": "fast_food",
          "brand": "Nestlé Toll House Café",
          "brand:wikidata": "Q6997922",
          "brand:wikipedia": "en:Nestlé Toll House Café",
          "cuisine": "dessert",
          "name": "Nestlé Toll House Café",
          "takeaway": "yes"
        }
      },
      {
        "displayName": "New York Fries",
        "id": "newyorkfries-1a4275",
        "locationSet": {"include": ["ca"]},
        "oldid": "amenity/fast_food|New York Fries",
        "tags": {
          "amenity": "fast_food",
          "brand": "New York Fries",
          "brand:wikidata": "Q7013558",
          "brand:wikipedia": "en:New York Fries",
          "cuisine": "fries",
          "name": "New York Fries",
          "takeaway": "yes"
        }
      },
      {
        "displayName": "New York Pizza",
        "id": "newyorkpizza-66df72",
        "locationSet": {"include": ["nl"]},
        "oldid": "amenity/fast_food|New York Pizza",
        "tags": {
          "amenity": "fast_food",
          "brand": "New York Pizza",
          "brand:wikidata": "Q2639128",
          "brand:wikipedia": "nl:New York Pizza",
          "cuisine": "pizza",
          "name": "New York Pizza",
          "takeaway": "yes"
        }
      },
      {
        "displayName": "Noah's Bagels",
        "id": "noahsbagels-bc6fd8",
        "locationSet": {"include": ["us"]},
        "matchNames": ["noahs ny bagels"],
        "oldid": "amenity/fast_food|Noah's Bagels",
        "tags": {
          "amenity": "fast_food",
          "brand": "Noah's Bagels",
          "brand:wikidata": "Q64517373",
          "cuisine": "bagel",
          "name": "Noah's Bagels",
          "official_name": "Noah's New York Bagels",
          "takeaway": "yes"
        }
      },
      {
        "displayName": "Noodle Box",
        "id": "noodlebox-111666",
        "locationSet": {"include": ["au"]},
        "oldid": "amenity/fast_food|Noodle Box",
        "tags": {
          "amenity": "fast_food",
          "brand": "Noodle Box",
          "brand:wikidata": "Q7049671",
          "brand:wikipedia": "en:Noodle Box",
          "cuisine": "noodle",
          "name": "Noodle Box",
          "takeaway": "yes"
        }
      },
      {
        "displayName": "Nordsee",
        "id": "nordsee-142936",
        "locationSet": {
          "include": ["at", "ch", "de"]
        },
        "oldid": "amenity/fast_food|Nordsee",
        "tags": {
          "amenity": "fast_food",
          "brand": "Nordsee",
          "brand:wikidata": "Q74866",
          "brand:wikipedia": "en:Nordsee",
          "cuisine": "seafood",
          "name": "Nordsee",
          "takeaway": "yes"
        }
      },
      {
        "displayName": "Num Pang",
        "id": "numpang-bc6fd8",
        "locationSet": {"include": ["us"]},
        "oldid": "amenity/fast_food|Num Pang",
        "tags": {
          "amenity": "fast_food",
          "brand": "Num Pang",
          "brand:wikidata": "Q62079702",
          "brand:wikipedia": "en:Num Pang",
          "cuisine": "cambodian;sandwich",
          "name": "Num Pang",
          "takeaway": "yes"
        }
      },
      {
        "displayName": "O'Tacos",
        "id": "otacos-a5dedc",
        "locationSet": {"include": ["be", "fr"]},
        "oldid": "amenity/fast_food|O'Tacos",
        "tags": {
          "amenity": "fast_food",
          "brand": "O'Tacos",
          "brand:wikidata": "Q28494040",
          "brand:wikipedia": "en:O'Tacos",
          "cuisine": "mexican",
          "name": "O'Tacos",
          "takeaway": "yes"
        }
      },
      {
        "displayName": "Oporto",
        "id": "oporto-111666",
        "locationSet": {"include": ["au"]},
        "oldid": "amenity/fast_food|Oporto",
        "tags": {
          "amenity": "fast_food",
          "brand": "Oporto",
          "brand:wikidata": "Q4412342",
          "brand:wikipedia": "en:Oporto (restaurant)",
          "cuisine": "burger;chicken",
          "name": "Oporto",
          "takeaway": "yes"
        }
      },
      {
        "displayName": "Orange Julius",
        "id": "orangejulius-bc6fd8",
        "locationSet": {"include": ["us"]},
        "oldid": "amenity/fast_food|Orange Julius",
        "tags": {
          "amenity": "fast_food",
          "brand": "Orange Julius",
          "brand:wikidata": "Q3355059",
          "brand:wikipedia": "en:Orange Julius",
          "cuisine": "juice",
          "name": "Orange Julius",
          "takeaway": "yes"
        }
      },
      {
        "displayName": "P. Terry's",
        "id": "pterrys-bc6fd8",
        "locationSet": {"include": ["us"]},
        "oldid": "amenity/fast_food|P. Terry's",
        "tags": {
          "amenity": "fast_food",
          "brand": "P. Terry's",
          "brand:wikidata": "Q19903521",
          "brand:wikipedia": "en:P. Terry's",
          "cuisine": "burger",
          "name": "P. Terry's",
          "official_name": "P. Terry's Burger Stand",
          "takeaway": "yes"
        }
      },
      {
        "displayName": "Pal's",
        "id": "pals-bc6fd8",
        "locationSet": {"include": ["us"]},
        "oldid": "amenity/fast_food|Pal's",
        "tags": {
          "amenity": "fast_food",
          "brand": "Pal's",
          "brand:wikidata": "Q7126094",
          "brand:wikipedia": "en:Pal's",
          "cuisine": "burger",
          "name": "Pal's",
          "official_name": "Pal's Sudden Service",
          "takeaway": "yes"
        }
      },
      {
        "displayName": "Panago",
        "id": "panago-1a4275",
        "locationSet": {"include": ["ca"]},
        "oldid": "amenity/fast_food|Panago",
        "tags": {
          "amenity": "fast_food",
          "brand": "Panago",
          "brand:wikidata": "Q17111672",
          "brand:wikipedia": "en:Panago",
          "cuisine": "pizza",
          "name": "Panago",
          "takeaway": "yes"
        }
      },
      {
        "displayName": "Panda Express",
        "id": "pandaexpress-bc6fd8",
        "locationSet": {"include": ["us"]},
        "matchNames": ["panda"],
        "oldid": "amenity/fast_food|Panda Express",
        "tags": {
          "amenity": "fast_food",
          "brand": "Panda Express",
          "brand:wikidata": "Q1358690",
          "brand:wikipedia": "en:Panda Express",
          "cuisine": "chinese",
          "name": "Panda Express",
          "takeaway": "yes"
        }
      },
      {
        "displayName": "Panera Bread",
        "id": "panerabread-597726",
        "locationSet": {"include": ["ca", "us"]},
        "oldid": "amenity/fast_food|Panera Bread",
        "tags": {
          "amenity": "fast_food",
          "brand": "Panera Bread",
          "brand:wikidata": "Q7130852",
          "brand:wikipedia": "en:Panera Bread",
          "cuisine": "sandwich;bakery",
          "name": "Panera Bread",
          "short_name": "Panera",
          "takeaway": "yes"
        }
      },
      {
        "displayName": "Panos",
        "id": "panos-477ada",
        "locationSet": {
          "include": [
            "ae",
            "be",
            "cz",
            "nl",
            "pl",
            "sk",
            "tw"
          ]
        },
        "oldid": "amenity/fast_food|Panos",
        "tags": {
          "amenity": "fast_food",
          "brand": "Panos",
          "brand:wikidata": "Q3384496",
          "brand:wikipedia": "nl:Panos",
          "cuisine": "sandwich",
          "name": "Panos",
          "takeaway": "yes"
        }
      },
      {
        "displayName": "Pans & Company",
        "id": "pansandcompany-e3cb42",
        "locationSet": {
          "include": ["es", "it", "pt"]
        },
        "oldid": "amenity/fast_food|Pans & Company",
        "tags": {
          "amenity": "fast_food",
          "brand": "Pans & Company",
          "brand:wikidata": "Q11697586",
          "brand:wikipedia": "es:Pans & Company",
          "cuisine": "sandwich",
          "name": "Pans & Company",
          "takeaway": "yes"
        }
      },
      {
        "displayName": "Papa John's",
        "id": "papajohns-45fdb7",
        "locationSet": {"include": ["001"]},
        "matchNames": [
          "papa john",
          "papa john pizza",
          "papa johns pizza"
        ],
        "oldid": "amenity/fast_food|Papa John's",
        "tags": {
          "amenity": "fast_food",
          "brand": "Papa John's",
          "brand:wikidata": "Q2759586",
          "brand:wikipedia": "en:Papa John's Pizza",
          "cuisine": "pizza",
          "name": "Papa John's",
          "takeaway": "yes"
        }
      },
      {
        "displayName": "Papa Murphy's",
        "id": "papamurphys-597726",
        "locationSet": {"include": ["ca", "us"]},
        "matchNames": [
          "papa murphy",
          "papa murphy pizza",
          "papa murphys pizza"
        ],
        "oldid": "amenity/fast_food|Papa Murphy's",
        "tags": {
          "amenity": "fast_food",
          "brand": "Papa Murphy's",
          "brand:wikidata": "Q7132349",
          "brand:wikipedia": "en:Papa Murphy's",
          "cuisine": "pizza",
          "name": "Papa Murphy's",
          "official_name": "Papa Murphy's Take 'N' Bake Pizza",
          "takeaway": "only"
        }
      },
      {
        "displayName": "Penn Station",
        "id": "pennstation-bc6fd8",
        "locationSet": {"include": ["us"]},
        "oldid": "amenity/fast_food|Penn Station",
        "tags": {
          "amenity": "fast_food",
          "brand": "Penn Station",
          "brand:wikidata": "Q7163311",
          "brand:wikipedia": "en:Penn Station (restaurant)",
          "cuisine": "sandwich",
          "name": "Penn Station",
          "takeaway": "yes"
        }
      },
      {
        "displayName": "Philly Pretzel Factory",
        "id": "phillypretzelfactory-bc6fd8",
        "locationSet": {"include": ["us"]},
        "matchNames": [
          "philadelphia pretzel factory",
          "philadelphia soft pretzel factory",
          "philly soft pretzel factory"
        ],
        "oldid": "amenity/fast_food|Philly Pretzel Factory",
        "tags": {
          "amenity": "fast_food",
          "brand": "Philly Pretzel Factory",
          "brand:wikidata": "Q60097339",
          "cuisine": "pretzel",
          "name": "Philly Pretzel Factory",
          "takeaway": "yes"
        }
      },
      {
        "displayName": "Pinulito",
        "id": "pinulito-6d0ef6",
        "locationSet": {"include": ["gt"]},
        "oldid": "amenity/fast_food|Pinulito",
        "tags": {
          "amenity": "fast_food",
          "brand": "Pinulito",
          "brand:wikidata": "Q62273613",
          "cuisine": "chicken",
          "name": "Pinulito",
          "takeaway": "yes"
        }
      },
      {
        "displayName": "Pita Pit",
        "id": "pitapit-45fdb7",
        "locationSet": {"include": ["001"]},
        "oldid": "amenity/fast_food|Pita Pit",
        "tags": {
          "amenity": "fast_food",
          "brand": "Pita Pit",
          "brand:wikidata": "Q7757289",
          "brand:wikipedia": "en:Pita Pit",
          "cuisine": "pita",
          "name": "Pita Pit",
          "takeaway": "yes"
        }
      },
      {
        "displayName": "Pizza 73",
        "id": "pizza73-1a4275",
        "locationSet": {"include": ["ca"]},
        "oldid": "amenity/fast_food|Pizza 73",
        "tags": {
          "amenity": "fast_food",
          "brand": "Pizza 73",
          "brand:wikidata": "Q7199950",
          "brand:wikipedia": "en:Pizza 73",
          "cuisine": "pizza",
          "name": "Pizza 73",
          "takeaway": "yes"
        }
      },
      {
        "displayName": "Pizza Capers",
        "id": "pizzacapers-111666",
        "locationSet": {"include": ["au"]},
        "oldid": "amenity/fast_food|Pizza Capers",
        "tags": {
          "amenity": "fast_food",
          "brand": "Pizza Capers",
          "brand:wikidata": "Q17021875",
          "brand:wikipedia": "en:Pizza Capers",
          "cuisine": "pizza",
          "name": "Pizza Capers",
          "takeaway": "yes"
        }
      },
      {
        "displayName": "Pizza Hut Delivery",
        "id": "pizzahutdelivery-45fdb7",
        "locationSet": {"include": ["001"]},
        "oldid": "amenity/fast_food|Pizza Hut Delivery",
        "tags": {
          "amenity": "fast_food",
          "brand": "Pizza Hut",
          "brand:wikidata": "Q191615",
          "brand:wikipedia": "en:Pizza Hut",
          "cuisine": "pizza",
          "name": "Pizza Hut Delivery",
          "takeaway": "yes"
        }
      },
      {
        "displayName": "Pizza Hut Express",
        "id": "pizzahutexpress-45fdb7",
        "locationSet": {"include": ["001"]},
        "nomatch": [
          "amenity/restaurant|Pizza Hut"
        ],
        "oldid": "amenity/fast_food|Pizza Hut Express",
        "tags": {
          "amenity": "fast_food",
          "brand": "Pizza Hut",
          "brand:wikidata": "Q191615",
          "brand:wikipedia": "en:Pizza Hut",
          "cuisine": "pizza",
          "name": "Pizza Hut Express",
          "takeaway": "yes"
        }
      },
      {
        "displayName": "Pizza Inn",
        "id": "pizzainn-45fdb7",
        "locationSet": {"include": ["001"]},
        "oldid": "amenity/fast_food|Pizza Inn",
        "tags": {
          "amenity": "fast_food",
          "brand": "Pizza Inn",
          "brand:wikidata": "Q4118850",
          "brand:wikipedia": "en:Pizza Inn",
          "cuisine": "pizza",
          "name": "Pizza Inn",
          "takeaway": "yes"
        }
      },
      {
        "displayName": "Pizza King",
        "id": "pizzaking-45fdb7",
        "locationSet": {"include": ["001"]},
        "oldid": "amenity/fast_food|Pizza King",
        "tags": {
          "amenity": "fast_food",
          "brand": "Pizza King",
          "cuisine": "pizza",
          "name": "Pizza King",
          "takeaway": "yes"
        }
      },
      {
        "displayName": "Pizza Móvil",
        "id": "pizzamovil-7eb5e1",
        "locationSet": {"include": ["es"]},
        "oldid": "amenity/fast_food|Pizza Móvil",
        "tags": {
          "amenity": "fast_food",
          "brand": "Pizza Móvil",
          "brand:wikidata": "Q12397697",
          "brand:wikipedia": "gl:Pizza Móvil",
          "cuisine": "pizza",
          "name": "Pizza Móvil",
          "takeaway": "yes"
        }
      },
      {
        "displayName": "Pizza Nova",
        "id": "pizzanova-45fdb7",
        "locationSet": {"include": ["001"]},
        "oldid": "amenity/fast_food|Pizza Nova",
        "tags": {
          "amenity": "fast_food",
          "brand": "Pizza Nova",
          "brand:wikidata": "Q7199971",
          "brand:wikipedia": "en:Pizza Nova",
          "cuisine": "pizza",
          "name": "Pizza Nova",
          "takeaway": "yes"
        }
      },
      {
        "displayName": "Pizza Paï",
        "id": "pizzapai-4e4abd",
        "locationSet": {"include": ["fr"]},
        "nomatch": [
          "amenity/restaurant|Pizza Paï"
        ],
        "oldid": "amenity/fast_food|Pizza Paï",
        "tags": {
          "amenity": "fast_food",
          "brand": "Pizza Paï",
          "brand:wikidata": "Q3389501",
          "brand:wikipedia": "fr:PizzaPai",
          "cuisine": "pizza",
          "name": "Pizza Paï",
          "takeaway": "yes"
        }
      },
      {
        "displayName": "Pizza Pizza",
        "id": "pizzapizza-1a4275",
        "locationSet": {"include": ["ca"]},
        "oldid": "amenity/fast_food|Pizza Pizza",
        "tags": {
          "amenity": "fast_food",
          "brand": "Pizza Pizza",
          "brand:wikidata": "Q1194143",
          "brand:wikipedia": "en:Pizza Pizza",
          "cuisine": "pizza",
          "name": "Pizza Pizza",
          "takeaway": "yes"
        }
      },
      {
        "displayName": "Pizza Schmizza",
        "id": "pizzaschmizza-bc6fd8",
        "locationSet": {"include": ["us"]},
        "oldid": "amenity/fast_food|Pizza Schmizza",
        "tags": {
          "amenity": "fast_food",
          "brand": "Pizza Schmizza",
          "brand:wikidata": "Q7199979",
          "brand:wikipedia": "en:Pizza Schmizza",
          "cuisine": "pizza",
          "name": "Pizza Schmizza",
          "takeaway": "yes"
        }
      },
      {
        "displayName": "Pizza Tutto",
        "id": "pizzatutto-7eb5e1",
        "locationSet": {"include": ["es"]},
        "oldid": "amenity/fast_food|Pizza Tutto",
        "tags": {
          "amenity": "fast_food",
          "brand": "Pizza Tutto",
          "cuisine": "pizza",
          "name": "Pizza Tutto",
          "takeaway": "yes"
        }
      },
      {
        "displayName": "Pizzaville",
        "id": "pizzaville-45fdb7",
        "locationSet": {"include": ["001"]},
        "oldid": "amenity/fast_food|Pizzaville",
        "tags": {
          "amenity": "fast_food",
          "brand": "Pizzaville",
          "cuisine": "pizza",
          "name": "Pizzaville",
          "takeaway": "yes"
        }
      },
      {
        "displayName": "Pollo Campero",
        "id": "pollocampero-45fdb7",
        "locationSet": {"include": ["001"]},
        "oldid": "amenity/fast_food|Pollo Campero",
        "tags": {
          "amenity": "fast_food",
          "brand": "Pollo Campero",
          "brand:wikidata": "Q942741",
          "brand:wikipedia": "en:Pollo Campero",
          "cuisine": "chicken",
          "name": "Pollo Campero",
          "takeaway": "yes"
        }
      },
      {
        "displayName": "Pollo Feliz",
        "id": "pollofeliz-23652f",
        "locationSet": {"include": ["mx"]},
        "oldid": "amenity/fast_food|Pollo Feliz",
        "tags": {
          "amenity": "fast_food",
          "brand": "Pollo Feliz",
          "cuisine": "chicken",
          "name": "Pollo Feliz",
          "takeaway": "yes"
        }
      },
      {
        "displayName": "Pollo Granjero (Costa Rica)",
        "id": "pollogranjero-7f2c54",
        "locationSet": {"include": ["cr"]},
        "oldid": "amenity/fast_food|Pollo Granjero~(Costa Rica)",
        "tags": {
          "amenity": "fast_food",
          "brand": "Pollo Granjero",
          "brand:wikidata": "Q62273665",
          "cuisine": "chicken",
          "name": "Pollo Granjero",
          "takeaway": "yes"
        }
      },
      {
        "displayName": "Pollo Granjero (Guatemala)",
        "id": "pollogranjero-6d0ef6",
        "locationSet": {"include": ["gt"]},
        "oldid": "amenity/fast_food|Pollo Granjero~(Guatemala)",
        "tags": {
          "amenity": "fast_food",
          "brand": "Pollo Granjero",
          "brand:wikidata": "Q62273652",
          "cuisine": "chicken",
          "name": "Pollo Granjero",
          "takeaway": "yes"
        }
      },
      {
        "displayName": "Pollo Tropical",
        "id": "pollotropical-45fdb7",
        "locationSet": {"include": ["001"]},
        "oldid": "amenity/fast_food|Pollo Tropical",
        "tags": {
          "amenity": "fast_food",
          "brand": "Pollo Tropical",
          "brand:wikidata": "Q3395356",
          "brand:wikipedia": "en:Pollo Tropical",
          "cuisine": "chicken",
          "name": "Pollo Tropical",
          "takeaway": "yes"
        }
      },
      {
        "displayName": "Pollolandia",
        "id": "pollolandia-45fdb7",
        "locationSet": {"include": ["001"]},
        "oldid": "amenity/fast_food|Pollolandia",
        "tags": {
          "amenity": "fast_food",
          "brand": "Pollolandia",
          "cuisine": "chicken",
          "name": "Pollolandia",
          "takeaway": "yes"
        }
      },
      {
        "displayName": "Popeyes",
        "id": "popeyes-45fdb7",
        "locationSet": {"include": ["001"]},
        "oldid": "amenity/fast_food|Popeyes",
        "tags": {
          "amenity": "fast_food",
          "brand": "Popeyes",
          "brand:wikidata": "Q1330910",
          "brand:wikipedia": "en:Popeyes",
          "cuisine": "chicken",
          "name": "Popeyes",
          "official_name": "Popeyes Louisiana Kitchen",
          "takeaway": "yes"
        }
      },
      {
        "displayName": "Portillo's",
        "id": "portillos-bc6fd8",
        "locationSet": {"include": ["us"]},
        "oldid": "amenity/fast_food|Portillo's",
        "tags": {
          "amenity": "fast_food",
          "brand": "Portillo's",
          "brand:wikidata": "Q3399307",
          "brand:wikipedia": "en:Portillo's Restaurants",
          "cuisine": "hot_dog;burger",
          "name": "Portillo's",
          "takeaway": "yes"
        }
      },
      {
        "displayName": "Potbelly",
        "id": "potbelly-bc6fd8",
        "locationSet": {"include": ["us"]},
        "matchNames": ["potbelly sandwich shop"],
        "oldid": "amenity/fast_food|Potbelly",
        "tags": {
          "amenity": "fast_food",
          "brand": "Potbelly",
          "brand:wikidata": "Q7234777",
          "brand:wikipedia": "en:Potbelly Sandwich Shop",
          "cuisine": "sandwich",
          "name": "Potbelly",
          "official_name": "Potbelly Sandwich Works",
          "takeaway": "yes"
        }
      },
      {
        "displayName": "Pret A Manger",
        "id": "pretamanger-3d4842",
        "locationSet": {
          "include": [
            "ae",
            "cn",
            "de",
            "dk",
            "fr",
            "gb",
            "hk",
            "nl",
            "sg",
            "us"
          ]
        },
        "oldid": "amenity/fast_food|Pret A Manger",
        "tags": {
          "amenity": "fast_food",
          "brand": "Pret A Manger",
          "brand:wikidata": "Q2109109",
          "brand:wikipedia": "en:Pret a Manger",
          "cuisine": "sandwich",
          "name": "Pret A Manger",
          "short_name": "Pret",
          "takeaway": "yes"
        }
      },
      {
        "displayName": "Pretzelmaker",
        "id": "pretzelmaker-bc6fd8",
        "locationSet": {"include": ["us"]},
        "matchNames": ["pretzel time"],
        "oldid": "amenity/fast_food|Pretzelmaker",
        "tags": {
          "amenity": "fast_food",
          "brand": "Pretzelmaker",
          "brand:wikidata": "Q7242321",
          "brand:wikipedia": "en:Pretzelmaker",
          "cuisine": "pretzel",
          "name": "Pretzelmaker",
          "takeaway": "yes"
        }
      },
      {
        "displayName": "Qdoba",
        "id": "qdoba-bc6fd8",
        "locationSet": {"include": ["us"]},
        "oldid": "amenity/fast_food|Qdoba",
        "tags": {
          "amenity": "fast_food",
          "brand": "Qdoba",
          "brand:wikidata": "Q1363885",
          "brand:wikipedia": "en:Qdoba",
          "cuisine": "mexican",
          "name": "Qdoba",
          "official_name": "Qdoba Mexican Grill",
          "takeaway": "yes"
        }
      },
      {
        "displayName": "Quesada",
        "id": "quesada-1a4275",
        "locationSet": {"include": ["ca"]},
        "oldid": "amenity/fast_food|Quesada",
        "tags": {
          "amenity": "fast_food",
          "brand": "Quesada",
          "brand:wikidata": "Q66070360",
          "cuisine": "mexican",
          "name": "Quesada",
          "official_name": "Quesada Burritos & Tacos",
          "takeaway": "yes"
        }
      },
      {
        "displayName": "Quick",
        "id": "quick-e5a9c0",
        "locationSet": {
          "include": ["be", "fr", "lu"]
        },
        "oldid": "amenity/fast_food|Quick",
        "tags": {
          "amenity": "fast_food",
          "brand": "Quick",
          "brand:wikidata": "Q286494",
          "brand:wikipedia": "en:Quick (restaurant)",
          "cuisine": "burger",
          "name": "Quick",
          "takeaway": "yes"
        }
      },
      {
        "displayName": "Quiznos",
        "id": "quiznos-45fdb7",
        "locationSet": {"include": ["001"]},
        "matchNames": [
          "quiznos sub",
          "quiznos subs"
        ],
        "oldid": "amenity/fast_food|Quiznos",
        "tags": {
          "amenity": "fast_food",
          "brand": "Quiznos",
          "brand:wikidata": "Q1936229",
          "brand:wikipedia": "en:Quiznos",
          "cuisine": "sandwich",
          "name": "Quiznos",
          "takeaway": "yes"
        }
      },
      {
        "displayName": "Raising Cane's",
        "id": "raisingcanes-bc6fd8",
        "locationSet": {"include": ["us"]},
        "oldid": "amenity/fast_food|Raising Cane's",
        "tags": {
          "amenity": "fast_food",
          "brand": "Raising Cane's",
          "brand:wikidata": "Q7285144",
          "brand:wikipedia": "en:Raising Cane's Chicken Fingers",
          "cuisine": "chicken",
          "name": "Raising Cane's",
          "official_name": "Raising Cane's Chicken Fingers",
          "takeaway": "yes"
        }
      },
      {
        "displayName": "Rally's",
        "id": "rallys-bc6fd8",
        "locationSet": {"include": ["us"]},
        "oldid": "amenity/fast_food|Rally's",
        "tags": {
          "amenity": "fast_food",
          "brand": "Rally's",
          "brand:wikidata": "Q63919323",
          "cuisine": "burger",
          "name": "Rally's",
          "takeaway": "yes"
        }
      },
      {
        "displayName": "Red Rooster",
        "id": "redrooster-111666",
        "locationSet": {"include": ["au"]},
        "oldid": "amenity/fast_food|Red Rooster",
        "tags": {
          "amenity": "fast_food",
          "brand": "Red Rooster",
          "brand:wikidata": "Q376466",
          "brand:wikipedia": "en:Red Rooster",
          "cuisine": "chicken",
          "name": "Red Rooster",
          "takeaway": "yes"
        }
      },
      {
        "displayName": "Robin's Donuts",
        "id": "robinsdonuts-1a4275",
        "locationSet": {"include": ["ca"]},
        "oldid": "amenity/fast_food|Robin's Donuts",
        "tags": {
          "amenity": "fast_food",
          "brand": "Robin's Donuts",
          "brand:wikidata": "Q7352199",
          "brand:wikipedia": "en:Robin's Donuts",
          "cuisine": "donut",
          "name": "Robin's Donuts",
          "short_name": "Robin's",
          "takeaway": "yes"
        }
      },
      {
        "displayName": "Rodilla",
        "id": "rodilla-7eb5e1",
        "locationSet": {"include": ["es"]},
        "oldid": "amenity/fast_food|Rodilla",
        "tags": {
          "amenity": "fast_food",
          "brand": "Rodilla",
          "brand:wikidata": "Q7356777",
          "brand:wikipedia": "es:Rodilla (franquicia)",
          "cuisine": "sandwich",
          "name": "Rodilla",
          "takeaway": "yes"
        }
      },
      {
        "displayName": "Roy Rogers",
        "id": "royrogers-bc6fd8",
        "locationSet": {"include": ["us"]},
        "oldid": "amenity/fast_food|Roy Rogers",
        "tags": {
          "amenity": "fast_food",
          "brand": "Roy Rogers",
          "brand:wikidata": "Q7373311",
          "brand:wikipedia": "en:Roy Rogers Restaurants",
          "cuisine": "burger;sandwich;chicken",
          "name": "Roy Rogers",
          "takeaway": "yes"
        }
      },
      {
        "displayName": "Rubio's",
        "id": "rubios-bc6fd8",
        "locationSet": {"include": ["us"]},
        "matchNames": [
          "rubios fresh mexican grill"
        ],
        "oldid": "amenity/fast_food|Rubio's",
        "tags": {
          "amenity": "fast_food",
          "brand": "Rubio's",
          "brand:wikidata": "Q7376154",
          "brand:wikipedia": "en:Rubio's Coastal Grill",
          "cuisine": "mexican",
          "name": "Rubio's",
          "official_name": "Rubio's Coastal Grill",
          "takeaway": "yes"
        }
      },
      {
        "displayName": "SUSU & Sons",
        "id": "susuandsons-a52fd8",
        "locationSet": {"include": ["il"]},
        "matchNames": ["סוסו ובניו"],
        "oldid": "amenity/fast_food|SUSU & Sons",
        "tags": {
          "amenity": "fast_food",
          "brand": "SUSU & Sons",
          "brand:en": "SUSU & Sons",
          "brand:he": "סוסו אנד סאנס",
          "brand:wikidata": "Q64760081",
          "cuisine": "burger",
          "name": "SUSU & Sons",
          "name:en": "SUSU & Sons",
          "name:he": "סוסו אנד סאנס",
          "takeaway": "yes"
        }
      },
      {
        "displayName": "Sarku Japan",
        "id": "sarkujapan-bc6fd8",
        "locationSet": {"include": ["us"]},
        "oldid": "amenity/fast_food|Sarku Japan",
        "tags": {
          "amenity": "fast_food",
          "brand": "Sarku Japan",
          "brand:wikidata": "Q7424243",
          "cuisine": "japanese",
          "name": "Sarku Japan",
          "takeaway": "yes"
        }
      },
      {
        "displayName": "Sarpino's Pizzeria",
        "id": "sarpinospizzeria-bc6fd8",
        "locationSet": {"include": ["us"]},
        "oldid": "amenity/fast_food|Sarpino's Pizzeria",
        "tags": {
          "amenity": "fast_food",
          "brand": "Sarpino's Pizzeria",
          "brand:wikidata": "Q28229116",
          "brand:wikipedia": "en:Sarpino's Pizzeria",
          "cuisine": "pizza",
          "name": "Sarpino's Pizzeria",
          "takeaway": "yes"
        }
      },
      {
        "displayName": "Sbarro",
        "id": "sbarro-45fdb7",
        "locationSet": {"include": ["001"]},
        "matchNames": ["sbarro pizzeria"],
        "oldid": "amenity/fast_food|Sbarro",
        "tags": {
          "amenity": "fast_food",
          "brand": "Sbarro",
          "brand:wikidata": "Q2589409",
          "brand:wikipedia": "en:Sbarro",
          "cuisine": "pizza",
          "name": "Sbarro",
          "takeaway": "yes"
        }
      },
      {
        "displayName": "Schlotzsky's",
        "id": "schlotzskys-bc6fd8",
        "locationSet": {"include": ["us"]},
        "matchNames": ["schlotzskys deli"],
        "oldid": "amenity/fast_food|Schlotzsky's",
        "tags": {
          "amenity": "fast_food",
          "brand": "Schlotzsky's",
          "brand:wikidata": "Q2244796",
          "brand:wikipedia": "en:Schlotzsky's",
          "cuisine": "sandwich",
          "name": "Schlotzsky's",
          "takeaway": "yes"
        }
      },
      {
        "displayName": "Schnitz",
        "id": "schnitz-111666",
        "locationSet": {"include": ["au"]},
        "oldid": "amenity/fast_food|Schnitz",
        "tags": {
          "amenity": "fast_food",
          "brand": "Schnitz",
          "brand:wikidata": "Q48792277",
          "brand:wikipedia": "en:Schnitz",
          "cuisine": "chicken",
          "name": "Schnitz",
          "takeaway": "yes"
        }
      },
      {
        "displayName": "Secret Recipe",
        "id": "secretrecipe-b7ea76",
        "locationSet": {
          "include": [
            "bd",
            "bn",
            "cn",
            "id",
            "kh",
            "mm",
            "mv",
            "my",
            "sg",
            "th"
          ]
        },
        "oldid": "amenity/fast_food|Secret Recipe",
        "tags": {
          "amenity": "fast_food",
          "brand": "Secret Recipe",
          "brand:wikidata": "Q7444079",
          "brand:wikipedia": "en:Secret Recipe (restaurant)",
          "cuisine": "cake;malaysian",
          "name": "Secret Recipe",
          "takeaway": "yes"
        }
      },
      {
        "displayName": "Shake Shack",
        "id": "shakeshack-5236ea",
        "locationSet": {"include": ["gb", "us"]},
        "oldid": "amenity/fast_food|Shake Shack",
        "tags": {
          "amenity": "fast_food",
          "brand": "Shake Shack",
          "brand:wikidata": "Q1058722",
          "brand:wikipedia": "en:Shake Shack",
          "cuisine": "burger",
          "name": "Shake Shack",
          "takeaway": "yes"
        }
      },
      {
        "displayName": "Sibylla",
        "id": "sibylla-255fba",
        "locationSet": {"include": ["fi", "se"]},
        "oldid": "amenity/fast_food|Sibylla",
        "tags": {
          "amenity": "fast_food",
          "brand": "Sibylla",
          "brand:wikidata": "Q488643",
          "brand:wikipedia": "en:Sibylla (fast food)",
          "cuisine": "burger",
          "name": "Sibylla",
          "takeaway": "yes"
        }
      },
      {
        "displayName": "Smashburger",
        "id": "smashburger-597726",
        "locationSet": {"include": ["ca", "us"]},
        "oldid": "amenity/fast_food|Smashburger",
        "tags": {
          "amenity": "fast_food",
          "brand": "Smashburger",
          "brand:wikidata": "Q17061332",
          "brand:wikipedia": "en:Smashburger",
          "cuisine": "burger",
          "name": "Smashburger",
          "takeaway": "yes"
        }
      },
      {
        "displayName": "Smoothie King",
        "id": "smoothieking-bc6fd8",
        "locationSet": {"include": ["us"]},
        "oldid": "amenity/fast_food|Smoothie King",
        "tags": {
          "amenity": "fast_food",
          "brand": "Smoothie King",
          "brand:wikidata": "Q5491421",
          "brand:wikipedia": "en:Smoothie King",
          "cuisine": "juice",
          "name": "Smoothie King",
          "takeaway": "yes"
        }
      },
      {
        "displayName": "Smullers",
        "id": "smullers-66df72",
        "locationSet": {"include": ["nl"]},
        "oldid": "amenity/fast_food|Smullers",
        "tags": {
          "amenity": "fast_food",
          "brand": "Smullers",
          "brand:wikidata": "Q92552501",
          "cuisine": "burger",
          "name": "Smullers",
          "takeaway": "yes"
        }
      },
      {
        "displayName": "Sonic",
        "id": "sonic-45fdb7",
        "locationSet": {"include": ["001"]},
        "matchNames": ["sonic drive in"],
        "nomatch": ["amenity/fuel|Sonic"],
        "oldid": "amenity/fast_food|Sonic",
        "tags": {
          "amenity": "fast_food",
          "brand": "Sonic",
          "brand:wikidata": "Q7561808",
          "brand:wikipedia": "en:Sonic Drive-In",
          "cuisine": "burger",
          "drive_in": "yes",
          "name": "Sonic",
          "takeaway": "yes"
        }
      },
      {
        "displayName": "Specialty's",
        "id": "specialtys-bc6fd8",
        "locationSet": {"include": ["us"]},
        "oldid": "amenity/fast_food|Specialty's",
        "tags": {
          "amenity": "fast_food",
          "brand": "Specialty's",
          "brand:wikidata": "Q64339210",
          "cuisine": "sandwich;bakery",
          "name": "Specialty's",
          "takeaway": "yes"
        }
      },
      {
        "displayName": "St-Hubert Express",
        "id": "sthubertexpress-1a4275",
        "locationSet": {"include": ["ca"]},
        "nomatch": [
          "amenity/restaurant|St-Hubert"
        ],
        "oldid": "amenity/fast_food|St-Hubert Express",
        "tags": {
          "amenity": "fast_food",
          "brand": "St-Hubert",
          "brand:wikidata": "Q3495225",
          "brand:wikipedia": "fr:St-Hubert (restaurant)",
          "cuisine": "chicken;barbecue",
          "name": "St-Hubert Express",
          "takeaway": "yes"
        }
      },
      {
        "displayName": "Steak 'n Shake",
        "id": "steaknshake-bc6fd8",
        "locationSet": {"include": ["us"]},
        "oldid": "amenity/fast_food|Steak 'n Shake",
        "tags": {
          "amenity": "fast_food",
          "brand": "Steak 'n Shake",
          "brand:wikidata": "Q7605233",
          "brand:wikipedia": "en:Steak 'n Shake",
          "cuisine": "burger",
          "name": "Steak 'n Shake",
          "takeaway": "yes"
        }
      },
      {
        "displayName": "Steak Escape",
        "id": "steakescape-bc6fd8",
        "locationSet": {"include": ["us"]},
        "oldid": "amenity/fast_food|Steak Escape",
        "tags": {
          "amenity": "fast_food",
          "brand": "Steak Escape",
          "brand:wikidata": "Q7605235",
          "brand:wikipedia": "en:Steak Escape",
          "cuisine": "sandwich",
          "name": "Steak Escape",
          "takeaway": "yes"
        }
      },
      {
        "displayName": "Steers",
        "id": "steers-45fdb7",
        "locationSet": {"include": ["001"]},
        "oldid": "amenity/fast_food|Steers",
        "tags": {
          "amenity": "fast_food",
          "brand": "Steers",
          "brand:wikidata": "Q56599145",
          "brand:wikipedia": "en:Steers",
          "cuisine": "burger",
          "name": "Steers",
          "takeaway": "yes"
        }
      },
      {
        "displayName": "Subway",
        "id": "subway-45fdb7",
        "locationSet": {"include": ["001"]},
        "matchNames": ["subway sandwiches"],
        "oldid": "amenity/fast_food|Subway",
        "tags": {
          "amenity": "fast_food",
          "brand": "Subway",
          "brand:wikidata": "Q244457",
          "brand:wikipedia": "en:Subway (restaurant)",
          "cuisine": "sandwich",
          "name": "Subway",
          "takeaway": "yes"
        }
      },
      {
        "displayName": "Sumo Salad",
        "id": "sumosalad-cc5ce0",
        "locationSet": {
          "include": [
            "ae",
            "au",
            "br",
            "nz",
            "sg",
            "us"
          ]
        },
        "oldid": "amenity/fast_food|Sumo Salad",
        "tags": {
          "amenity": "fast_food",
          "brand": "Sumo Salad",
          "brand:wikidata": "Q16951700",
          "brand:wikipedia": "en:Sumo Salad",
          "cuisine": "salad",
          "name": "Sumo Salad",
          "takeaway": "yes"
        }
      },
      {
        "displayName": "Supermac's",
        "id": "supermacs-d2c65e",
        "locationSet": {"include": ["gb", "ie"]},
        "oldid": "amenity/fast_food|Supermac's",
        "tags": {
          "amenity": "fast_food",
          "brand": "Supermac's",
          "brand:wikidata": "Q7643750",
          "brand:wikipedia": "en:Supermac's",
          "cuisine": "burger",
          "name": "Supermac's",
          "takeaway": "yes"
        }
      },
      {
        "displayName": "Sushi Shop",
        "id": "sushishop-1a4275",
        "locationSet": {"include": ["ca"]},
        "oldid": "amenity/fast_food|Sushi Shop",
        "tags": {
          "amenity": "fast_food",
          "brand": "Sushi Shop",
          "brand:wikidata": "Q64840990",
          "cuisine": "sushi",
          "name": "Sushi Shop",
          "takeaway": "yes"
        }
      },
      {
        "displayName": "Sガスト",
        "id": "sガスト-86438d",
        "locationSet": {"include": ["jp"]},
        "nomatch": ["amenity/restaurant|ガスト"],
        "oldid": "amenity/fast_food|Sガスト",
        "tags": {
          "amenity": "fast_food",
          "brand": "ガスト",
          "brand:en": "Gusto",
          "brand:ja": "ガスト",
          "brand:wikidata": "Q87724117",
          "cuisine": "western;japanese",
          "name": "Sガスト",
          "name:en": "S-Gusto",
          "name:ja": "Sガスト",
          "takeaway": "yes"
        }
      },
      {
        "displayName": "Taco Bell",
        "id": "tacobell-45fdb7",
        "locationSet": {"include": ["001"]},
        "oldid": "amenity/fast_food|Taco Bell",
        "tags": {
          "amenity": "fast_food",
          "brand": "Taco Bell",
          "brand:wikidata": "Q752941",
          "brand:wikipedia": "en:Taco Bell",
          "cuisine": "tex-mex",
          "name": "Taco Bell",
          "takeaway": "yes"
        }
      },
      {
        "displayName": "Taco Bueno",
        "id": "tacobueno-bc6fd8",
        "locationSet": {"include": ["us"]},
        "oldid": "amenity/fast_food|Taco Bueno",
        "tags": {
          "amenity": "fast_food",
          "brand": "Taco Bueno",
          "brand:wikidata": "Q7673958",
          "brand:wikipedia": "en:Taco Bueno",
          "cuisine": "mexican",
          "name": "Taco Bueno",
          "takeaway": "yes"
        }
      },
      {
        "displayName": "Taco Cabana",
        "id": "tacocabana-bc6fd8",
        "locationSet": {"include": ["us"]},
        "oldid": "amenity/fast_food|Taco Cabana",
        "tags": {
          "amenity": "fast_food",
          "brand": "Taco Cabana",
          "brand:wikidata": "Q12070488",
          "brand:wikipedia": "en:Taco Cabana",
          "cuisine": "mexican",
          "name": "Taco Cabana",
          "takeaway": "yes"
        }
      },
      {
        "displayName": "Taco Del Mar",
        "id": "tacodelmar-597726",
        "locationSet": {"include": ["ca", "us"]},
        "oldid": "amenity/fast_food|Taco Del Mar",
        "tags": {
          "amenity": "fast_food",
          "brand": "Taco Del Mar",
          "brand:wikidata": "Q7673972",
          "brand:wikipedia": "en:Taco del Mar",
          "cuisine": "mexican",
          "name": "Taco Del Mar",
          "takeaway": "yes"
        }
      },
      {
        "displayName": "Taco John's",
        "id": "tacojohns-bc6fd8",
        "locationSet": {"include": ["us"]},
        "oldid": "amenity/fast_food|Taco John's",
        "tags": {
          "amenity": "fast_food",
          "brand": "Taco John's",
          "brand:wikidata": "Q7673962",
          "brand:wikipedia": "en:Taco John's",
          "cuisine": "mexican",
          "name": "Taco John's",
          "takeaway": "yes"
        }
      },
      {
        "displayName": "Taco Mayo",
        "id": "tacomayo-bc6fd8",
        "locationSet": {"include": ["us"]},
        "oldid": "amenity/fast_food|Taco Mayo",
        "tags": {
          "amenity": "fast_food",
          "brand": "Taco Mayo",
          "brand:wikidata": "Q2386946",
          "brand:wikipedia": "en:Taco Mayo",
          "cuisine": "tex-mex",
          "name": "Taco Mayo",
          "takeaway": "yes"
        }
      },
      {
        "displayName": "Taco Time",
        "id": "tacotime-597726",
        "locationSet": {"include": ["ca", "us"]},
        "oldid": "amenity/fast_food|Taco Time",
        "tags": {
          "amenity": "fast_food",
          "brand": "Taco Time",
          "brand:wikidata": "Q7673969",
          "brand:wikipedia": "en:Taco Time",
          "cuisine": "mexican",
          "name": "Taco Time",
          "takeaway": "yes"
        }
      },
      {
        "displayName": "Taziki's Mediterranean Cafe",
        "id": "tazikismediterraneancafe-bc6fd8",
        "locationSet": {"include": ["us"]},
        "oldid": "amenity/fast_food|Taziki's Mediterranean Cafe",
        "tags": {
          "amenity": "fast_food",
          "brand": "Taziki's Mediterranean Cafe",
          "brand:wikidata": "Q19849840",
          "brand:wikipedia": "en:Taziki's Mediterranean Café",
          "cuisine": "mediterranean",
          "name": "Taziki's Mediterranean Cafe",
          "short_name": "Taziki's",
          "takeaway": "yes"
        }
      },
      {
        "displayName": "Ted's Hot Dogs",
        "id": "tedshotdogs-bc6fd8",
        "locationSet": {"include": ["us"]},
        "oldid": "amenity/fast_food|Ted's Hot Dogs",
        "tags": {
          "amenity": "fast_food",
          "brand": "Ted's Hot Dogs",
          "brand:wikidata": "Q7692930",
          "brand:wikipedia": "en:Ted's Hot Dogs",
          "cuisine": "hot_dog",
          "name": "Ted's Hot Dogs",
          "takeaway": "yes"
        }
      },
      {
        "displayName": "Telepizza",
        "id": "telepizza-45fdb7",
        "locationSet": {"include": ["001"]},
        "oldid": "amenity/fast_food|Telepizza",
        "tags": {
          "amenity": "fast_food",
          "brand": "Telepizza",
          "brand:wikidata": "Q2699863",
          "brand:wikipedia": "en:Telepizza",
          "cuisine": "pizza",
          "name": "Telepizza",
          "takeaway": "yes"
        }
      },
      {
        "displayName": "Teriyaki Experience",
        "id": "teriyakiexperience-1a4275",
        "locationSet": {"include": ["ca"]},
        "oldid": "amenity/fast_food|Teriyaki Experience",
        "tags": {
          "amenity": "fast_food",
          "brand": "Teriyaki Experience",
          "brand:wikidata": "Q7702453",
          "cuisine": "japanese",
          "name": "Teriyaki Experience",
          "takeaway": "yes"
        }
      },
      {
        "displayName": "Texas Burger",
        "id": "texasburger-bc6fd8",
        "locationSet": {"include": ["us"]},
        "oldid": "amenity/fast_food|Texas Burger",
        "tags": {
          "amenity": "fast_food",
          "brand": "Texas Burger",
          "cuisine": "burger",
          "name": "Texas Burger",
          "takeaway": "yes"
        }
      },
      {
        "displayName": "Texas Chicken",
        "id": "texaschicken-45fdb7",
        "locationSet": {"include": ["001"]},
        "oldid": "amenity/fast_food|Texas Chicken",
        "tags": {
          "alt_name": "Church's Chicken",
          "amenity": "fast_food",
          "brand": "Texas Chicken",
          "brand:wikidata": "Q1089932",
          "cuisine": "chicken",
          "name": "Texas Chicken",
          "takeaway": "yes"
        }
      },
      {
        "displayName": "Thai Express (Singapore)",
        "id": "thaiexpress-2c1815",
        "locationSet": {"include": ["sg"]},
        "nomatch": [
          "amenity/fast_food|Thaï Express~(North America)"
        ],
        "oldid": "amenity/fast_food|Thai Express~(Singapore)",
        "tags": {
          "amenity": "fast_food",
          "brand": "Thai Express",
          "brand:wikidata": "Q7709119",
          "brand:wikipedia": "en:Thai Express",
          "cuisine": "thai",
          "name": "Thai Express",
          "takeaway": "yes"
        }
      },
      {
        "displayName": "Thaï Express (North America)",
        "id": "thaiexpress-597726",
        "locationSet": {"include": ["ca", "us"]},
        "matchNames": ["thai express"],
        "nomatch": [
          "amenity/fast_food|Thai Express~(Singapore)"
        ],
        "oldid": "amenity/fast_food|Thaï Express~(North America)",
        "tags": {
          "amenity": "fast_food",
          "brand": "Thaï Express",
          "brand:wikidata": "Q7711610",
          "brand:wikipedia": "en:Thaï Express",
          "cuisine": "thai",
          "name": "Thaï Express",
          "takeaway": "yes"
        }
      },
      {
        "displayName": "The Chicken Rice Shop",
        "id": "thechickenriceshop-45fdb7",
        "locationSet": {"include": ["001"]},
        "oldid": "amenity/fast_food|The Chicken Rice Shop",
        "tags": {
          "amenity": "fast_food",
          "brand": "The Chicken Rice Shop",
          "brand:wikidata": "Q7722411",
          "cuisine": "malaysian;chicken_rice",
          "diet:halal": "yes",
          "name": "The Chicken Rice Shop",
          "takeaway": "yes"
        }
      },
      {
        "displayName": "The Habit Burger Grill",
        "id": "thehabitburgergrill-bc6fd8",
        "locationSet": {"include": ["us"]},
        "matchNames": ["the habit burger"],
        "oldid": "amenity/fast_food|The Habit Burger Grill",
        "tags": {
          "alt_name": "Habit Burger Grill",
          "amenity": "fast_food",
          "brand": "The Habit Burger Grill",
          "brand:wikidata": "Q18158741",
          "brand:wikipedia": "en:The Habit Burger Grill",
          "cuisine": "burger",
          "name": "The Habit Burger Grill",
          "short_name": "Habit Burger",
          "takeaway": "yes"
        }
      },
      {
        "displayName": "The Pizza Company",
        "id": "thepizzacompany-4b6f94",
        "locationSet": {
          "include": [
            "ae",
            "bh",
            "cn",
            "jo",
            "kh",
            "la",
            "mm",
            "my",
            "sa",
            "th",
            "vn"
          ]
        },
        "oldid": "amenity/fast_food|The Pizza Company",
        "tags": {
          "alt_name": "Pizza Company",
          "amenity": "fast_food",
          "brand": "The Pizza Company",
          "brand:wikidata": "Q2413520",
          "brand:wikipedia": "en:The Pizza Company",
          "cuisine": "pizza",
          "name": "The Pizza Company",
          "takeaway": "yes"
        }
      },
      {
        "displayName": "Togo's",
        "id": "togos-bc6fd8",
        "locationSet": {"include": ["us"]},
        "oldid": "amenity/fast_food|Togo's",
        "tags": {
          "amenity": "fast_food",
          "brand": "Togo's",
          "brand:wikidata": "Q3530375",
          "brand:wikipedia": "en:Togo's",
          "cuisine": "sandwich",
          "name": "Togo's",
          "takeaway": "yes"
        }
      },
      {
        "displayName": "Tropical Smoothie Cafe",
        "id": "tropicalsmoothiecafe-bc6fd8",
        "locationSet": {"include": ["us"]},
        "oldid": "amenity/fast_food|Tropical Smoothie Cafe",
        "tags": {
          "amenity": "fast_food",
          "brand": "Tropical Smoothie Cafe",
          "brand:wikidata": "Q7845817",
          "brand:wikipedia": "en:Tropical Smoothie Cafe",
          "cuisine": "juice",
          "name": "Tropical Smoothie Cafe",
          "takeaway": "yes"
        }
      },
      {
        "displayName": "Tudor's Biscuit World",
        "id": "tudorsbiscuitworld-bc6fd8",
        "locationSet": {"include": ["us"]},
        "oldid": "amenity/fast_food|Tudor's Biscuit World",
        "tags": {
          "amenity": "fast_food",
          "brand": "Tudor's Biscuit World",
          "brand:wikidata": "Q7851262",
          "brand:wikipedia": "en:Tudor's Biscuit World",
          "cuisine": "american",
          "name": "Tudor's Biscuit World",
          "takeaway": "yes"
        }
      },
      {
        "displayName": "Upper Crust",
        "id": "uppercrust-da6437",
        "locationSet": {
          "include": [
            "de",
            "dk",
            "eg",
            "es",
            "fi",
            "gb",
            "ie",
            "no",
            "se"
          ]
        },
        "oldid": "amenity/fast_food|Upper Crust",
        "tags": {
          "amenity": "fast_food",
          "brand": "Upper Crust",
          "brand:wikidata": "Q7898585",
          "brand:wikipedia": "en:Upper Crust (restaurant chain)",
          "cuisine": "sandwich",
          "name": "Upper Crust",
          "takeaway": "yes"
        }
      },
      {
        "displayName": "Valentine",
        "id": "valentine-1a4275",
        "locationSet": {"include": ["ca"]},
        "oldid": "amenity/fast_food|Valentine",
        "tags": {
          "amenity": "fast_food",
          "brand": "Valentine",
          "brand:wikidata": "Q3553635",
          "brand:wikipedia": "fr:Valentine (restaurant)",
          "cuisine": "burger",
          "name": "Valentine",
          "takeaway": "yes"
        }
      },
      {
        "displayName": "Veggie Grill",
        "id": "veggiegrill-bc6fd8",
        "locationSet": {"include": ["us"]},
        "oldid": "amenity/fast_food|Veggie Grill",
        "tags": {
          "amenity": "fast_food",
          "brand": "Veggie Grill",
          "brand:wikidata": "Q18636427",
          "brand:wikipedia": "en:Veggie Grill",
          "cuisine": "american",
          "diet:vegan": "only",
          "name": "Veggie Grill",
          "takeaway": "yes"
        }
      },
      {
        "displayName": "Villa Madina",
        "id": "villamadina-1a4275",
        "locationSet": {"include": ["ca"]},
        "oldid": "amenity/fast_food|Villa Madina",
        "tags": {
          "amenity": "fast_food",
          "brand": "Villa Madina",
          "brand:wikidata": "Q64876884",
          "cuisine": "mediterranean",
          "name": "Villa Madina",
          "takeaway": "yes"
        }
      },
      {
        "displayName": "Wahoo's Fish Taco",
        "id": "wahoosfishtaco-bc6fd8",
        "locationSet": {"include": ["us"]},
        "oldid": "amenity/fast_food|Wahoo's Fish Taco",
        "tags": {
          "amenity": "fast_food",
          "brand": "Wahoo's Fish Taco",
          "brand:wikidata": "Q7959827",
          "brand:wikipedia": "en:Wahoo's Fish Taco",
          "cuisine": "seafood",
          "name": "Wahoo's Fish Taco",
          "short_name": "Wahoo's",
          "takeaway": "yes"
        }
      },
      {
        "displayName": "Wayback Burgers",
        "id": "waybackburgers-45fdb7",
        "locationSet": {"include": ["001"]},
        "oldid": "amenity/fast_food|Wayback Burgers",
        "tags": {
          "amenity": "fast_food",
          "brand": "Wayback Burgers",
          "brand:wikidata": "Q16997570",
          "brand:wikipedia": "en:Wayback Burgers",
          "cuisine": "burger",
          "name": "Wayback Burgers",
          "takeaway": "yes"
        }
      },
      {
        "displayName": "Wendy's",
        "id": "wendys-45fdb7",
        "locationSet": {"include": ["001"]},
        "oldid": "amenity/fast_food|Wendy's",
        "tags": {
          "amenity": "fast_food",
          "brand": "Wendy's",
          "brand:wikidata": "Q550258",
          "brand:wikipedia": "en:Wendy's",
          "cuisine": "burger",
          "name": "Wendy's",
          "takeaway": "yes"
        }
      },
      {
        "displayName": "West Cornwall Pasty Co.",
        "id": "westcornwallpastyco-ac6a6a",
        "locationSet": {"include": ["gb"]},
        "oldid": "amenity/fast_food|West Cornwall Pasty Co.",
        "tags": {
          "amenity": "fast_food",
          "brand": "West Cornwall Pasty Co.",
          "brand:wikidata": "Q7774268",
          "brand:wikipedia": "en:The West Cornwall Pasty Company",
          "cuisine": "pasty",
          "name": "West Cornwall Pasty Co.",
          "takeaway": "yes"
        }
      },
      {
        "displayName": "Wetzel's Pretzels",
        "id": "wetzelspretzels-597726",
        "locationSet": {"include": ["ca", "us"]},
        "oldid": "amenity/fast_food|Wetzel's Pretzels",
        "tags": {
          "amenity": "fast_food",
          "brand": "Wetzel's Pretzels",
          "brand:wikidata": "Q7990205",
          "brand:wikipedia": "en:Wetzel's Pretzels",
          "cuisine": "pretzel",
          "name": "Wetzel's Pretzels",
          "takeaway": "yes"
        }
      },
      {
        "displayName": "Whataburger",
        "id": "whataburger-bc6fd8",
        "locationSet": {"include": ["us"]},
        "oldid": "amenity/fast_food|Whataburger",
        "tags": {
          "amenity": "fast_food",
          "brand": "Whataburger",
          "brand:wikidata": "Q376627",
          "brand:wikipedia": "en:Whataburger",
          "cuisine": "burger",
          "name": "Whataburger",
          "takeaway": "yes"
        }
      },
      {
        "displayName": "Which Wich?",
        "id": "whichwich-42040c",
        "locationSet": {
          "include": [
            "ae",
            "gb",
            "gt",
            "mx",
            "om",
            "qa",
            "sa",
            "us"
          ]
        },
        "oldid": "amenity/fast_food|Which Wich?",
        "tags": {
          "amenity": "fast_food",
          "brand": "Which Wich?",
          "brand:wikidata": "Q7993556",
          "brand:wikipedia": "en:Which Wich?",
          "cuisine": "sandwich",
          "name": "Which Wich?",
          "takeaway": "yes"
        }
      },
      {
        "displayName": "White Castle",
        "id": "whitecastle-bc6fd8",
        "locationSet": {"include": ["us"]},
        "oldid": "amenity/fast_food|White Castle",
        "tags": {
          "amenity": "fast_food",
          "brand": "White Castle",
          "brand:wikidata": "Q1244034",
          "brand:wikipedia": "en:White Castle (restaurant)",
          "cuisine": "burger",
          "name": "White Castle",
          "takeaway": "yes"
        }
      },
      {
        "displayName": "Wienerschnitzel",
        "id": "wienerschnitzel-bc6fd8",
        "locationSet": {"include": ["us"]},
        "oldid": "amenity/fast_food|Wienerschnitzel",
        "tags": {
          "amenity": "fast_food",
          "brand": "Wienerschnitzel",
          "brand:wikidata": "Q324679",
          "brand:wikipedia": "en:Wienerschnitzel",
          "cuisine": "hot_dog",
          "name": "Wienerschnitzel",
          "takeaway": "yes"
        }
      },
      {
        "displayName": "Wimpy",
        "id": "wimpy-45fdb7",
        "locationSet": {"include": ["001"]},
        "oldid": "amenity/fast_food|Wimpy",
        "tags": {
          "amenity": "fast_food",
          "brand": "Wimpy",
          "brand:wikidata": "Q2811992",
          "brand:wikipedia": "en:Wimpy (restaurant)",
          "cuisine": "burger",
          "name": "Wimpy",
          "takeaway": "yes"
        }
      },
      {
        "displayName": "WingStreet",
        "id": "wingstreet-2f64ff",
        "locationSet": {
          "include": ["au", "ca", "cy", "us"]
        },
        "oldid": "amenity/fast_food|WingStreet",
        "tags": {
          "amenity": "fast_food",
          "brand": "WingStreet",
          "brand:wikidata": "Q946630",
          "brand:wikipedia": "en:WingStreet",
          "cuisine": "wings",
          "name": "WingStreet",
          "takeaway": "yes"
        }
      },
      {
        "displayName": "Wingstop",
        "id": "wingstop-150792",
        "locationSet": {"include": ["mx", "us"]},
        "oldid": "amenity/fast_food|Wingstop",
        "tags": {
          "amenity": "fast_food",
          "brand": "Wingstop",
          "brand:wikidata": "Q8025339",
          "brand:wikipedia": "en:Wingstop",
          "cuisine": "wings",
          "name": "Wingstop",
          "takeaway": "yes"
        }
      },
      {
        "displayName": "Xi'an Famous Foods",
        "id": "xianfamousfoods-bc6fd8",
        "locationSet": {"include": ["us"]},
        "oldid": "amenity/fast_food|Xi'an Famous Foods",
        "tags": {
          "amenity": "fast_food",
          "brand": "Xi'an Famous Foods",
          "brand:wikidata": "Q8044020",
          "brand:wikipedia": "en:Xi'an Famous Foods",
          "cuisine": "chinese",
          "name": "Xi'an Famous Foods",
          "takeaway": "yes"
        }
      },
      {
        "displayName": "Yellow Cab Pizza",
        "id": "yellowcabpizza-45fdb7",
        "locationSet": {"include": ["001"]},
        "oldid": "amenity/fast_food|Yellow Cab Pizza",
        "tags": {
          "amenity": "fast_food",
          "brand": "Yellow Cab Pizza",
          "brand:wikidata": "Q8051689",
          "brand:wikipedia": "en:Yellow Cab Pizza",
          "cuisine": "pizza",
          "name": "Yellow Cab Pizza",
          "takeaway": "yes"
        }
      },
      {
        "displayName": "Yoshinoya",
        "id": "yoshinoya-7dadae",
        "locationSet": {
          "include": [
            "id",
            "my",
            "ph",
            "sg",
            "us"
          ]
        },
        "oldid": "amenity/fast_food|Yoshinoya",
        "tags": {
          "amenity": "fast_food",
          "brand": "Yoshinoya",
          "brand:en": "Yoshinoya",
          "brand:wikidata": "Q776272",
          "brand:wikipedia": "ja:吉野家",
          "cuisine": "beef_bowl",
          "name": "Yoshinoya",
          "name:en": "Yoshinoya",
          "name:ja": "吉野家",
          "takeaway": "yes"
        }
      },
      {
        "displayName": "Zaxby's",
        "id": "zaxbys-bc6fd8",
        "locationSet": {"include": ["us"]},
        "oldid": "amenity/fast_food|Zaxby's",
        "tags": {
          "amenity": "fast_food",
          "brand": "Zaxby's",
          "brand:wikidata": "Q8067525",
          "brand:wikipedia": "en:Zaxby's",
          "cuisine": "chicken",
          "name": "Zaxby's",
          "official_name": "Zaxby's Chicken Fingers & Buffalo Wings",
          "takeaway": "yes"
        }
      },
      {
        "displayName": "Zippy's",
        "id": "zippys-bc6fd8",
        "locationSet": {"include": ["us"]},
        "oldid": "amenity/fast_food|Zippy's",
        "tags": {
          "amenity": "fast_food",
          "brand": "Zippy's",
          "brand:wikidata": "Q8072671",
          "brand:wikipedia": "en:Zippy's",
          "cuisine": "hawaiian;japanese;chinese;american",
          "name": "Zippy's",
          "takeaway": "yes"
        }
      },
      {
        "displayName": "Zoës Kitchen",
        "id": "zoeskitchen-bc6fd8",
        "locationSet": {"include": ["us"]},
        "oldid": "amenity/fast_food|Zoës Kitchen",
        "tags": {
          "amenity": "fast_food",
          "brand": "Zoës Kitchen",
          "brand:wikidata": "Q8074747",
          "brand:wikipedia": "en:Zoës Kitchen",
          "cuisine": "mediterranean",
          "name": "Zoës Kitchen",
          "takeaway": "yes"
        }
      },
      {
        "displayName": "immergrün",
        "id": "immergrun-5e3731",
        "locationSet": {"include": ["de"]},
        "matchNames": ["immergün"],
        "oldid": "amenity/fast_food|immergrün",
        "tags": {
          "amenity": "fast_food",
          "brand": "immergrün",
          "brand:wikidata": "Q62589254",
          "cuisine": "sandwich;salad;juice",
          "name": "immergrün",
          "takeaway": "yes"
        }
      },
      {
        "displayName": "itsu",
        "id": "itsu-5236ea",
        "locationSet": {"include": ["gb", "us"]},
        "oldid": "amenity/fast_food|itsu",
        "tags": {
          "amenity": "fast_food",
          "brand": "itsu",
          "brand:wikidata": "Q6094914",
          "brand:wikipedia": "en:Itsu",
          "cuisine": "asian",
          "name": "itsu",
          "takeaway": "yes"
        }
      },
      {
        "displayName": "Γρηγόρης",
        "id": "γpηγόpης-d9fbdc",
        "locationSet": {"include": ["gr"]},
        "oldid": "amenity/fast_food|Γρηγόρης",
        "tags": {
          "amenity": "fast_food",
          "brand": "Γρηγόρης",
          "brand:el": "Γρηγόρης",
          "brand:en": "Gregorys",
          "brand:wikidata": "Q62273834",
          "cuisine": "sandwich",
          "name": "Γρηγόρης",
          "name:el": "Γρηγόρης",
          "name:en": "Gregorys",
          "takeaway": "yes"
        }
      },
      {
        "displayName": "Бургер Кинг",
        "id": "бургеркинг-6d97f2",
        "locationSet": {
          "include": ["by", "kz", "ru"]
        },
        "oldid": "amenity/fast_food|Бургер Кинг",
        "tags": {
          "amenity": "fast_food",
          "brand": "Бургер Кинг",
          "brand:en": "Burger King",
          "brand:ru": "Бургер Кинг",
          "brand:wikidata": "Q177054",
          "brand:wikipedia": "en:Burger King",
          "cuisine": "burger",
          "name": "Бургер Кинг",
          "name:en": "Burger King",
          "name:ru": "Бургер Кинг",
          "takeaway": "yes"
        }
      },
      {
        "displayName": "Додо Пицца",
        "id": "додопицца-85ad7e",
        "locationSet": {"include": ["ru"]},
        "oldid": "amenity/fast_food|Додо Пицца",
        "tags": {
          "amenity": "fast_food",
          "brand": "Додо Пицца",
          "brand:en": "Dodo Pizza",
          "brand:ru": "Додо Пицца",
          "brand:wikidata": "Q61949318",
          "brand:wikipedia": "ru:Додо Пицца",
          "cuisine": "pizza",
          "name": "Додо Пицца",
          "name:en": "Dodo Pizza",
          "name:ru": "Додо Пицца",
          "takeaway": "yes"
        }
      },
      {
        "displayName": "Домино'c",
        "id": "доминоc-45fdb7",
        "locationSet": {"include": ["001"]},
        "matchNames": ["доминоc пицца"],
        "oldid": "amenity/fast_food|Домино'c",
        "tags": {
          "amenity": "fast_food",
          "brand": "Домино'c",
          "brand:en": "Domino's",
          "brand:ru": "Домино'c",
          "brand:wikidata": "Q839466",
          "brand:wikipedia": "ru:Domino’s Pizza",
          "cuisine": "pizza",
          "name": "Домино'c",
          "name:en": "Domino's",
          "name:ru": "Домино'c",
          "takeaway": "yes"
        }
      },
      {
        "displayName": "Крошка Картошка",
        "id": "крошкакартошка-85ad7e",
        "locationSet": {"include": ["ru"]},
        "oldid": "amenity/fast_food|Крошка Картошка",
        "tags": {
          "amenity": "fast_food",
          "brand": "Крошка Картошка",
          "brand:en": "Kroshka Kartoshka",
          "brand:ru": "Крошка Картошка",
          "brand:wikidata": "Q4241838",
          "brand:wikipedia": "ru:Крошка Картошка",
          "cuisine": "potato",
          "name": "Крошка Картошка",
          "name:en": "Kroshka Kartoshka",
          "name:ru": "Крошка Картошка",
          "takeaway": "yes"
        }
      },
      {
        "displayName": "Макдоналдс",
        "id": "макдонаnдс-45fdb7",
        "locationSet": {"include": ["001"]},
        "oldid": "amenity/fast_food|Макдоналдс",
        "tags": {
          "amenity": "fast_food",
          "brand": "Макдоналдс",
          "brand:en": "McDonald's",
          "brand:ru": "Макдоналдс",
          "brand:wikidata": "Q38076",
          "brand:wikipedia": "en:McDonald's",
          "cuisine": "burger",
          "name": "Макдоналдс",
          "name:en": "McDonald's",
          "name:ru": "Макдоналдс",
          "takeaway": "yes"
        }
      },
      {
        "displayName": "Папа Джонс",
        "id": "пападжонс-d19a31",
        "locationSet": {"include": ["by", "ru"]},
        "oldid": "amenity/fast_food|Папа Джонс",
        "tags": {
          "amenity": "fast_food",
          "brand": "Папа Джонс",
          "brand:en": "Papa John's",
          "brand:ru": "Папа Джонс",
          "brand:wikidata": "Q2759586",
          "brand:wikipedia": "ru:Papa John’s",
          "cuisine": "pizza",
          "name": "Папа Джонс",
          "name:en": "Papa John's",
          "name:ru": "Папа Джонс",
          "takeaway": "yes"
        }
      },
      {
        "displayName": "Пузата хата",
        "id": "пузатахата-85ad7e",
        "locationSet": {"include": ["ru"]},
        "matchTags": [
          "amenity/cafe",
          "amenity/restaurant"
        ],
        "oldid": "amenity/fast_food|Пузата хата",
        "tags": {
          "amenity": "fast_food",
          "brand": "Пузата Хата",
          "brand:en": "Puzata hata",
          "brand:ru": "Пузата Хата",
          "brand:uk": "Пузата Хата",
          "brand:wikidata": "Q11832009",
          "brand:wikipedia": "uk:Пузата Хата",
          "cuisine": "ukrainian;western",
          "name": "Пузата Хата",
          "name:en": "Puzata hata",
          "name:ru": "Пузата Хата",
          "name:uk": "Пузата Хата",
          "takeaway": "yes"
        }
      },
      {
        "displayName": "Робин Сдобин",
        "id": "робинсдобин-85ad7e",
        "locationSet": {"include": ["ru"]},
        "oldid": "amenity/fast_food|Робин Сдобин",
        "tags": {
          "amenity": "fast_food",
          "brand": "Робин Сдобин",
          "brand:en": "Robins Dobin",
          "brand:ru": "Робин Сдобин",
          "brand:wikidata": "Q62273880",
          "cuisine": "burger",
          "name": "Робин Сдобин",
          "name:en": "Robins Dobin",
          "name:ru": "Робин Сдобин",
          "takeaway": "yes"
        }
      },
      {
        "displayName": "Русский Аппетит",
        "id": "русскийаппетит-85ad7e",
        "locationSet": {"include": ["ru"]},
        "oldid": "amenity/fast_food|Русский Аппетит",
        "tags": {
          "amenity": "fast_food",
          "brand": "Русский Аппетит",
          "brand:en": "Russkiy Appetit",
          "brand:ru": "Русский Аппетит",
          "brand:wikidata": "Q62086063",
          "cuisine": "sandwich;salad;regional",
          "name": "Русский Аппетит",
          "name:en": "Russkiy Appetit",
          "name:ru": "Русский Аппетит",
          "takeaway": "yes"
        }
      },
      {
        "displayName": "Стардог!s",
        "id": "стардогs-85ad7e",
        "locationSet": {"include": ["ru"]},
        "oldid": "amenity/fast_food|Стардог!s",
        "tags": {
          "amenity": "fast_food",
          "brand": "Стардог!s",
          "brand:en": "Stardog!s",
          "brand:ru": "Стардог!s",
          "brand:wikidata": "Q4439856",
          "brand:wikipedia": "ru:Стардогс",
          "cuisine": "sausage",
          "name": "Стардог!s",
          "name:en": "Stardog!s",
          "name:ru": "Стардог!s",
          "takeaway": "yes"
        }
      },
      {
        "displayName": "Суши Wok",
        "id": "сушиwok-4aad29",
        "locationSet": {"include": ["ru", "ua"]},
        "matchTags": ["shop/convenience"],
        "oldid": "amenity/fast_food|Суши Wok",
        "tags": {
          "amenity": "fast_food",
          "brand": "Суши Wok",
          "brand:en": "Sushi Wok",
          "brand:ru": "Суши Wok",
          "brand:wikidata": "Q25444754",
          "brand:wikipedia": "uk:Суши Wok (мережа магазинів)",
          "cuisine": "asian",
          "name": "Суши Wok",
          "name:en": "Sushi Wok",
          "name:ru": "Суши Wok",
          "takeaway": "yes"
        }
      },
      {
        "displayName": "Теремок",
        "id": "теремок-85ad7e",
        "locationSet": {"include": ["ru"]},
        "matchTags": ["shop/convenience"],
        "oldid": "amenity/fast_food|Теремок",
        "tags": {
          "amenity": "fast_food",
          "brand": "Теремок",
          "brand:en": "Teremok",
          "brand:ru": "Теремок",
          "brand:wikidata": "Q4455593",
          "brand:wikipedia": "ru:Теремок (сеть быстрого питания)",
          "cuisine": "crepe;russian",
          "name": "Теремок",
          "name:en": "Teremok",
          "name:ru": "Теремок",
          "takeaway": "yes"
        }
      },
      {
        "displayName": "Чебуречная",
        "id": "чебуречная-c19d74",
        "locationSet": {
          "include": ["by", "ru", "ua"]
        },
        "oldid": "amenity/fast_food|Чебуречная",
        "tags": {
          "amenity": "fast_food",
          "brand": "Чебуречная",
          "cuisine": "uzbek;russian",
          "name": "Чебуречная",
          "takeaway": "yes"
        }
      },
      {
        "displayName": "אגדיר",
        "id": "אגדיר-a52fd8",
        "locationSet": {"include": ["il"]},
        "oldid": "amenity/fast_food|אגדיר",
        "tags": {
          "amenity": "fast_food",
          "brand": "אגדיר",
          "brand:en": "Agadir",
          "brand:he": "אגדיר",
          "brand:wikidata": "Q64760070",
          "cuisine": "burger",
          "name": "אגדיר",
          "name:en": "Agadir",
          "name:he": "אגדיר",
          "takeaway": "yes"
        }
      },
      {
        "displayName": "מקדונלד'ס",
        "id": "מקדונלדס-a52fd8",
        "locationSet": {"include": ["il"]},
        "oldid": "amenity/fast_food|מקדונלד'ס",
        "tags": {
          "amenity": "fast_food",
          "brand": "מקדונלד'ס",
          "brand:en": "McDonald's",
          "brand:he": "מקדונלד'ס",
          "brand:wikidata": "Q12061542",
          "brand:wikipedia": "en:McDonald's Israel",
          "cuisine": "burger",
          "name": "מקדונלד'ס",
          "name:en": "McDonald's",
          "name:he": "מקדונלד'ס",
          "takeaway": "yes"
        }
      },
      {
        "displayName": "עד העצם אקספרס",
        "id": "עדהעצםאקספרס-a52fd8",
        "locationSet": {"include": ["il"]},
        "oldid": "amenity/fast_food|עד העצם אקספרס",
        "tags": {
          "amenity": "fast_food",
          "brand": "עד העצם אקספרס",
          "brand:en": "Ad Haetzem Express",
          "brand:he": "עד העצם אקספרס",
          "brand:wikidata": "Q64760165",
          "cuisine": "burger",
          "name": "עד העצם אקספרס",
          "name:en": "Ad Haetzem Express",
          "name:he": "עד העצם אקספרס",
          "takeaway": "yes"
        }
      },
      {
        "displayName": "دجاج كنتاكي",
        "id": "دجاجكنتاكي-45fdb7",
        "locationSet": {"include": ["001"]},
        "oldid": "amenity/fast_food|دجاج كنتاكي",
        "tags": {
          "amenity": "fast_food",
          "brand": "دجاج كنتاكي",
          "brand:ar": "دجاج كنتاكي",
          "brand:en": "KFC",
          "brand:wikidata": "Q524757",
          "brand:wikipedia": "ar:دجاج كنتاكي",
          "cuisine": "chicken",
          "name": "دجاج كنتاكي",
          "name:ar": "دجاج كنتاكي",
          "name:en": "KFC",
          "takeaway": "yes"
        }
      },
      {
        "displayName": "ماكدونالدز",
        "id": "ماكدونالدز-45fdb7",
        "locationSet": {"include": ["001"]},
        "oldid": "amenity/fast_food|ماكدونالدز",
        "tags": {
          "amenity": "fast_food",
          "brand": "ماكدونالدز",
          "brand:ar": "ماكدونالدز",
          "brand:en": "McDonald's",
          "brand:wikidata": "Q38076",
          "brand:wikipedia": "ar:ماكدونالدز",
          "cuisine": "burger",
          "name": "ماكدونالدز",
          "name:ar": "ماكدونالدز",
          "name:en": "McDonald's",
          "takeaway": "yes"
        }
      },
      {
        "displayName": "هرفي",
        "id": "هرفي-bb032e",
        "locationSet": {
          "include": ["ae", "bh", "kw", "sa"]
        },
        "oldid": "amenity/fast_food|هرفي",
        "tags": {
          "amenity": "fast_food",
          "brand": "هرفي",
          "brand:ar": "هرفي",
          "brand:en": "Herfy",
          "brand:wikidata": "Q5738371",
          "brand:wikipedia": "ar:هرفي",
          "cuisine": "burger",
          "name": "هرفي",
          "name:ar": "هرفي",
          "name:en": "Herfy",
          "takeaway": "yes"
        }
      },
      {
        "displayName": "かっぱ寿司",
        "id": "かっぱ寿司-86438d",
        "locationSet": {"include": ["jp"]},
        "oldid": "amenity/fast_food|かっぱ寿司",
        "tags": {
          "amenity": "fast_food",
          "brand": "かっぱ寿司",
          "brand:en": "Kappazushi",
          "brand:ja": "かっぱ寿司",
          "brand:wikidata": "Q11263916",
          "brand:wikipedia": "ja:かっぱ寿司",
          "cuisine": "sushi",
          "name": "かっぱ寿司",
          "name:en": "Kappazushi",
          "name:ja": "かっぱ寿司",
          "takeaway": "yes"
        }
      },
      {
        "displayName": "かつや",
        "id": "かつや-86438d",
        "locationSet": {"include": ["jp"]},
        "oldid": "amenity/fast_food|かつや",
        "tags": {
          "amenity": "fast_food",
          "brand": "かつや",
          "brand:en": "Katsuya",
          "brand:ja": "かつや",
          "brand:wikidata": "Q2855257",
          "brand:wikipedia": "ja:かつや",
          "cuisine": "fried_food",
          "name": "かつや",
          "name:en": "Katsuya",
          "name:ja": "かつや",
          "name:ko": "카쯔야",
          "name:zh": "吉豚屋",
          "takeaway": "yes"
        }
      },
      {
        "displayName": "くら寿司",
        "id": "くら寿司-86438d",
        "locationSet": {"include": ["jp"]},
        "oldid": "amenity/fast_food|くら寿司",
        "tags": {
          "alt_name:en": "Kurazushi",
          "amenity": "fast_food",
          "brand": "くら寿司",
          "brand:en": "Kura Sushi",
          "brand:ja": "くら寿司",
          "brand:wikidata": "Q6445491",
          "brand:wikipedia": "ja:くら寿司",
          "cuisine": "sushi",
          "name": "くら寿司",
          "name:en": "Kura Sushi",
          "name:ja": "くら寿司",
          "official_name": "無添くら寿司",
          "official_name:en": "Muten Kura Sushi",
          "official_name:ja": "無添くら寿司",
          "takeaway": "yes"
        }
      },
      {
        "displayName": "すき家",
        "id": "すき家-86438d",
        "locationSet": {"include": ["jp"]},
        "oldid": "amenity/fast_food|すき家",
        "tags": {
          "amenity": "fast_food",
          "brand": "すき家",
          "brand:en": "Sukiya",
          "brand:ja": "すき家",
          "brand:wikidata": "Q6137375",
          "brand:wikipedia": "ja:すき家",
          "cuisine": "beef_bowl",
          "name": "すき家",
          "name:en": "Sukiya",
          "name:ja": "すき家",
          "takeaway": "yes"
        }
      },
      {
        "displayName": "ちよだ鮨",
        "id": "ちよだ鮨-86438d",
        "locationSet": {"include": ["jp"]},
        "matchTags": ["shop/deli"],
        "oldid": "amenity/fast_food|ちよだ鮨",
        "tags": {
          "amenity": "fast_food",
          "brand": "ちよだ鮨",
          "brand:en": "Chiyoda Sushi",
          "brand:ja": "ちよだ鮨",
          "brand:wikidata": "Q11272065",
          "brand:wikipedia": "ja:ちよだ鮨",
          "cuisine": "sushi",
          "name": "ちよだ鮨",
          "name:en": "Chiyoda Sushi",
          "name:ja": "ちよだ鮨",
          "takeaway": "only"
        }
      },
      {
        "displayName": "てんや",
        "id": "てんや-86438d",
        "locationSet": {"include": ["jp"]},
        "oldid": "amenity/fast_food|てんや",
        "tags": {
          "amenity": "fast_food",
          "brand": "てんや",
          "brand:en": "Tenya",
          "brand:ja": "てんや",
          "brand:wikidata": "Q11319830",
          "brand:wikipedia": "ja:テンコーポレーション",
          "cuisine": "fries",
          "name": "てんや",
          "name:en": "Tenya",
          "name:ja": "てんや",
          "official_name": "天丼てんや",
          "official_name:en": "Tendon Tenya",
          "official_name:ja": "天丼てんや",
          "takeaway": "yes"
        }
      },
      {
        "displayName": "どんどん亭",
        "id": "どんどん亭-86438d",
        "locationSet": {"include": ["jp"]},
        "oldid": "amenity/fast_food|どんどん亭",
        "tags": {
          "amenity": "fast_food",
          "brand": "どんどん亭",
          "brand:en": "Dondontei",
          "brand:ja": "どんどん亭",
          "brand:wikidata": "Q96101856",
          "cuisine": "japanese",
          "name": "どんどん亭",
          "name:en": "Dondontei",
          "name:ja": "どんどん亭",
          "takeaway": "yes"
        }
      },
      {
        "displayName": "なか卯",
        "id": "なか卯-86438d",
        "locationSet": {"include": ["jp"]},
        "oldid": "amenity/fast_food|なか卯",
        "tags": {
          "amenity": "fast_food",
          "brand": "なか卯",
          "brand:en": "Nakau",
          "brand:ja": "なか卯",
          "brand:wikidata": "Q11274132",
          "brand:wikipedia": "ja:なか卯",
          "cuisine": "udon",
          "name": "なか卯",
          "name:en": "Nakau",
          "name:ja": "なか卯",
          "takeaway": "yes"
        }
      },
      {
        "displayName": "はま寿司",
        "id": "はま寿司-86438d",
        "locationSet": {"include": ["jp"]},
        "oldid": "amenity/fast_food|はま寿司",
        "tags": {
          "amenity": "fast_food",
          "brand": "はま寿司",
          "brand:en": "Hamazushi",
          "brand:ja": "はま寿司",
          "brand:wikidata": "Q17220385",
          "brand:wikipedia": "ja:はま寿司",
          "cuisine": "sushi",
          "name": "はま寿司",
          "name:en": "Hamazushi",
          "name:ja": "はま寿司",
          "takeaway": "yes"
        }
      },
      {
        "displayName": "ほっかほっか亭",
        "id": "ほっかほっか亭-86438d",
        "locationSet": {"include": ["jp"]},
        "oldid": "amenity/fast_food|ほっかほっか亭",
        "tags": {
          "amenity": "fast_food",
          "brand": "ほっかほっか亭",
          "brand:en": "Hokka Hokka Tei",
          "brand:ja": "ほっかほっか亭",
          "brand:wikidata": "Q5878035",
          "brand:wikipedia": "ja:ほっかほっか亭",
          "cuisine": "japanese",
          "name": "ほっかほっか亭",
          "name:en": "Hokka Hokka Tei",
          "name:ja": "ほっかほっか亭",
          "takeaway": "yes"
        }
      },
      {
        "displayName": "ほっともっと",
        "id": "ほっともっと-86438d",
        "locationSet": {"include": ["jp"]},
        "nomatch": ["shop/deli|ほっともっと"],
        "oldid": "amenity/fast_food|ほっともっと",
        "tags": {
          "amenity": "fast_food",
          "brand": "ほっともっと",
          "brand:en": "Hotto Motto",
          "brand:ja": "ほっともっと",
          "brand:wikidata": "Q10850949",
          "brand:wikipedia": "ja:ほっともっと",
          "cuisine": "japanese",
          "name": "ほっともっと",
          "name:en": "Hotto Motto",
          "name:ja": "ほっともっと",
          "takeaway": "yes"
        }
      },
      {
        "displayName": "ゆで太郎",
        "id": "ゆで太郎-86438d",
        "locationSet": {"include": ["jp"]},
        "oldid": "amenity/fast_food|ゆで太郎",
        "tags": {
          "amenity": "fast_food",
          "brand": "ゆで太郎",
          "brand:en": "Yudetaro",
          "brand:ja": "ゆで太郎",
          "brand:wikidata": "Q11280824",
          "brand:wikipedia": "ja:ゆで太郎",
          "cuisine": "noodle",
          "name": "ゆで太郎",
          "name:en": "Yudetaro",
          "name:ja": "ゆで太郎",
          "takeaway": "yes"
        }
      },
      {
        "displayName": "ウェンディーズ",
        "id": "ウェンディーズ-86438d",
        "locationSet": {"include": ["jp"]},
        "oldid": "amenity/fast_food|ウェンディーズ",
        "tags": {
          "amenity": "fast_food",
          "brand": "ウェンディーズ",
          "brand:en": "Wendy's",
          "brand:ja": "ウェンディーズ",
          "brand:wikidata": "Q550258",
          "brand:wikipedia": "en:Wendy's",
          "cuisine": "burger",
          "name": "ウェンディーズ",
          "name:en": "Wendy's",
          "name:ja": "ウェンディーズ",
          "takeaway": "yes"
        }
      },
      {
        "displayName": "オリジン弁当",
        "id": "オリジン弁当-86438d",
        "locationSet": {"include": ["jp"]},
        "oldid": "amenity/fast_food|オリジン弁当",
        "tags": {
          "amenity": "fast_food",
          "brand": "オリジン弁当",
          "brand:en": "Origin Bentō",
          "brand:ja": "オリジン弁当",
          "brand:wikidata": "Q11292632",
          "brand:wikipedia": "ja:オリジン東秀",
          "cuisine": "japanese",
          "name": "オリジン弁当",
          "name:en": "Origin Bentō",
          "name:ja": "オリジン弁当",
          "takeaway": "yes"
        }
      },
      {
        "displayName": "キッチンオリジン",
        "id": "キッチンオリジン-86438d",
        "locationSet": {"include": ["jp"]},
        "oldid": "amenity/fast_food|キッチンオリジン",
        "tags": {
          "amenity": "fast_food",
          "brand": "キッチンオリジン",
          "brand:en": "Kitchen Origin",
          "brand:ja": "キッチンオリジン",
          "brand:wikidata": "Q92658990",
          "cuisine": "japanese",
          "name": "キッチンオリジン",
          "name:en": "Kitchen Origin",
          "name:ja": "キッチンオリジン",
          "takeaway": "yes"
        }
      },
      {
        "displayName": "ケンタッキーフライドチキン",
        "id": "ケンタッキーフライドチキン-86438d",
        "locationSet": {"include": ["jp"]},
        "matchNames": ["ケンタッキー"],
        "oldid": "amenity/fast_food|ケンタッキーフライドチキン",
        "tags": {
          "alt_name:en": "Kentucky Fried Chicken",
          "amenity": "fast_food",
          "brand": "ケンタッキーフライドチキン",
          "brand:en": "KFC",
          "brand:ja": "ケンタッキーフライドチキン",
          "brand:wikidata": "Q524757",
          "brand:wikipedia": "ja:KFCコーポレーション",
          "cuisine": "chicken",
          "name": "ケンタッキーフライドチキン",
          "name:en": "KFC",
          "name:ja": "ケンタッキーフライドチキン",
          "takeaway": "yes"
        }
      },
      {
        "displayName": "ゴーゴーカレー",
        "id": "ゴーゴーカレー-86438d",
        "locationSet": {"include": ["jp"]},
        "oldid": "amenity/fast_food|ゴーゴーカレー",
        "tags": {
          "alt_name:en": "Go Go Curry",
          "amenity": "fast_food",
          "brand": "ゴーゴーカレー",
          "brand:en": "Go!Go!Curry",
          "brand:ja": "ゴーゴーカレー",
          "brand:wikidata": "Q11303801",
          "brand:wikipedia": "ja:ゴーゴーカレー",
          "cuisine": "curry",
          "name": "ゴーゴーカレー",
          "name:en": "Go!Go!Curry",
          "name:ja": "ゴーゴーカレー",
          "takeaway": "yes"
        }
      },
      {
        "displayName": "サブウェイ",
        "id": "サブウェイ-86438d",
        "locationSet": {"include": ["jp"]},
        "oldid": "amenity/fast_food|サブウェイ",
        "tags": {
          "amenity": "fast_food",
          "brand": "サブウェイ",
          "brand:en": "Subway",
          "brand:ja": "サブウェイ",
          "brand:wikidata": "Q244457",
          "brand:wikipedia": "ja:サブウェイ",
          "cuisine": "sandwich",
          "name": "サブウェイ",
          "name:en": "Subway",
          "name:ja": "サブウェイ",
          "takeaway": "yes"
        }
      },
      {
        "displayName": "スシロー",
        "id": "スシロー-86438d",
        "locationSet": {"include": ["jp"]},
        "oldid": "amenity/fast_food|スシロー",
        "tags": {
          "amenity": "fast_food",
          "brand": "スシロー",
          "brand:en": "Sushiro",
          "brand:ja": "スシロー",
          "brand:wikidata": "Q11257037",
          "brand:wikipedia": "ja:あきんどスシロー",
          "cuisine": "sushi",
          "name": "スシロー",
          "name:en": "Sushiro",
          "name:ja": "スシロー",
          "name:zh": "壽司郎",
          "official_name": "あきんどスシロー",
          "official_name:en": "Akindo Sushiro",
          "official_name:ja": "あきんどスシロー",
          "takeaway": "yes"
        }
      },
      {
        "displayName": "ドミノ",
        "id": "ドミノ-86438d",
        "locationSet": {"include": ["jp"]},
        "matchNames": ["ドミノ・ピザ"],
        "oldid": "amenity/fast_food|ドミノ",
        "tags": {
          "amenity": "fast_food",
          "brand": "ドミノ",
          "brand:en": "Domino's",
          "brand:ja": "ドミノ",
          "brand:wikidata": "Q839466",
          "brand:wikipedia": "ja:ドミノ・ピザ",
          "cuisine": "pizza",
          "name": "ドミノ",
          "name:en": "Domino's",
          "name:ja": "ドミノ",
          "takeaway": "yes"
        }
      },
      {
        "displayName": "バーガーキング",
        "id": "バーガーキング-86438d",
        "locationSet": {"include": ["jp"]},
        "oldid": "amenity/fast_food|バーガーキング",
        "tags": {
          "amenity": "fast_food",
          "brand": "バーガーキング",
          "brand:en": "Burger King",
          "brand:ja": "バーガーキング",
          "brand:wikidata": "Q177054",
          "brand:wikipedia": "en:Burger King",
          "cuisine": "burger",
          "name": "バーガーキング",
          "name:en": "Burger King",
          "name:ja": "バーガーキング",
          "takeaway": "yes"
        }
      },
      {
        "displayName": "ピザハット",
        "id": "ピザハット-86438d",
        "locationSet": {"include": ["jp"]},
        "oldid": "amenity/fast_food|ピザハット",
        "tags": {
          "amenity": "fast_food",
          "brand": "ピザハット",
          "brand:en": "Pizza Hut",
          "brand:ja": "ピザハット",
          "brand:wikidata": "Q191615",
          "brand:wikipedia": "ja:ピザハット",
          "cuisine": "pizza",
          "name": "ピザハット",
          "name:en": "Pizza Hut",
          "name:ja": "ピザハット",
          "takeaway": "yes"
        }
      },
      {
        "displayName": "ピザポケット",
        "id": "ピザポケット-86438d",
        "locationSet": {"include": ["jp"]},
        "oldid": "amenity/fast_food|ピザポケット",
        "tags": {
          "amenity": "fast_food",
          "brand": "ピザポケット",
          "brand:en": "Pizza Pocket's",
          "brand:ja": "ピザポケット",
          "brand:wikidata": "Q11331462",
          "brand:wikipedia": "ja:ピザポケット",
          "cuisine": "pizza",
          "name": "ピザポケット",
          "name:en": "Pizza Pocket's",
          "name:ja": "ピザポケット",
          "takeaway": "yes"
        }
      },
      {
        "displayName": "ピザ・カリフォルニア",
        "id": "ピザカリフォルニア-86438d",
        "locationSet": {"include": ["jp"]},
        "oldid": "amenity/fast_food|ピザ・カリフォルニア",
        "tags": {
          "amenity": "fast_food",
          "brand": "ピザ・カリフォルニア",
          "brand:en": "Pizza California",
          "brand:ja": "ピザ・カリフォルニア",
          "brand:wikidata": "Q75324",
          "brand:wikipedia": "ja:ピザ・カリフォルニア",
          "cuisine": "pizza",
          "name": "ピザ・カリフォルニア",
          "name:en": "Pizza California",
          "name:ja": "ピザ・カリフォルニア",
          "takeaway": "yes"
        }
      },
      {
        "displayName": "ピザーラ",
        "id": "ピザーラ-86438d",
        "locationSet": {"include": ["jp"]},
        "oldid": "amenity/fast_food|ピザーラ",
        "tags": {
          "amenity": "fast_food",
          "brand": "ピザーラ",
          "brand:en": "Pizza-La",
          "brand:ja": "ピザーラ",
          "brand:wikidata": "Q7199948",
          "brand:wikipedia": "ja:ピザーラ",
          "cuisine": "pizza",
          "name": "ピザーラ",
          "name:en": "Pizza-La",
          "name:ja": "ピザーラ",
          "takeaway": "yes"
        }
      },
      {
        "displayName": "ファーストキッチン",
        "id": "ファーストキッチン-86438d",
        "locationSet": {"include": ["jp"]},
        "oldid": "amenity/fast_food|ファーストキッチン",
        "tags": {
          "amenity": "fast_food",
          "brand": "ファーストキッチン",
          "brand:en": "First Kitchen",
          "brand:ja": "ファーストキッチン",
          "brand:wikidata": "Q5453133",
          "brand:wikipedia": "ja:ファーストキッチン",
          "cuisine": "friture",
          "name": "ファーストキッチン",
          "name:en": "First Kitchen",
          "name:ja": "ファーストキッチン",
          "takeaway": "yes"
        }
      },
      {
        "displayName": "フレッシュネスバーガー",
        "id": "フレッシュネスバーガー-86438d",
        "locationSet": {"include": ["jp"]},
        "oldid": "amenity/fast_food|フレッシュネスバーガー",
        "tags": {
          "amenity": "fast_food",
          "brand": "フレッシュネスバーガー",
          "brand:en": "Freshness Burger",
          "brand:ja": "フレッシュネスバーガー",
          "brand:wikidata": "Q5503087",
          "brand:wikipedia": "ja:フレッシュネスバーガー",
          "cuisine": "burger",
          "name": "フレッシュネスバーガー",
          "name:en": "Freshness Burger",
          "name:ja": "フレッシュネスバーガー",
          "takeaway": "yes"
        }
      },
      {
        "displayName": "マクドナルド",
        "id": "マクドナルド-86438d",
        "locationSet": {"include": ["jp"]},
        "oldid": "amenity/fast_food|マクドナルド",
        "tags": {
          "amenity": "fast_food",
          "brand": "マクドナルド",
          "brand:en": "McDonald's",
          "brand:ja": "マクドナルド",
          "brand:wikidata": "Q38076",
          "brand:wikipedia": "ja:マクドナルド",
          "cuisine": "burger",
          "name": "マクドナルド",
          "name:en": "McDonald's",
          "name:ja": "マクドナルド",
          "takeaway": "yes"
        }
      },
      {
        "displayName": "ミスタードーナツ",
        "id": "ミスタードーナツ-86438d",
        "locationSet": {"include": ["jp"]},
        "oldid": "amenity/fast_food|ミスタードーナツ",
        "tags": {
          "amenity": "fast_food",
          "brand": "ミスタードーナツ",
          "brand:en": "Mister Donut",
          "brand:ja": "ミスタードーナツ",
          "brand:wikidata": "Q1065819",
          "brand:wikipedia": "en:Mister Donut",
          "cuisine": "donut",
          "name": "ミスタードーナツ",
          "name:en": "Mister Donut",
          "name:ja": "ミスタードーナツ",
          "takeaway": "yes"
        }
      },
      {
        "displayName": "モスバーガー",
        "id": "モスバーガー-86438d",
        "locationSet": {"include": ["jp"]},
        "oldid": "amenity/fast_food|モスバーガー",
        "tags": {
          "amenity": "fast_food",
          "brand": "モスバーガー",
          "brand:en": "MOS Burger",
          "brand:ja": "モスバーガー",
          "brand:wikidata": "Q1204169",
          "brand:wikipedia": "ja:モスバーガー",
          "cuisine": "burger",
          "name": "モスバーガー",
          "name:en": "MOS Burger",
          "name:ja": "モスバーガー",
          "takeaway": "yes"
        }
      },
      {
        "displayName": "ラーメン二郎",
        "id": "ラーメン二郎-86438d",
        "locationSet": {"include": ["jp"]},
        "oldid": "amenity/fast_food|ラーメン二郎",
        "tags": {
          "amenity": "fast_food",
          "brand": "ラーメン二郎",
          "brand:en": "Ramen Jiro",
          "brand:ja": "ラーメン二郎",
          "brand:wikidata": "Q11347765",
          "brand:wikipedia": "ja:ラーメン二郎",
          "cuisine": "ramen",
          "name": "ラーメン二郎",
          "name:en": "Ramen Jiro",
          "name:ja": "ラーメン二郎",
          "takeaway": "yes"
        }
      },
      {
        "displayName": "ロッテリア",
        "id": "ロッテリア-86438d",
        "locationSet": {"include": ["jp"]},
        "oldid": "amenity/fast_food|ロッテリア",
        "tags": {
          "amenity": "fast_food",
          "brand": "ロッテリア",
          "brand:en": "Lotteria",
          "brand:ja": "ロッテリア",
          "brand:wikidata": "Q249525",
          "brand:wikipedia": "ja:ロッテリア",
          "cuisine": "burger",
          "name": "ロッテリア",
          "name:en": "Lotteria",
          "name:ja": "ロッテリア",
          "takeaway": "yes"
        }
      },
      {
        "displayName": "吉野家",
        "id": "吉野家-dfe4f2",
        "locationSet": {
          "include": ["cn", "hk", "jp", "tw"]
        },
        "oldid": "amenity/fast_food|吉野家",
        "tags": {
          "amenity": "fast_food",
          "brand": "吉野家",
          "brand:en": "Yoshinoya",
          "brand:ja": "吉野家",
          "brand:wikidata": "Q776272",
          "brand:wikipedia": "ja:吉野家",
          "cuisine": "beef_bowl",
          "name": "吉野家",
          "name:en": "Yoshinoya",
          "name:ja": "吉野家",
          "takeaway": "yes"
        }
      },
      {
        "displayName": "富士そば",
        "id": "富士そば-86438d",
        "locationSet": {"include": ["jp"]},
        "oldid": "amenity/fast_food|富士そば",
        "tags": {
          "amenity": "fast_food",
          "brand": "富士そば",
          "brand:en": "Fuji Soba",
          "brand:ja": "富士そば",
          "brand:wikidata": "Q11414722",
          "brand:wikipedia": "ja:名代富士そば",
          "cuisine": "soba",
          "name": "富士そば",
          "name:en": "Fuji Soba",
          "name:ja": "富士そば",
          "takeaway": "yes"
        }
      },
      {
        "displayName": "小僧寿し",
        "id": "小僧寿し-86438d",
        "locationSet": {"include": ["jp"]},
        "matchNames": ["sushi花館", "小僧寿司"],
        "oldid": "amenity/fast_food|小僧寿し",
        "tags": {
          "amenity": "fast_food",
          "brand": "小僧寿し",
          "brand:en": "Kozosushi",
          "brand:ja": "小僧寿し",
          "brand:wikidata": "Q11459064",
          "brand:wikipedia": "ja:小僧寿し",
          "cuisine": "sushi",
          "name": "小僧寿し",
          "name:en": "Kozosushi",
          "name:ja": "小僧寿し",
          "takeaway": "yes"
        }
      },
      {
        "displayName": "幸楽苑",
        "id": "幸楽苑-86438d",
        "locationSet": {"include": ["jp"]},
        "oldid": "amenity/fast_food|幸楽苑",
        "tags": {
          "amenity": "fast_food",
          "brand": "幸楽苑",
          "brand:en": "Kourakuen",
          "brand:ja": "幸楽苑",
          "brand:wikidata": "Q11484003",
          "brand:wikipedia": "ja:幸楽苑",
          "cuisine": "ramen",
          "name": "幸楽苑",
          "name:en": "Kourakuen",
          "name:ja": "幸楽苑",
          "takeaway": "yes"
        }
      },
      {
        "displayName": "庆丰包子铺",
        "id": "庆丰包子铺-7c3186",
        "locationSet": {"include": ["cn"]},
        "oldid": "amenity/fast_food|庆丰包子铺",
        "tags": {
          "amenity": "fast_food",
          "brand": "庆丰包子铺",
          "brand:en": "Qingfeng Steamed Dumpling Shop",
          "brand:wikidata": "Q24841010",
          "brand:wikipedia": "zh:庆丰包子铺",
          "brand:zh": "庆丰包子铺",
          "cuisine": "chinese",
          "name": "庆丰包子铺",
          "name:en": "Qingfeng Steamed Dumpling Shop",
          "name:zh": "庆丰包子铺",
          "takeaway": "yes"
        }
      },
      {
        "displayName": "摩斯漢堡",
        "id": "摩斯漢堡-fa1be9",
        "locationSet": {
          "include": [
            "cn",
            "hk",
            "mo",
            "sg",
            "tw"
          ]
        },
        "oldid": "amenity/fast_food|摩斯漢堡",
        "tags": {
          "amenity": "fast_food",
          "brand": "摩斯漢堡",
          "brand:en": "MOS Burger",
          "brand:wikidata": "Q1204169",
          "brand:wikipedia": "zh:摩斯漢堡",
          "brand:zh": "摩斯漢堡",
          "cuisine": "burger",
          "name": "摩斯漢堡",
          "name:en": "MOS Burger",
          "name:zh": "摩斯漢堡",
          "takeaway": "yes"
        }
      },
      {
        "displayName": "日高屋",
        "id": "日高屋-86438d",
        "locationSet": {"include": ["jp"]},
        "oldid": "amenity/fast_food|日高屋",
        "tags": {
          "amenity": "fast_food",
          "brand": "日高屋",
          "brand:en": "Hidakaya",
          "brand:ja": "日高屋",
          "brand:wikidata": "Q11326050",
          "brand:wikipedia": "ja:ハイデイ日高",
          "cuisine": "noodle",
          "name": "日高屋",
          "name:en": "Hidakaya",
          "name:ja": "日高屋",
          "takeaway": "yes"
        }
      },
      {
        "displayName": "本家かまどや",
        "id": "本家かまどや-86438d",
        "locationSet": {"include": ["jp"]},
        "matchNames": ["かまどや"],
        "oldid": "amenity/fast_food|本家かまどや",
        "tags": {
          "alt_name": "かまどや",
          "amenity": "fast_food",
          "brand": "本家かまどや",
          "brand:en": "Honke Kamadoya",
          "brand:ja": "本家かまどや",
          "brand:wikidata": "Q11520140",
          "brand:wikipedia": "ja:本家かまどや",
          "cuisine": "japanese",
          "name": "本家かまどや",
          "name:en": "Honke Kamadoya",
          "name:ja": "本家かまどや",
          "takeaway": "yes"
        }
      },
      {
        "displayName": "松屋",
        "id": "松屋-351f2b",
        "locationSet": {
          "include": [
            "cn",
            "hk",
            "jp",
            "mo",
            "sg",
            "tw"
          ]
        },
        "oldid": "amenity/fast_food|松屋",
        "tags": {
          "amenity": "fast_food",
          "brand": "松屋",
          "brand:en": "Matsuya",
          "brand:ja": "松屋",
          "brand:wikidata": "Q848773",
          "brand:wikipedia": "ja:松屋フーズ",
          "cuisine": "japanese",
          "name": "松屋",
          "name:en": "Matsuya",
          "name:ja": "松屋",
          "official_name": "松屋フーズ",
          "official_name:en": "Matsuya Foods",
          "official_name:ja": "松屋フーズ",
          "takeaway": "yes"
        }
      },
      {
        "displayName": "永和大王",
        "id": "永和大王-7c3186",
        "locationSet": {"include": ["cn"]},
        "oldid": "amenity/fast_food|永和大王",
        "tags": {
          "amenity": "fast_food",
          "brand": "永和大王",
          "brand:wikidata": "Q8055004",
          "brand:wikipedia": "zh:永和大王",
          "cuisine": "chinese",
          "name": "永和大王",
          "takeaway": "yes"
        }
      },
      {
        "displayName": "汉堡王",
        "id": "汉堡王-7c3186",
        "locationSet": {"include": ["cn"]},
        "oldid": "amenity/fast_food|汉堡王",
        "tags": {
          "amenity": "fast_food",
          "brand": "汉堡王",
          "brand:en": "Burger King",
          "brand:wikidata": "Q177054",
          "brand:wikipedia": "zh:汉堡王",
          "brand:zh": "汉堡王",
          "cuisine": "burger",
          "name": "汉堡王",
          "name:en": "Burger King",
          "name:zh": "汉堡王",
          "takeaway": "yes"
        }
      },
      {
        "displayName": "真功夫",
        "id": "真功夫-7c3186",
        "locationSet": {"include": ["cn"]},
        "oldid": "amenity/fast_food|真功夫",
        "tags": {
          "amenity": "fast_food",
          "brand": "真功夫",
          "brand:en": "Kungfu",
          "brand:wikidata": "Q15909765",
          "brand:wikipedia": "zh:真功夫",
          "brand:zh": "真功夫",
          "cuisine": "chinese",
          "name": "真功夫",
          "name:en": "Kungfu",
          "name:zh": "真功夫",
          "takeaway": "yes"
        }
      },
      {
        "displayName": "箱根そば",
        "id": "箱根そば-86438d",
        "locationSet": {"include": ["jp"]},
        "oldid": "amenity/fast_food|箱根そば",
        "tags": {
          "amenity": "fast_food",
          "brand": "箱根そば",
          "brand:en": "Hakone Soba",
          "brand:ja": "箱根そば",
          "brand:wikidata": "Q11603345",
          "brand:wikipedia": "ja:箱根そば",
          "cuisine": "soba",
          "name": "箱根そば",
          "name:en": "Hakone Soba",
          "name:ja": "箱根そば",
          "takeaway": "yes"
        }
      },
      {
        "displayName": "築地銀だこ",
        "id": "築地銀だこ-86438d",
        "locationSet": {"include": ["jp"]},
        "oldid": "amenity/fast_food|築地銀だこ",
        "tags": {
          "amenity": "fast_food",
          "brand": "築地銀だこ",
          "brand:en": "Gindaco",
          "brand:ja": "築地銀だこ",
          "brand:wikidata": "Q11603490",
          "brand:wikipedia": "ja:築地銀だこ",
          "cuisine": "takoyaki",
          "name": "築地銀だこ",
          "name:en": "Gindaco",
          "name:ja": "築地銀だこ",
          "takeaway": "yes"
        }
      },
      {
        "displayName": "肯德基",
        "id": "肯德基-fa1be9",
        "locationSet": {
          "include": [
            "cn",
            "hk",
            "mo",
            "sg",
            "tw"
          ]
        },
        "oldid": "amenity/fast_food|肯德基",
        "tags": {
          "amenity": "fast_food",
          "brand": "肯德基",
          "brand:en": "KFC",
          "brand:wikidata": "Q524757",
          "brand:wikipedia": "zh:肯德基",
          "cuisine": "chicken",
          "name": "肯德基",
          "name:en": "KFC",
          "takeaway": "yes"
        }
      },
      {
        "displayName": "赛百味",
        "id": "赛百味-7c3186",
        "locationSet": {"include": ["cn"]},
        "oldid": "amenity/fast_food|赛百味",
        "tags": {
          "amenity": "fast_food",
          "brand": "赛百味",
          "brand:en": "Subway",
          "brand:wikidata": "Q244457",
          "brand:wikipedia": "zh:赛百味",
          "brand:zh": "赛百味",
          "cuisine": "sandwich",
          "name": "赛百味",
          "name:en": "Subway",
          "name:zh": "赛百味",
          "takeaway": "yes"
        }
      },
      {
        "displayName": "道とん堀",
        "id": "道とん堀-86438d",
        "locationSet": {"include": ["jp"]},
        "oldid": "amenity/fast_food|道とん堀",
        "tags": {
          "amenity": "fast_food",
          "brand": "道とん堀",
          "brand:en": "Dohtonbori",
          "brand:ja": "道とん堀",
          "brand:wikidata": "Q11640595",
          "brand:wikipedia": "ja:道とん堀",
          "cuisine": "okonomiyaki",
          "name": "道とん堀",
          "name:en": "Dohtonbori",
          "name:ja": "道とん堀",
          "official_name": "お好み焼道とん堀",
          "official_name:en": "Okonomiyaki Dohtonbori",
          "official_name:ja": "お好み焼道とん堀",
          "takeaway": "yes"
        }
      },
      {
        "displayName": "銚子丸",
        "id": "銚子丸-86438d",
        "locationSet": {"include": ["jp"]},
        "oldid": "amenity/fast_food|銚子丸",
        "tags": {
          "amenity": "fast_food",
          "brand": "銚子丸",
          "brand:en": "Choushimaru",
          "brand:ja": "銚子丸",
          "brand:wikidata": "Q11650214",
          "brand:wikipedia": "ja:銚子丸",
          "cuisine": "sushi",
          "name": "銚子丸",
          "name:en": "Choushimaru",
          "name:ja": "銚子丸",
          "official_name": "すし銚子丸",
          "takeaway": "yes"
        }
      },
      {
        "displayName": "麥當勞",
        "id": "麥當勞-d58808",
        "locationSet": {
          "include": ["hk", "mo", "tw"]
        },
        "oldid": "amenity/fast_food|麥當勞",
        "tags": {
          "amenity": "fast_food",
          "brand": "麥當勞",
          "brand:en": "McDonald's",
          "brand:wikidata": "Q38076",
          "brand:wikipedia": "zh:麥當勞",
          "brand:zh": "麥當勞",
          "brand:zh-Hant": "麥當勞",
          "cuisine": "burger",
          "name": "麥當勞",
          "name:en": "McDonald's",
          "name:zh": "麥當勞",
          "name:zh-Hant": "麥當勞",
          "takeaway": "yes"
        }
      },
      {
        "displayName": "麦当劳",
        "id": "麦当劳-4cbb8d",
        "locationSet": {"include": ["cn", "sg"]},
        "oldid": "amenity/fast_food|麦当劳",
        "tags": {
          "amenity": "fast_food",
          "brand": "麦当劳",
          "brand:en": "McDonald's",
          "brand:wikidata": "Q38076",
          "brand:wikipedia": "zh:麦当劳",
          "brand:zh": "麦当劳",
          "brand:zh-Hans": "麦当劳",
          "cuisine": "burger",
          "name": "麦当劳",
          "name:en": "McDonald's",
          "name:zh": "麦当劳",
          "name:zh-Hans": "麦当劳",
          "takeaway": "yes"
        }
      },
      {
        "displayName": "롯데리아",
        "id": "롯데리아-b67cad",
        "locationSet": {"include": ["kr"]},
        "oldid": "amenity/fast_food|롯데리아",
        "tags": {
          "amenity": "fast_food",
          "brand": "롯데리아",
          "brand:en": "Lotteria",
          "brand:ko": "롯데리아",
          "brand:wikidata": "Q249525",
          "brand:wikipedia": "ko:롯데리아",
          "cuisine": "burger",
          "name": "롯데리아",
          "name:en": "Lotteria",
          "name:ko": "롯데리아",
          "takeaway": "yes"
        }
      },
      {
        "displayName": "맘스터치",
        "id": "맘스터치-b67cad",
        "locationSet": {"include": ["kr"]},
        "oldid": "amenity/fast_food|맘스터치",
        "tags": {
          "amenity": "fast_food",
          "brand": "맘스터치",
          "brand:ko": "맘스터치",
          "brand:wikidata": "Q23044856",
          "brand:wikipedia": "en:Mom's Touch",
          "cuisine": "burger",
          "name": "맘스터치",
          "name:ko": "맘스터치",
          "takeaway": "yes"
        }
      },
      {
        "displayName": "맥도날드",
        "id": "맥도날드-b67cad",
        "locationSet": {"include": ["kr"]},
        "oldid": "amenity/fast_food|맥도날드",
        "tags": {
          "amenity": "fast_food",
          "brand": "맥도날드",
          "brand:en": "McDonald's",
          "brand:ko": "맥도날드",
          "brand:wikidata": "Q38076",
          "brand:wikipedia": "ko:맥도날드",
          "cuisine": "burger",
          "name": "맥도날드",
          "name:en": "McDonald's",
          "name:ko": "맥도날드",
          "takeaway": "yes"
        }
      }
    ]
  }
}