{
  "amenity": {
    "fuel": [
      {
        "displayName": "1-2-3",
        "id": "123-99985f",
        "locationSet": {"include": ["dk", "pl"]},
        "oldid": "amenity/fuel|1-2-3",
        "tags": {
          "amenity": "fuel",
          "brand": "1-2-3",
          "brand:wikidata": "Q4545742",
          "brand:wikipedia": "en:1-2-3 (fuel station)",
          "name": "1-2-3"
        }
      },
      {
        "displayName": "7-Eleven",
        "id": "7eleven-256df0",
        "locationSet": {"include": ["001"]},
        "matchNames": ["7-11", "seven eleven"],
        "nomatch": ["shop/convenience|7-Eleven"],
        "oldid": "amenity/fuel|7-Eleven",
        "tags": {
          "amenity": "fuel",
          "brand": "7-Eleven",
          "brand:wikidata": "Q259340",
          "brand:wikipedia": "en:7-Eleven",
          "name": "7-Eleven"
        }
      },
      {
        "displayName": "76",
        "id": "76-256df0",
        "locationSet": {"include": ["001"]},
        "nomatch": ["shop/convenience|76"],
        "oldid": "amenity/fuel|76",
        "tags": {
          "amenity": "fuel",
          "brand": "76",
          "brand:wikidata": "Q1658320",
          "brand:wikipedia": "en:76 (gas station)",
          "name": "76"
        }
      },
      {
        "displayName": "8 à Huit",
        "id": "8ahuit-ac186a",
        "locationSet": {"include": ["fr"]},
        "nomatch": [
          "shop/convenience|8 à Huit",
          "shop/supermarket|8 à Huit"
        ],
        "oldid": "amenity/fuel|8 à Huit",
        "tags": {
          "amenity": "fuel",
          "brand": "8 à Huit",
          "brand:wikidata": "Q2818601",
          "brand:wikipedia": "fr:8 à Huit",
          "name": "8 à Huit"
        }
      },
      {
        "displayName": "ABC",
        "id": "abc-1c19f0",
        "locationSet": {"include": ["fi"]},
        "nomatch": ["shop/convenience|ABC"],
        "oldid": "amenity/fuel|ABC",
        "tags": {
          "amenity": "fuel",
          "brand": "ABC",
          "brand:wikidata": "Q10397504",
          "brand:wikipedia": "fi:ABC-ketju",
          "name": "ABC"
        }
      },
      {
        "displayName": "ADNOC",
        "id": "adnoc-24d9fc",
        "locationSet": {"include": ["ae"]},
        "oldid": "amenity/fuel|ADNOC",
        "tags": {
          "amenity": "fuel",
          "brand": "ADNOC",
          "brand:wikidata": "Q166729",
          "brand:wikipedia": "en:Abu Dhabi National Oil Company",
          "name": "ADNOC"
        }
      },
      {
        "displayName": "ANCAP",
        "id": "ancap-c55280",
        "locationSet": {"include": ["uy"]},
        "oldid": "amenity/fuel|ANCAP",
        "tags": {
          "amenity": "fuel",
          "brand": "ANCAP",
          "brand:wikidata": "Q2824522",
          "brand:wikipedia": "es:Administración Nacional de Combustibles, Alcohol y Portland",
          "name": "ANCAP",
          "official_name": "Administración Nacional de Combustibles, Alcoholes y Portland"
        }
      },
      {
        "displayName": "ANP",
        "id": "anp-ee630b",
        "locationSet": {"include": ["ru", "ua"]},
        "oldid": "amenity/fuel|ANP",
        "tags": {
          "amenity": "fuel",
          "brand": "ANP",
          "name": "ANP"
        }
      },
      {
        "displayName": "AS 24",
        "id": "as24-452783",
        "locationSet": {
          "include": [
            "at",
            "be",
            "bg",
            "cz",
            "de",
            "dk",
            "es",
            "fr",
            "gb",
            "ge",
            "gr",
            "hr",
            "hu",
            "ie",
            "it",
            "lt",
            "lu",
            "mk",
            "nl",
            "pl",
            "pt",
            "ro",
            "rs",
            "se",
            "si",
            "sk",
            "ua"
          ]
        },
        "oldid": "amenity/fuel|AS 24",
        "tags": {
          "amenity": "fuel",
          "brand": "AS 24",
          "brand:wikidata": "Q2819394",
          "brand:wikipedia": "fr:AS 24 (entreprise)",
          "hgv": "only",
          "name": "AS 24"
        }
      },
      {
        "displayName": "Aegean",
        "id": "aegean-a14911",
        "locationSet": {"include": ["gr"]},
        "oldid": "amenity/fuel|Aegean",
        "tags": {
          "amenity": "fuel",
          "brand": "Aegean",
          "brand:wikidata": "Q28146598",
          "brand:wikipedia": "el:Aegean Oil",
          "name": "Aegean"
        }
      },
      {
        "displayName": "Afriquia",
        "id": "afriquia-256df0",
        "locationSet": {"include": ["001"]},
        "oldid": "amenity/fuel|Afriquia",
        "tags": {
          "amenity": "fuel",
          "brand": "Afriquia",
          "brand:wikidata": "Q2829178",
          "brand:wikipedia": "en:Akwa Group",
          "name": "Afriquia"
        }
      },
      {
        "displayName": "Agil",
        "id": "agil-423a71",
        "locationSet": {"include": ["tn"]},
        "oldid": "amenity/fuel|Agil",
        "tags": {
          "amenity": "fuel",
          "brand": "Agil",
          "brand:wikidata": "Q96017301",
          "name": "Agil"
        }
      },
      {
        "displayName": "Agip",
        "id": "agip-256df0",
        "locationSet": {"include": ["001"]},
        "oldid": "amenity/fuel|Agip",
        "tags": {
          "amenity": "fuel",
          "brand": "Agip",
          "brand:wikidata": "Q377915",
          "brand:wikipedia": "en:Agip",
          "name": "Agip"
        }
      },
      {
        "displayName": "Agrola",
        "id": "agrola-d10a21",
        "locationSet": {"include": ["ch"]},
        "oldid": "amenity/fuel|Agrola",
        "tags": {
          "amenity": "fuel",
          "brand": "Agrola",
          "brand:wikidata": "Q397351",
          "brand:wikipedia": "de:Agrola",
          "name": "Agrola"
        }
      },
      {
        "displayName": "Alexela",
        "id": "alexela-f2bda0",
        "locationSet": {"include": ["ee"]},
        "oldid": "amenity/fuel|Alexela",
        "tags": {
          "amenity": "fuel",
          "brand": "Alexela",
          "brand:wikidata": "Q20529782",
          "brand:wikipedia": "et:Alexela Oil",
          "name": "Alexela"
        }
      },
      {
        "displayName": "Aloha Petroleum",
        "id": "alohapetroleum-a79496",
        "locationSet": {"include": ["us"]},
        "oldid": "amenity/fuel|Aloha Petroleum",
        "tags": {
          "amenity": "fuel",
          "brand": "Aloha Petroleum",
          "brand:wikidata": "Q4734197",
          "brand:wikipedia": "en:Aloha Petroleum",
          "name": "Aloha Petroleum",
          "official_name": "Aloha Petroleum Ltd"
        }
      },
      {
        "displayName": "Alon",
        "id": "alon-a79496",
        "locationSet": {"include": ["us"]},
        "oldid": "amenity/fuel|Alon",
        "tags": {
          "amenity": "fuel",
          "brand": "Alon",
          "brand:wikidata": "Q62274304",
          "name": "Alon"
        }
      },
      {
        "displayName": "Alpet",
        "id": "alpet-ca0653",
        "locationSet": {"include": ["al", "tr"]},
        "oldid": "amenity/fuel|Alpet",
        "tags": {
          "amenity": "fuel",
          "brand": "Alpet",
          "brand:wikidata": "Q62131561",
          "name": "Alpet"
        }
      },
      {
        "displayName": "Amic",
        "id": "amic-fa13d8",
        "locationSet": {
          "include": [
            "at",
            "lt",
            "lv",
            "pl",
            "ua"
          ]
        },
        "matchNames": ["amic energy"],
        "oldid": "amenity/fuel|Amic",
        "tags": {
          "amenity": "fuel",
          "brand": "Amic",
          "brand:wikidata": "Q96047373",
          "name": "Amic"
        }
      },
      {
        "displayName": "Amoco",
        "id": "amoco-a79496",
        "locationSet": {"include": ["us"]},
        "nomatch": ["shop/convenience|Amoco"],
        "oldid": "amenity/fuel|Amoco",
        "tags": {
          "amenity": "fuel",
          "brand": "Amoco",
          "brand:wikidata": "Q465952",
          "brand:wikipedia": "en:Amoco",
          "name": "Amoco"
        }
      },
      {
        "displayName": "Ampol",
        "id": "ampol-3449e7",
        "locationSet": {"include": ["au"]},
        "oldid": "amenity/fuel|Ampol",
        "tags": {
          "amenity": "fuel",
          "brand": "Ampol",
          "brand:wikidata": "Q4748528",
          "brand:wikipedia": "en:Ampol",
          "name": "Ampol"
        }
      },
      {
        "displayName": "Api",
        "id": "api-a91992",
        "locationSet": {"include": ["it"]},
        "oldid": "amenity/fuel|Api",
        "tags": {
          "amenity": "fuel",
          "brand": "Api",
          "brand:wikidata": "Q466043",
          "brand:wikipedia": "en:American Petroleum Institute",
          "name": "Api"
        }
      },
      {
        "displayName": "Applegreen",
        "id": "applegreen-abb91f",
        "locationSet": {
          "include": ["gb", "ie", "us"]
        },
        "oldid": "amenity/fuel|Applegreen",
        "tags": {
          "amenity": "fuel",
          "brand": "Applegreen",
          "brand:wikidata": "Q7178908",
          "brand:wikipedia": "en:Applegreen",
          "name": "Applegreen"
        }
      },
      {
        "displayName": "Aral",
        "id": "aral-d0e60b",
        "locationSet": {"include": ["de", "lu"]},
        "matchNames": ["aral tankstelle"],
        "nomatch": ["shop/convenience|Aral"],
        "oldid": "amenity/fuel|Aral",
        "tags": {
          "amenity": "fuel",
          "brand": "Aral",
          "brand:wikidata": "Q565734",
          "brand:wikipedia": "en:Aral AG",
          "name": "Aral"
        }
      },
      {
        "displayName": "Arco",
        "id": "arco-d633bd",
        "locationSet": {"include": ["mx", "us"]},
        "oldid": "amenity/fuel|Arco",
        "tags": {
          "amenity": "fuel",
          "brand": "Arco",
          "brand:wikidata": "Q304769",
          "brand:wikipedia": "en:ARCO",
          "name": "Arco"
        }
      },
      {
        "displayName": "Argos",
        "id": "argos-9ff609",
        "locationSet": {"include": ["nl"]},
        "nomatch": ["shop/catalogue|Argos"],
        "oldid": "amenity/fuel|Argos",
        "tags": {
          "amenity": "fuel",
          "brand": "Argos",
          "brand:wikidata": "Q4750477",
          "brand:wikipedia": "nl:Argos Oil",
          "name": "Argos"
        }
      },
      {
        "displayName": "Asda",
        "id": "asda-ac7bae",
        "locationSet": {"include": ["gb"]},
        "nomatch": [
          "shop/houseware|Asda Living",
          "shop/supermarket|ASDA",
          "shop/supermarket|Asda"
        ],
        "oldid": "amenity/fuel|Asda",
        "tags": {
          "amenity": "fuel",
          "brand": "Asda",
          "brand:wikidata": "Q297410",
          "brand:wikipedia": "en:Asda",
          "name": "Asda"
        }
      },
      {
        "displayName": "Atem",
        "id": "atem-0426f3",
        "locationSet": {"include": ["br"]},
        "matchNames": ["posto atem"],
        "oldid": "amenity/fuel|Atem",
        "tags": {
          "amenity": "fuel",
          "brand": "Atem",
          "brand:wikidata": "Q62332255",
          "name": "Atem"
        }
      },
      {
        "displayName": "Auchan",
        "id": "auchan-36c5bf",
        "locationSet": {
          "include": ["039", "151", "155", "cn"]
        },
        "nomatch": ["shop/supermarket|Auchan"],
        "oldid": "amenity/fuel|Auchan",
        "tags": {
          "amenity": "fuel",
          "brand": "Auchan",
          "brand:wikidata": "Q758603",
          "brand:wikipedia": "en:Auchan",
          "name": "Auchan"
        }
      },
      {
        "displayName": "Avanti",
        "id": "avanti-c7e7bd",
        "locationSet": {"include": ["at"]},
        "oldid": "amenity/fuel|Avanti",
        "tags": {
          "amenity": "fuel",
          "brand": "Avanti",
          "brand:wikidata": "Q168238",
          "brand:wikipedia": "en:OMV",
          "name": "Avanti"
        }
      },
      {
        "displayName": "Avia",
        "id": "avia-8aabb4",
        "locationSet": {
          "include": [
            "at",
            "be",
            "bg",
            "ch",
            "cz",
            "de",
            "es",
            "fr",
            "hu",
            "it",
            "nl",
            "pl",
            "pt",
            "rs",
            "ua"
          ]
        },
        "matchNames": ["station avia"],
        "oldid": "amenity/fuel|Avia",
        "tags": {
          "amenity": "fuel",
          "brand": "Avia",
          "brand:wikidata": "Q300147",
          "brand:wikipedia": "de:Avia International",
          "name": "Avia"
        }
      },
      {
        "displayName": "Avin",
        "id": "avin-a14911",
        "locationSet": {"include": ["gr"]},
        "oldid": "amenity/fuel|Avin",
        "tags": {
          "amenity": "fuel",
          "brand": "Avin",
          "brand:wikidata": "Q19903165",
          "brand:wikipedia": "en:Avin International",
          "name": "Avin"
        }
      },
      {
        "displayName": "Axion",
        "id": "axion-558d0d",
        "locationSet": {
          "include": ["ar", "py", "uy"]
        },
        "oldid": "amenity/fuel|Axion",
        "tags": {
          "amenity": "fuel",
          "brand": "Axion",
          "brand:wikidata": "Q62131749",
          "name": "Axion"
        }
      },
      {
        "displayName": "Aytemiz",
        "id": "aytemiz-c69d5b",
        "locationSet": {"include": ["tr"]},
        "oldid": "amenity/fuel|Aytemiz",
        "tags": {
          "amenity": "fuel",
          "brand": "Aytemiz",
          "brand:wikidata": "Q62274352",
          "name": "Aytemiz"
        }
      },
      {
        "displayName": "Azpetrol",
        "id": "azpetrol-1b1a47",
        "locationSet": {"include": ["az"]},
        "oldid": "amenity/fuel|Azpetrol",
        "tags": {
          "amenity": "fuel",
          "brand": "Azpetrol",
          "brand:wikidata": "Q4034661",
          "brand:wikipedia": "az:Azpetrol",
          "name": "Azpetrol"
        }
      },
      {
        "displayName": "BEBECO",
        "id": "bebeco-d10a21",
        "locationSet": {"include": ["ch"]},
        "oldid": "amenity/fuel|BEBECO",
        "tags": {
          "amenity": "fuel",
          "brand": "BEBECO",
          "brand:wikidata": "Q62274373",
          "name": "BEBECO"
        }
      },
      {
        "displayName": "BHPetrol",
        "id": "bhpetrol-fbd573",
        "locationSet": {"include": ["my"]},
        "oldid": "amenity/fuel|BHPetrol",
        "tags": {
          "amenity": "fuel",
          "brand": "BHPetrol",
          "brand:wikidata": "Q62274381",
          "name": "BHPetrol"
        }
      },
      {
        "displayName": "BP",
        "id": "bp-256df0",
        "locationSet": {"include": ["001"]},
        "matchNames": ["bp gas station"],
        "nomatch": ["shop/convenience|BP Shop"],
        "oldid": "amenity/fuel|BP",
        "tags": {
          "amenity": "fuel",
          "brand": "BP",
          "brand:wikidata": "Q152057",
          "brand:wikipedia": "en:BP",
          "name": "BP"
        }
      },
      {
        "displayName": "BR",
        "id": "br-0426f3",
        "locationSet": {"include": ["br"]},
        "matchNames": [
          "br petrobras",
          "petrobras",
          "posto br"
        ],
        "oldid": "amenity/fuel|BR",
        "tags": {
          "amenity": "fuel",
          "brand": "BR",
          "brand:wikidata": "Q4836468",
          "brand:wikipedia": "pt:Petrobras Distribuidora",
          "name": "BR"
        }
      },
      {
        "displayName": "BWOC",
        "id": "bwoc-ac7bae",
        "locationSet": {"include": ["gb"]},
        "oldid": "amenity/fuel|BWOC",
        "tags": {
          "amenity": "fuel",
          "brand": "BWOC",
          "brand:wikidata": "Q4836845",
          "brand:wikipedia": "en:BWOC",
          "name": "BWOC",
          "official_name": "Bob Wayne's Oil Company"
        }
      },
      {
        "displayName": "Baltic Petroleum",
        "id": "balticpetroleum-61d6d3",
        "locationSet": {"include": ["lt"]},
        "oldid": "amenity/fuel|Baltic Petroleum",
        "tags": {
          "amenity": "fuel",
          "brand": "Baltic Petroleum",
          "brand:wikidata": "Q96591447",
          "name": "Baltic Petroleum"
        }
      },
      {
        "displayName": "Bangchak",
        "id": "bangchak-57d3dd",
        "locationSet": {"include": ["th"]},
        "oldid": "amenity/fuel|Bangchak",
        "tags": {
          "amenity": "fuel",
          "brand": "Bangchak",
          "brand:wikidata": "Q6579719",
          "brand:wikipedia": "zh:曼差石油股份",
          "name": "Bangchak"
        }
      },
      {
        "displayName": "Bapco",
        "id": "bapco-cc9e89",
        "locationSet": {"include": ["bh"]},
        "matchNames": ["bahrain petroleum"],
        "oldid": "amenity/fuel|Bapco",
        "tags": {
          "amenity": "fuel",
          "brand": "Bapco",
          "brand:wikidata": "Q803640",
          "brand:wikipedia": "en:Bahrain Petroleum Company",
          "name": "Bapco",
          "official_name": "Bahrain Petroleum Company"
        }
      },
      {
        "displayName": "Benzina",
        "id": "benzina-6ee553",
        "locationSet": {"include": ["cz"]},
        "oldid": "amenity/fuel|Benzina",
        "tags": {
          "amenity": "fuel",
          "brand": "Benzina",
          "brand:wikidata": "Q11130894",
          "brand:wikipedia": "cs:Benzina",
          "name": "Benzina"
        }
      },
      {
        "displayName": "Beyfin",
        "id": "beyfin-256df0",
        "locationSet": {"include": ["001"]},
        "oldid": "amenity/fuel|Beyfin",
        "tags": {
          "amenity": "fuel",
          "brand": "Beyfin",
          "brand:wikidata": "Q3639256",
          "brand:wikipedia": "it:Beyfin",
          "name": "Beyfin"
        }
      },
      {
        "displayName": "Bharat Petroleum",
        "id": "bharatpetroleum-c52071",
        "locationSet": {"include": ["in"]},
        "oldid": "amenity/fuel|Bharat Petroleum",
        "tags": {
          "amenity": "fuel",
          "brand": "Bharat Petroleum",
          "brand:wikidata": "Q854826",
          "brand:wikipedia": "en:Bharat Petroleum",
          "name": "Bharat Petroleum"
        }
      },
      {
        "displayName": "Biomax",
        "id": "biomax-2bebcf",
        "locationSet": {"include": ["co"]},
        "oldid": "amenity/fuel|Biomax",
        "tags": {
          "amenity": "fuel",
          "brand": "Biomax",
          "brand:wikidata": "Q62274413",
          "name": "Biomax"
        }
      },
      {
        "displayName": "Bliska",
        "id": "bliska-483481",
        "locationSet": {"include": ["pl"]},
        "oldid": "amenity/fuel|Bliska",
        "tags": {
          "amenity": "fuel",
          "brand": "Bliska",
          "brand:wikidata": "Q4016378",
          "brand:wikipedia": "pl:Bliska",
          "name": "Bliska"
        }
      },
      {
        "displayName": "CAMPSA",
        "id": "campsa-7b4cd5",
        "locationSet": {"include": ["es"]},
        "oldid": "amenity/fuel|CAMPSA",
        "tags": {
          "amenity": "fuel",
          "brand": "CAMPSA",
          "brand:wikidata": "Q1031623",
          "brand:wikipedia": "en:Campsa",
          "name": "CAMPSA",
          "official_name": "Compañía Arrendataria del Monopolio del Petróleo, S.A."
        }
      },
      {
        "displayName": "Caltex",
        "id": "caltex-256df0",
        "locationSet": {"include": ["001"]},
        "oldid": "amenity/fuel|Caltex",
        "tags": {
          "amenity": "fuel",
          "brand": "Caltex",
          "brand:wikidata": "Q277470",
          "brand:wikipedia": "en:Caltex",
          "name": "Caltex"
        }
      },
      {
        "displayName": "Canadian Tire Gas+",
        "id": "canadiantire-256df0",
        "locationSet": {"include": ["001"]},
        "matchNames": [
          "canadian tire",
          "canadian tire gas bar"
        ],
        "nomatch": [
          "shop/department_store|Canadian Tire"
        ],
        "oldid": "amenity/fuel|Canadian Tire Gas+",
        "tags": {
          "amenity": "fuel",
          "brand": "Canadian Tire",
          "brand:wikidata": "Q1032400",
          "brand:wikipedia": "en:Canadian Tire",
          "name": "Canadian Tire"
        }
      },
      {
        "displayName": "Carrefour",
        "id": "carrefour-256df0",
        "locationSet": {"include": ["001"]},
        "matchNames": ["carrefour market"],
        "nomatch": [
          "shop/convenience|Carrefour Express",
          "shop/supermarket|Carrefour"
        ],
        "oldid": "amenity/fuel|Carrefour",
        "tags": {
          "amenity": "fuel",
          "brand": "Carrefour",
          "brand:wikidata": "Q217599",
          "brand:wikipedia": "fr:Carrefour (enseigne)",
          "name": "Carrefour"
        }
      },
      {
        "displayName": "Casey's General Store",
        "id": "caseysgeneralstore-256df0",
        "locationSet": {"include": ["001"]},
        "matchNames": ["caseys"],
        "nomatch": [
          "shop/convenience|Casey's General Store"
        ],
        "oldid": "amenity/fuel|Casey's General Store",
        "tags": {
          "amenity": "fuel",
          "brand": "Casey's General Store",
          "brand:wikidata": "Q2940968",
          "brand:wikipedia": "en:Casey's General Stores",
          "name": "Casey's General Store"
        }
      },
      {
        "displayName": "Casino",
        "id": "casino-ac186a",
        "locationSet": {"include": ["fr"]},
        "nomatch": [
          "shop/convenience|Casino Shop",
          "shop/convenience|Le Petit Casino",
          "shop/supermarket|Casino",
          "shop/supermarket|Géant Casino"
        ],
        "oldid": "amenity/fuel|Casino",
        "tags": {
          "amenity": "fuel",
          "brand": "Casino",
          "brand:wikidata": "Q89029184",
          "name": "Casino"
        }
      },
      {
        "displayName": "Cenex",
        "id": "cenex-a79496",
        "locationSet": {"include": ["us"]},
        "oldid": "amenity/fuel|Cenex",
        "tags": {
          "amenity": "fuel",
          "brand": "Cenex",
          "brand:wikidata": "Q5011381",
          "brand:wikipedia": "en:CHS Inc.",
          "name": "Cenex"
        }
      },
      {
        "displayName": "Cepsa",
        "id": "cepsa-d86234",
        "locationSet": {"include": ["es", "pt"]},
        "oldid": "amenity/fuel|Cepsa",
        "tags": {
          "amenity": "fuel",
          "brand": "Cepsa",
          "brand:wikidata": "Q608819",
          "brand:wikipedia": "en:Cepsa",
          "name": "Cepsa",
          "official_name": "Compañía Española de Petróleos, S.A.U."
        }
      },
      {
        "displayName": "Ceypetco",
        "id": "ceypetco-b16910",
        "locationSet": {"include": ["lk"]},
        "matchNames": ["lanka filling station"],
        "oldid": "amenity/fuel|Ceypetco",
        "tags": {
          "amenity": "fuel",
          "brand": "Ceypetco",
          "brand:wikidata": "Q5065795",
          "brand:wikipedia": "en:Ceylon Petroleum Corporation",
          "name": "Ceypetco"
        }
      },
      {
        "displayName": "Challenge",
        "id": "challenge-529bd1",
        "locationSet": {"include": ["nz"]},
        "oldid": "amenity/fuel|Challenge",
        "tags": {
          "amenity": "fuel",
          "brand": "Challenge",
          "brand:wikidata": "Q5068888",
          "brand:wikipedia": "en:Challenge (gasoline)",
          "name": "Challenge"
        }
      },
      {
        "displayName": "Chevron",
        "id": "chevron-256df0",
        "locationSet": {"include": ["001"]},
        "nomatch": ["shop/convenience|Chevron"],
        "oldid": "amenity/fuel|Chevron",
        "tags": {
          "amenity": "fuel",
          "brand": "Chevron",
          "brand:wikidata": "Q319642",
          "brand:wikipedia": "en:Chevron Corporation",
          "name": "Chevron"
        }
      },
      {
        "displayName": "Circle K",
        "id": "circlek-256df0",
        "locationSet": {"include": ["001"]},
        "nomatch": ["shop/convenience|Circle K"],
        "oldid": "amenity/fuel|Circle K",
        "tags": {
          "amenity": "fuel",
          "brand": "Circle K",
          "brand:wikidata": "Q3268010",
          "brand:wikipedia": "en:Circle K",
          "name": "Circle K"
        }
      },
      {
        "displayName": "Citgo",
        "id": "citgo-256df0",
        "locationSet": {"include": ["001"]},
        "nomatch": ["shop/convenience|Citgo"],
        "oldid": "amenity/fuel|Citgo",
        "tags": {
          "amenity": "fuel",
          "brand": "Citgo",
          "brand:wikidata": "Q2974437",
          "brand:wikipedia": "en:Citgo",
          "name": "Citgo"
        }
      },
      {
        "displayName": "Clark",
        "id": "clark-a79496",
        "locationSet": {"include": ["us"]},
        "oldid": "amenity/fuel|Clark",
        "tags": {
          "amenity": "fuel",
          "brand": "Clark",
          "brand:wikidata": "Q5127157",
          "brand:wikipedia": "en:Clark Brands",
          "name": "Clark"
        }
      },
      {
        "displayName": "Classic",
        "id": "classic-d68ae4",
        "locationSet": {"include": ["de"]},
        "oldid": "amenity/fuel|Classic",
        "tags": {
          "amenity": "fuel",
          "brand": "Classic",
          "brand:wikidata": "Q33127117",
          "brand:wikipedia": "de:Classic Tankstellen",
          "name": "Classic"
        }
      },
      {
        "displayName": "Co-op (Canada)",
        "id": "coop-66f503",
        "locationSet": {"include": ["ca"]},
        "matchNames": ["coop"],
        "nomatch": [
          "shop/convenience|Co-op~(Canada)",
          "shop/convenience|Coop~(Schweiz)",
          "shop/convenience|The Co-operative Food~(UK)",
          "shop/supermarket|Co-op~(Canada)",
          "shop/supermarket|Coop~(Schweiz)",
          "shop/supermarket|The Co-operative Food~(UK)"
        ],
        "oldid": "amenity/fuel|Co-op~(Canada)",
        "tags": {
          "amenity": "fuel",
          "brand": "Federated Co-operatives",
          "brand:wikidata": "Q5440676",
          "brand:wikipedia": "en:Federated Co-operatives",
          "name": "Co-op"
        }
      },
      {
        "displayName": "Coles Express",
        "id": "colesexpress-3449e7",
        "locationSet": {"include": ["au"]},
        "nomatch": [
          "shop/convenience|Coles Express"
        ],
        "oldid": "amenity/fuel|Coles Express",
        "tags": {
          "amenity": "fuel",
          "brand": "Coles Express",
          "brand:wikidata": "Q5144653",
          "brand:wikipedia": "en:Coles Express",
          "name": "Coles Express"
        }
      },
      {
        "displayName": "Conoco",
        "id": "conoco-a79496",
        "locationSet": {"include": ["us"]},
        "nomatch": ["shop/convenience|Conoco"],
        "oldid": "amenity/fuel|Conoco",
        "tags": {
          "amenity": "fuel",
          "brand": "Conoco",
          "brand:wikidata": "Q1126518",
          "brand:wikipedia": "en:Conoco",
          "name": "Conoco"
        }
      },
      {
        "displayName": "Coop Tankstelle",
        "id": "cooptankstelle-256df0",
        "locationSet": {"include": ["001"]},
        "oldid": "amenity/fuel|Coop Tankstelle",
        "tags": {
          "amenity": "fuel",
          "brand": "Coop Tankstelle",
          "name": "Coop Tankstelle"
        }
      },
      {
        "displayName": "Copec",
        "id": "copec-4a23f7",
        "locationSet": {"include": ["cl"]},
        "oldid": "amenity/fuel|Copec",
        "tags": {
          "amenity": "fuel",
          "brand": "Copec",
          "brand:wikidata": "Q1130956",
          "brand:wikipedia": "es:Compañía de Petróleos de Chile",
          "name": "Copec"
        }
      },
      {
        "displayName": "Copetrol",
        "id": "copetrol-362966",
        "locationSet": {"include": ["py"]},
        "oldid": "amenity/fuel|Copetrol",
        "tags": {
          "amenity": "fuel",
          "brand": "Copetrol",
          "brand:wikidata": "Q62274431",
          "name": "Copetrol"
        }
      },
      {
        "displayName": "Cosan",
        "id": "cosan-0426f3",
        "locationSet": {"include": ["br"]},
        "oldid": "amenity/fuel|Cosan",
        "tags": {
          "amenity": "fuel",
          "brand": "Cosan",
          "brand:wikidata": "Q2998228",
          "brand:wikipedia": "pt:Cosan",
          "name": "Cosan"
        }
      },
      {
        "displayName": "Cosmo",
        "id": "cosmo-256df0",
        "locationSet": {"include": ["001"]},
        "oldid": "amenity/fuel|Cosmo",
        "tags": {
          "amenity": "fuel",
          "brand": "Cosmo",
          "name": "Cosmo"
        }
      },
      {
        "displayName": "Costco Gasoline",
        "id": "costcogasoline-ebd023",
        "locationSet": {
          "include": ["au", "ca", "mx", "us"]
        },
        "matchNames": [
          "costco",
          "costco gas",
          "costco wholesale"
        ],
        "nomatch": [
          "amenity/pharmacy|Costco Pharmacy",
          "shop/wholesale|Costco"
        ],
        "oldid": "amenity/fuel|Costco Gasoline",
        "tags": {
          "amenity": "fuel",
          "brand": "Costco Gasoline",
          "brand:wikidata": "Q715583",
          "brand:wikipedia": "en:Costco",
          "name": "Costco Gasoline"
        }
      },
      {
        "displayName": "Couche-Tard",
        "id": "couchetard-66f503",
        "locationSet": {"include": ["ca"]},
        "nomatch": [
          "shop/convenience|Couche-Tard"
        ],
        "oldid": "amenity/fuel|Couche-Tard",
        "tags": {
          "amenity": "fuel",
          "brand": "Couche-Tard",
          "brand:wikidata": "Q2836957",
          "brand:wikipedia": "en:Alimentation Couche-Tard",
          "name": "Couche-Tard"
        }
      },
      {
        "displayName": "Crevier",
        "id": "crevier-66f503",
        "locationSet": {"include": ["ca"]},
        "oldid": "amenity/fuel|Crevier",
        "tags": {
          "amenity": "fuel",
          "brand": "Crevier",
          "brand:wikidata": "Q61743451",
          "name": "Crevier"
        }
      },
      {
        "displayName": "Crodux",
        "id": "crodux-269b06",
        "locationSet": {"include": ["hr"]},
        "oldid": "amenity/fuel|Crodux",
        "tags": {
          "amenity": "fuel",
          "brand": "Crodux",
          "brand:wikidata": "Q62274622",
          "name": "Crodux"
        }
      },
      {
        "displayName": "Cumberland Farms",
        "id": "cumberlandfarms-a79496",
        "locationSet": {"include": ["us"]},
        "nomatch": [
          "shop/convenience|Cumberland Farms"
        ],
        "oldid": "amenity/fuel|Cumberland Farms",
        "tags": {
          "amenity": "fuel",
          "brand": "Cumberland Farms",
          "brand:wikidata": "Q1143685",
          "brand:wikipedia": "en:Cumberland Farms",
          "name": "Cumberland Farms"
        }
      },
      {
        "displayName": "Cupet",
        "id": "cupet-537014",
        "locationSet": {"include": ["cu"]},
        "matchNames": [
          "cuba oil union",
          "cuba petróleo union"
        ],
        "oldid": "amenity/fuel|Cupet",
        "tags": {
          "amenity": "fuel",
          "brand": "Cupet",
          "brand:wikidata": "Q3007579",
          "brand:wikipedia": "en:Cuba Petróleo Union",
          "name": "Cupet"
        }
      },
      {
        "displayName": "Delek",
        "id": "delek-0146f8",
        "locationSet": {"include": ["il"]},
        "oldid": "amenity/fuel|Delek",
        "tags": {
          "amenity": "fuel",
          "brand": "Delek",
          "brand:wikidata": "Q1184087",
          "brand:wikipedia": "en:Delek",
          "name": "Delek"
        }
      },
      {
        "displayName": "Delta (Panama & Costa Rica)",
        "id": "delta-be7cb1",
        "locationSet": {"include": ["cr", "us"]},
        "oldid": "amenity/fuel|Delta~(Panama & Costa Rica)",
        "tags": {
          "amenity": "fuel",
          "brand": "Delta",
          "brand:wikidata": "Q62274638",
          "name": "Delta"
        }
      },
      {
        "displayName": "Delta (USA)",
        "id": "delta-a79496",
        "locationSet": {"include": ["us"]},
        "oldid": "amenity/fuel|Delta~(USA)",
        "tags": {
          "amenity": "fuel",
          "brand": "Delta",
          "brand:wikidata": "Q62274661",
          "name": "Delta"
        }
      },
      {
        "displayName": "Depot Tela",
        "id": "depottela-9608d3",
        "locationSet": {"include": ["kh"]},
        "oldid": "amenity/fuel|Depot Tela",
        "tags": {
          "amenity": "fuel",
          "brand": "Depot Tela",
          "name": "Depot Tela"
        }
      },
      {
        "displayName": "Diamond Shamrock",
        "id": "diamondshamrock-a79496",
        "locationSet": {"include": ["us"]},
        "oldid": "amenity/fuel|Diamond Shamrock",
        "tags": {
          "amenity": "fuel",
          "brand": "Diamond Shamrock",
          "brand:wikidata": "Q16973722",
          "brand:wikipedia": "en:Diamond Shamrock",
          "name": "Diamond Shamrock"
        }
      },
      {
        "displayName": "Domo",
        "id": "domo-66f503",
        "locationSet": {"include": ["ca"]},
        "oldid": "amenity/fuel|Domo",
        "tags": {
          "amenity": "fuel",
          "brand": "Domo",
          "brand:wikidata": "Q5291326",
          "brand:wikipedia": "en:Domo Gasoline",
          "name": "Domo"
        }
      },
      {
        "displayName": "Dyneff",
        "id": "dyneff-0d1d16",
        "locationSet": {"include": ["es", "fr"]},
        "oldid": "amenity/fuel|Dyneff",
        "tags": {
          "amenity": "fuel",
          "brand": "Dyneff",
          "brand:wikidata": "Q16630266",
          "brand:wikipedia": "fr:Dyneff",
          "name": "Dyneff"
        }
      },
      {
        "displayName": "EKO (Canada)",
        "id": "eko-66f503",
        "locationSet": {"include": ["ca"]},
        "nomatch": [
          "amenity/fuel|EKO~(Greece)",
          "shop/supermarket|Eko"
        ],
        "oldid": "amenity/fuel|EKO~(Canada)",
        "tags": {
          "amenity": "fuel",
          "brand": "EKO",
          "brand:wikidata": "Q3045934",
          "brand:wikipedia": "fr:EKO",
          "name": "EKO"
        }
      },
      {
        "displayName": "EKO (Greece)",
        "id": "eko-5f9e40",
        "locationSet": {
          "include": [
            "bg",
            "cy",
            "gr",
            "me",
            "mk",
            "rs"
          ]
        },
        "matchNames": ["εκο"],
        "nomatch": [
          "amenity/fuel|EKO~(Canada)",
          "shop/supermarket|Eko"
        ],
        "oldid": "amenity/fuel|EKO~(Greece)",
        "tags": {
          "amenity": "fuel",
          "brand": "EKO",
          "brand:wikidata": "Q903198",
          "brand:wikipedia": "el:Ελληνικά Πετρέλαια",
          "name": "EKO"
        }
      },
      {
        "displayName": "Elan",
        "id": "elan-ff69c1",
        "locationSet": {
          "include": ["de", "fr", "nl"]
        },
        "oldid": "amenity/fuel|Elan",
        "tags": {
          "amenity": "fuel",
          "brand": "Elan",
          "brand:wikidata": "Q57980752",
          "name": "Elan"
        }
      },
      {
        "displayName": "Engen",
        "id": "engen-256df0",
        "locationSet": {"include": ["001"]},
        "oldid": "amenity/fuel|Engen",
        "tags": {
          "amenity": "fuel",
          "brand": "Engen",
          "brand:wikidata": "Q3054251",
          "brand:wikipedia": "en:Engen Petroleum",
          "name": "Engen"
        }
      },
      {
        "displayName": "Eni",
        "id": "eni-3383d0",
        "locationSet": {
          "include": ["at", "ch", "fr", "it"]
        },
        "oldid": "amenity/fuel|Eni",
        "tags": {
          "amenity": "fuel",
          "brand": "Eni",
          "brand:wikidata": "Q565594",
          "brand:wikipedia": "en:Eni",
          "name": "Eni"
        }
      },
      {
        "displayName": "Erg",
        "id": "erg-a91992",
        "locationSet": {"include": ["it"]},
        "oldid": "amenity/fuel|Erg",
        "tags": {
          "amenity": "fuel",
          "brand": "Erg",
          "brand:wikidata": "Q739503",
          "brand:wikipedia": "it:ERG (azienda)",
          "name": "Erg"
        }
      },
      {
        "displayName": "Esso",
        "id": "esso-256df0",
        "locationSet": {"include": ["001"]},
        "matchNames": ["station esso"],
        "nomatch": [
          "amenity/fuel|Esso Express",
          "shop/convenience|Esso"
        ],
        "oldid": "amenity/fuel|Esso",
        "tags": {
          "amenity": "fuel",
          "brand": "Esso",
          "brand:wikidata": "Q867662",
          "brand:wikipedia": "en:Esso",
          "name": "Esso"
        }
      },
      {
        "displayName": "Esso Express",
        "id": "essoexpress-256df0",
        "locationSet": {"include": ["001"]},
        "nomatch": ["amenity/fuel|Esso"],
        "oldid": "amenity/fuel|Esso Express",
        "tags": {
          "amenity": "fuel",
          "brand": "Esso Express",
          "brand:wikidata": "Q2350336",
          "brand:wikipedia": "nl:Esso Express",
          "name": "Esso Express"
        }
      },
      {
        "displayName": "Exxon",
        "id": "exxon-a79496",
        "locationSet": {"include": ["us"]},
        "oldid": "amenity/fuel|Exxon",
        "tags": {
          "amenity": "fuel",
          "brand": "Exxon",
          "brand:wikidata": "Q4781944",
          "brand:wikipedia": "en:Exxon",
          "name": "Exxon"
        }
      },
      {
        "displayName": "F24",
        "id": "f24-7a87e3",
        "locationSet": {"include": ["dk"]},
        "oldid": "amenity/fuel|F24",
        "tags": {
          "amenity": "fuel",
          "brand": "F24",
          "brand:wikidata": "Q12310853",
          "brand:wikipedia": "da:F24",
          "name": "F24"
        }
      },
      {
        "displayName": "Fas Gas",
        "id": "fasgas-66f503",
        "locationSet": {"include": ["ca"]},
        "matchNames": ["fas gas plus"],
        "oldid": "amenity/fuel|Fas Gas",
        "tags": {
          "amenity": "fuel",
          "brand": "Fas Gas",
          "brand:wikidata": "Q61743505",
          "brand:wikipedia": "en:Parkland Fuel",
          "name": "Fas Gas"
        }
      },
      {
        "displayName": "Firezone",
        "id": "firezone-9ff609",
        "locationSet": {"include": ["nl"]},
        "oldid": "amenity/fuel|Firezone",
        "tags": {
          "amenity": "fuel",
          "brand": "Firezone",
          "brand:wikidata": "Q14628080",
          "brand:wikipedia": "nl:Firezone",
          "name": "Firezone"
        }
      },
      {
        "displayName": "Flying J",
        "id": "flyingj-274e1c",
        "locationSet": {"include": ["ca", "us"]},
        "matchNames": ["flying j travel plaza"],
        "oldid": "amenity/fuel|Flying J",
        "tags": {
          "amenity": "fuel",
          "brand": "Flying J",
          "brand:wikidata": "Q64130592",
          "name": "Flying J"
        }
      },
      {
        "displayName": "Flying V",
        "id": "flyingv-ae0a4e",
        "locationSet": {"include": ["ph"]},
        "oldid": "amenity/fuel|Flying V",
        "tags": {
          "amenity": "fuel",
          "brand": "Flying V",
          "brand:wikidata": "Q62275048",
          "name": "Flying V"
        }
      },
      {
        "displayName": "Fred Meyer",
        "id": "fredmeyer-256df0",
        "locationSet": {"include": ["001"]},
        "nomatch": [
          "amenity/pharmacy|Fred Meyer",
          "shop/jewelry|Fred Meyer",
          "shop/supermarket|Fred Meyer"
        ],
        "oldid": "amenity/fuel|Fred Meyer",
        "tags": {
          "amenity": "fuel",
          "brand": "Fred Meyer",
          "brand:wikidata": "Q5495932",
          "brand:wikipedia": "en:Fred Meyer",
          "name": "Fred Meyer"
        }
      },
      {
        "displayName": "Freie Tankstelle",
        "id": "freietankstelle-d68ae4",
        "locationSet": {"include": ["de"]},
        "oldid": "amenity/fuel|Freie Tankstelle",
        "tags": {
          "amenity": "fuel",
          "brand": "Freie Tankstelle",
          "brand:wikidata": "Q1009104",
          "brand:wikipedia": "de:Bundesverband freier Tankstellen",
          "name": "Freie Tankstelle"
        }
      },
      {
        "displayName": "GALP",
        "id": "galp-256df0",
        "locationSet": {"include": ["001"]},
        "oldid": "amenity/fuel|GALP",
        "tags": {
          "amenity": "fuel",
          "brand": "GALP",
          "brand:wikidata": "Q1492739",
          "brand:wikipedia": "en:Galp Energia",
          "name": "GALP"
        }
      },
      {
        "displayName": "Gas Plus",
        "id": "gasplus-66f503",
        "locationSet": {"include": ["ca"]},
        "nomatch": [
          "shop/mobile_phone|Plus",
          "shop/supermarket|PLUS"
        ],
        "oldid": "amenity/fuel|Gas Plus",
        "tags": {
          "amenity": "fuel",
          "brand": "Gas Plus",
          "name": "Gas Plus"
        }
      },
      {
        "displayName": "Gazel",
        "id": "gazel-43ccdb",
        "locationSet": {
          "include": ["co", "mx", "pe"]
        },
        "oldid": "amenity/fuel|Gazel",
        "tags": {
          "amenity": "fuel",
          "brand": "Gazel",
          "brand:wikidata": "Q62529885",
          "name": "Gazel"
        }
      },
      {
        "displayName": "Gazprom",
        "id": "gazprom-256df0",
        "locationSet": {"include": ["001"]},
        "oldid": "amenity/fuel|Gazprom",
        "tags": {
          "amenity": "fuel",
          "brand": "Gazprom",
          "brand:wikidata": "Q102673",
          "brand:wikipedia": "en:Gazprom",
          "name": "Gazprom"
        }
      },
      {
        "displayName": "GetGo",
        "id": "getgo-a79496",
        "locationSet": {"include": ["us"]},
        "matchNames": [
          "giant eagle",
          "giant eagle fuel"
        ],
        "oldid": "amenity/fuel|GetGo",
        "tags": {
          "amenity": "fuel",
          "brand": "GetGo",
          "brand:wikidata": "Q5553766",
          "brand:wikipedia": "en:GetGo",
          "name": "GetGo"
        }
      },
      {
        "displayName": "Giant (Carlisle)",
        "id": "giant-a79496",
        "locationSet": {"include": ["us"]},
        "nomatch": [
          "shop/bicycle|Giant",
          "shop/supermarket|Giant~(Carlisle)",
          "shop/supermarket|Giant~(Landover)"
        ],
        "oldid": "amenity/fuel|Giant~(Carlisle)",
        "tags": {
          "amenity": "fuel",
          "brand": "Giant",
          "brand:wikidata": "Q5558332",
          "brand:wikipedia": "en:Giant Food Stores",
          "name": "Giant"
        }
      },
      {
        "displayName": "Global",
        "id": "global-256df0",
        "locationSet": {"include": ["001"]},
        "oldid": "amenity/fuel|Global",
        "tags": {
          "amenity": "fuel",
          "brand": "Global",
          "name": "Global"
        }
      },
      {
        "displayName": "Glusco",
        "id": "glusco-13cad4",
        "locationSet": {"include": ["ua"]},
        "oldid": "amenity/fuel|Glusco",
        "tags": {
          "amenity": "fuel",
          "brand": "Glusco",
          "brand:wikidata": "Q62284719",
          "name": "Glusco"
        }
      },
      {
        "displayName": "Goil",
        "id": "goil-25d0eb",
        "locationSet": {"include": ["gh"]},
        "oldid": "amenity/fuel|Goil",
        "tags": {
          "amenity": "fuel",
          "brand": "Goil",
          "brand:wikidata": "Q5555383",
          "brand:wikipedia": "en:Ghana Oil Company",
          "name": "Goil"
        }
      },
      {
        "displayName": "Green Oil",
        "id": "greenoil-d1520b",
        "locationSet": {"include": ["ma"]},
        "oldid": "amenity/fuel|Green Oil",
        "tags": {
          "amenity": "fuel",
          "brand": "Green Oil",
          "brand:wikidata": "Q88393926",
          "name": "Green Oil"
        }
      },
      {
        "displayName": "Gulf",
        "id": "gulf-256df0",
        "locationSet": {"include": ["001"]},
        "oldid": "amenity/fuel|Gulf",
        "tags": {
          "amenity": "fuel",
          "brand": "Gulf",
          "brand:wikidata": "Q1296860",
          "brand:wikipedia": "en:Gulf Oil",
          "name": "Gulf"
        }
      },
      {
        "displayName": "Gull",
        "id": "gull-331340",
        "locationSet": {"include": ["au", "nz"]},
        "oldid": "amenity/fuel|Gull",
        "tags": {
          "amenity": "fuel",
          "brand": "Gull",
          "brand:wikidata": "Q5617739",
          "brand:wikipedia": "en:Gull Petroleum",
          "name": "Gull"
        }
      },
      {
        "displayName": "H-E-B Fuel",
        "id": "hebfuel-a79496",
        "locationSet": {"include": ["us"]},
        "matchNames": ["h-e-b gas"],
        "nomatch": ["shop/supermarket|H-E-B"],
        "oldid": "amenity/fuel|H-E-B Fuel",
        "tags": {
          "amenity": "fuel",
          "brand": "H-E-B Fuel",
          "brand:wikidata": "Q830621",
          "brand:wikipedia": "en:H-E-B",
          "name": "H-E-B Fuel"
        }
      },
      {
        "displayName": "HEM",
        "id": "hem-d68ae4",
        "locationSet": {"include": ["de"]},
        "oldid": "amenity/fuel|HEM",
        "tags": {
          "amenity": "fuel",
          "brand": "HEM",
          "brand:wikidata": "Q1563517",
          "brand:wikipedia": "de:Deutsche Tamoil",
          "name": "HEM"
        }
      },
      {
        "displayName": "HP",
        "id": "hp-c52071",
        "locationSet": {"include": ["in"]},
        "matchNames": ["hp petrol pump"],
        "oldid": "amenity/fuel|HP",
        "tags": {
          "amenity": "fuel",
          "brand": "Hindustan Petroleum",
          "brand:wikidata": "Q1619375",
          "brand:wikipedia": "en:Hindustan Petroleum",
          "name": "HP",
          "official_name": "Hindustan Petroleum"
        }
      },
      {
        "displayName": "Haan",
        "id": "haan-9ff609",
        "locationSet": {"include": ["nl"]},
        "oldid": "amenity/fuel|Haan",
        "tags": {
          "amenity": "fuel",
          "brand": "Haan",
          "brand:wikidata": "Q92553521",
          "name": "Haan"
        }
      },
      {
        "displayName": "Harnois",
        "id": "harnois-66f503",
        "locationSet": {"include": ["ca"]},
        "oldid": "amenity/fuel|Harnois",
        "tags": {
          "amenity": "fuel",
          "brand": "Harnois",
          "brand:wikidata": "Q61743558",
          "name": "Harnois"
        }
      },
      {
        "displayName": "Hess",
        "id": "hess-a79496",
        "locationSet": {"include": ["us"]},
        "oldid": "amenity/fuel|Hess",
        "tags": {
          "amenity": "fuel",
          "brand": "Hess",
          "brand:wikidata": "Q1615684",
          "brand:wikipedia": "en:Hess Corporation",
          "name": "Hess"
        }
      },
      {
        "displayName": "Hofer",
        "id": "hofer-744849",
        "locationSet": {"include": ["at", "si"]},
        "nomatch": ["shop/supermarket|Hofer"],
        "oldid": "amenity/fuel|Hofer",
        "tags": {
          "amenity": "fuel",
          "brand": "Hofer",
          "brand:wikidata": "Q15815751",
          "brand:wikipedia": "de:Hofer KG",
          "name": "Hofer"
        }
      },
      {
        "displayName": "Holiday",
        "id": "holiday-a79496",
        "locationSet": {"include": ["us"]},
        "nomatch": ["shop/convenience|Holiday"],
        "oldid": "amenity/fuel|Holiday",
        "tags": {
          "amenity": "fuel",
          "brand": "Holiday",
          "brand:wikidata": "Q5880490",
          "brand:wikipedia": "en:Holiday Stationstores",
          "name": "Holiday"
        }
      },
      {
        "displayName": "Huck's Food & Fuel",
        "id": "hucksfoodandfuel-a79496",
        "locationSet": {"include": ["us"]},
        "nomatch": [
          "shop/convenience|Huck's Food & Fuel"
        ],
        "oldid": "amenity/fuel|Huck's Food & Fuel",
        "tags": {
          "amenity": "fuel",
          "brand": "Huck's Food & Fuel",
          "brand:wikidata": "Q56276328",
          "brand:wikipedia": "en:Huck's Food & Fuel",
          "name": "Huck's Food & Fuel",
          "short_name": "Huck's"
        }
      },
      {
        "displayName": "Husky",
        "id": "husky-66f503",
        "locationSet": {"include": ["ca"]},
        "nomatch": [
          "amenity/restaurant|Husky House",
          "shop/convenience|Husky"
        ],
        "oldid": "amenity/fuel|Husky",
        "tags": {
          "amenity": "fuel",
          "brand": "Husky",
          "brand:wikidata": "Q702049",
          "brand:wikipedia": "en:Husky Energy",
          "name": "Husky"
        }
      },
      {
        "displayName": "Hy-Vee Gas",
        "id": "hyveegas-a79496",
        "locationSet": {"include": ["us"]},
        "nomatch": ["shop/supermarket|Hy-Vee"],
        "oldid": "amenity/fuel|Hy-Vee Gas",
        "tags": {
          "amenity": "fuel",
          "brand": "Hy-Vee Gas",
          "brand:wikidata": "Q1639719",
          "brand:wikipedia": "en:Hy-Vee",
          "name": "Hy-Vee Gas"
        }
      },
      {
        "displayName": "IES",
        "id": "ies-a91992",
        "locationSet": {"include": ["it"]},
        "oldid": "amenity/fuel|IES",
        "tags": {
          "amenity": "fuel",
          "brand": "IES",
          "brand:wikidata": "Q62287387",
          "name": "IES"
        }
      },
      {
        "displayName": "IP",
        "id": "ip-256df0",
        "locationSet": {"include": ["001"]},
        "oldid": "amenity/fuel|IP",
        "tags": {
          "amenity": "fuel",
          "brand": "IP",
          "brand:wikidata": "Q646807",
          "brand:wikipedia": "en:Anonima Petroli Italiana",
          "name": "IP"
        }
      },
      {
        "displayName": "IPT",
        "id": "ipt-256df0",
        "locationSet": {"include": ["001"]},
        "oldid": "amenity/fuel|IPT",
        "tags": {
          "amenity": "fuel",
          "brand": "IPT",
          "name": "IPT"
        }
      },
      {
        "displayName": "Indian Oil",
        "id": "indianoil-256df0",
        "locationSet": {"include": ["001"]},
        "oldid": "amenity/fuel|Indian Oil",
        "tags": {
          "amenity": "fuel",
          "brand": "Indian Oil",
          "brand:wikidata": "Q1289348",
          "brand:wikipedia": "en:Indian Oil Corporation",
          "name": "Indian Oil"
        }
      },
      {
        "displayName": "Indian Oil Petrol Pump",
        "id": "indianoilpetrolpump-c52071",
        "locationSet": {"include": ["in"]},
        "oldid": "amenity/fuel|Indian Oil Petrol Pump",
        "tags": {
          "amenity": "fuel",
          "brand": "Indian Oil Petrol Pump",
          "brand:wikidata": "Q1289348",
          "brand:wikipedia": "en:Indian Oil Corporation",
          "name": "Indian Oil Petrol Pump"
        }
      },
      {
        "displayName": "Ingo",
        "id": "ingo-76cd31",
        "locationSet": {"include": ["dk", "se"]},
        "oldid": "amenity/fuel|Ingo",
        "tags": {
          "amenity": "fuel",
          "brand": "Ingo",
          "brand:wikidata": "Q17048617",
          "brand:wikipedia": "en:Ingo (brand)",
          "name": "Ingo"
        }
      },
      {
        "displayName": "Intermarché",
        "id": "intermarche-256df0",
        "locationSet": {"include": ["001"]},
        "matchNames": ["intermarché super"],
        "nomatch": [
          "shop/supermarket|Intermarché"
        ],
        "oldid": "amenity/fuel|Intermarché",
        "tags": {
          "amenity": "fuel",
          "brand": "Intermarché",
          "brand:wikidata": "Q3153200",
          "brand:wikipedia": "fr:Intermarché",
          "name": "Intermarché"
        }
      },
      {
        "displayName": "Ipiranga",
        "id": "ipiranga-0426f3",
        "locationSet": {"include": ["br"]},
        "matchNames": ["posto ipiranga"],
        "oldid": "amenity/fuel|Ipiranga",
        "tags": {
          "amenity": "fuel",
          "brand": "Ipiranga",
          "brand:wikidata": "Q2081136",
          "brand:wikipedia": "pt:Ipiranga (empresa)",
          "name": "Ipiranga"
        }
      },
      {
        "displayName": "Irving",
        "id": "irving-274e1c",
        "locationSet": {"include": ["ca", "us"]},
        "nomatch": ["shop/convenience|Irving"],
        "oldid": "amenity/fuel|Irving",
        "tags": {
          "amenity": "fuel",
          "brand": "Irving",
          "brand:wikidata": "Q1673286",
          "brand:wikipedia": "en:Irving Oil",
          "name": "Irving"
        }
      },
      {
        "displayName": "JA-SS",
        "id": "jass-cbd98b",
        "locationSet": {"include": ["jp"]},
        "matchNames": ["ja"],
        "nomatch": ["amenity/bank|JAバンク"],
        "oldid": "amenity/fuel|JA-SS",
        "tags": {
          "amenity": "fuel",
          "brand": "JA-SS",
          "brand:wikidata": "Q11225213",
          "brand:wikipedia": "ja:JA-SS",
          "name": "JA-SS"
        }
      },
      {
        "displayName": "Jet",
        "id": "jet-256df0",
        "locationSet": {"include": ["001"]},
        "nomatch": ["shop/clothes|Jet"],
        "oldid": "amenity/fuel|Jet",
        "tags": {
          "amenity": "fuel",
          "brand": "Jet",
          "brand:wikidata": "Q568940",
          "brand:wikipedia": "en:Jet (brand)",
          "name": "Jet"
        }
      },
      {
        "displayName": "Jetti",
        "id": "jetti-ae0a4e",
        "locationSet": {"include": ["ph"]},
        "oldid": "amenity/fuel|Jetti",
        "tags": {
          "amenity": "fuel",
          "brand": "Jetti",
          "brand:wikidata": "Q62288720",
          "name": "Jetti"
        }
      },
      {
        "displayName": "Kadoil",
        "id": "kadoil-256df0",
        "locationSet": {"include": ["001"]},
        "oldid": "amenity/fuel|Kadoil",
        "tags": {
          "amenity": "fuel",
          "brand": "Kadoil",
          "name": "Kadoil"
        }
      },
      {
        "displayName": "Kangaroo Express",
        "id": "kangarooexpress-a79496",
        "locationSet": {"include": ["us"]},
        "nomatch": [
          "shop/convenience|Kangaroo Express"
        ],
        "oldid": "amenity/fuel|Kangaroo Express",
        "tags": {
          "amenity": "fuel",
          "brand": "Kangaroo Express",
          "brand:wikidata": "Q61747408",
          "name": "Kangaroo Express",
          "short_name": "Kangaroo"
        }
      },
      {
        "displayName": "Kastrati",
        "id": "kastrati-256df0",
        "locationSet": {"include": ["001"]},
        "oldid": "amenity/fuel|Kastrati",
        "tags": {
          "amenity": "fuel",
          "brand": "Kastrati",
          "name": "Kastrati"
        }
      },
      {
        "displayName": "King Soopers",
        "id": "kingsoopers-a79496",
        "locationSet": {"include": ["us"]},
        "matchNames": [
          "king soopers fuel",
          "king soopers gas"
        ],
        "nomatch": [
          "shop/supermarket|King Soopers"
        ],
        "oldid": "amenity/fuel|King Soopers",
        "tags": {
          "amenity": "fuel",
          "brand": "King Soopers",
          "brand:wikidata": "Q6412065",
          "brand:wikipedia": "en:King Soopers",
          "name": "King Soopers"
        }
      },
      {
        "displayName": "Kobil",
        "id": "kobil-9ac7c3",
        "locationSet": {
          "include": [
            "bi",
            "et",
            "ke",
            "rw",
            "tz",
            "ug",
            "zm"
          ]
        },
        "oldid": "amenity/fuel|Kobil",
        "tags": {
          "amenity": "fuel",
          "brand": "Kobil",
          "brand:wikidata": "Q22906119",
          "brand:wikipedia": "en:KenolKobil",
          "name": "Kobil"
        }
      },
      {
        "displayName": "Krist",
        "id": "krist-a79496",
        "locationSet": {"include": ["us"]},
        "oldid": "amenity/fuel|Krist",
        "tags": {
          "amenity": "fuel",
          "brand": "Krist",
          "brand:wikidata": "Q77885501",
          "name": "Krist"
        }
      },
      {
        "displayName": "Kroger",
        "id": "kroger-256df0",
        "locationSet": {"include": ["001"]},
        "matchNames": [
          "kroger fuel",
          "kroger gas"
        ],
        "nomatch": ["shop/supermarket|Kroger"],
        "oldid": "amenity/fuel|Kroger",
        "tags": {
          "amenity": "fuel",
          "brand": "Kroger",
          "brand:wikidata": "Q153417",
          "brand:wikipedia": "en:Kroger",
          "name": "Kroger"
        }
      },
      {
        "displayName": "Kum & Go",
        "id": "kumandgo-a79496",
        "locationSet": {"include": ["us"]},
        "nomatch": ["shop/convenience|Kum & Go"],
        "oldid": "amenity/fuel|Kum & Go",
        "tags": {
          "amenity": "fuel",
          "brand": "Kum & Go",
          "brand:wikidata": "Q6443340",
          "brand:wikipedia": "en:Kum & Go",
          "name": "Kum & Go"
        }
      },
      {
        "displayName": "Kwik Fill",
        "id": "kwikfill-a79496",
        "locationSet": {"include": ["us"]},
        "oldid": "amenity/fuel|Kwik Fill",
        "tags": {
          "amenity": "fuel",
          "brand": "Kwik Fill",
          "name": "Kwik Fill"
        }
      },
      {
        "displayName": "Kwik Shop",
        "id": "kwikshop-a79496",
        "locationSet": {"include": ["us"]},
        "nomatch": ["shop/convenience|Kwik Shop"],
        "oldid": "amenity/fuel|Kwik Shop",
        "tags": {
          "amenity": "fuel",
          "brand": "Kwik Shop",
          "brand:wikidata": "Q6450417",
          "brand:wikipedia": "en:Kwik Shop",
          "name": "Kwik Shop"
        }
      },
      {
        "displayName": "Kwik Trip",
        "id": "kwiktrip-a79496",
        "locationSet": {"include": ["us"]},
        "nomatch": ["shop/convenience|Kwik Trip"],
        "oldid": "amenity/fuel|Kwik Trip",
        "tags": {
          "amenity": "fuel",
          "brand": "Kwik Trip",
          "brand:wikidata": "Q6450420",
          "brand:wikipedia": "en:Kwik Trip",
          "name": "Kwik Trip"
        }
      },
      {
        "displayName": "Liberty",
        "id": "liberty-9586e9",
        "locationSet": {"include": ["au", "us"]},
        "nomatch": ["amenity/bank|Liberty Bank"],
        "oldid": "amenity/fuel|Liberty",
        "tags": {
          "amenity": "fuel",
          "brand": "Liberty",
          "brand:wikidata": "Q96781174",
          "name": "Liberty"
        }
      },
      {
        "displayName": "Loaf 'N Jug",
        "id": "loafnjug-a79496",
        "locationSet": {"include": ["us"]},
        "nomatch": [
          "shop/convenience|Loaf 'N Jug"
        ],
        "oldid": "amenity/fuel|Loaf 'N Jug",
        "tags": {
          "amenity": "fuel",
          "brand": "Loaf 'N Jug",
          "brand:wikidata": "Q6663398",
          "brand:wikipedia": "en:Loaf 'N Jug",
          "name": "Loaf 'N Jug"
        }
      },
      {
        "displayName": "Lotos",
        "id": "lotos-483481",
        "locationSet": {"include": ["pl"]},
        "nomatch": ["amenity/fuel|Lotos Optima"],
        "oldid": "amenity/fuel|Lotos",
        "tags": {
          "amenity": "fuel",
          "brand": "Lotos",
          "brand:wikidata": "Q1256909",
          "brand:wikipedia": "pl:Grupa Lotos",
          "name": "Lotos"
        }
      },
      {
        "displayName": "Lotos Optima",
        "id": "lotosoptima-483481",
        "locationSet": {"include": ["pl"]},
        "nomatch": ["amenity/fuel|Lotos"],
        "oldid": "amenity/fuel|Lotos Optima",
        "tags": {
          "amenity": "fuel",
          "brand": "Lotos Optima",
          "brand:wikidata": "Q1256909",
          "brand:wikipedia": "pl:Grupa Lotos",
          "name": "Lotos Optima"
        }
      },
      {
        "displayName": "Love's",
        "id": "loves-a79496",
        "locationSet": {"include": ["us"]},
        "nomatch": ["shop/convenience|Love's"],
        "oldid": "amenity/fuel|Love's",
        "tags": {
          "amenity": "fuel",
          "brand": "Love's",
          "brand:wikidata": "Q1872496",
          "brand:wikipedia": "en:Love's Travel Stops & Country Stores",
          "name": "Love's"
        }
      },
      {
        "displayName": "Lukoil",
        "id": "lukoil-256df0",
        "locationSet": {"include": ["001"]},
        "oldid": "amenity/fuel|Lukoil",
        "tags": {
          "amenity": "fuel",
          "brand": "Lukoil",
          "brand:wikidata": "Q329347",
          "brand:wikipedia": "en:Lukoil",
          "name": "Lukoil"
        }
      },
      {
        "displayName": "MEROIL",
        "id": "meroil-7b4cd5",
        "locationSet": {"include": ["es"]},
        "oldid": "amenity/fuel|MEROIL",
        "tags": {
          "amenity": "fuel",
          "brand": "MEROIL",
          "brand:wikidata": "Q62292559",
          "name": "MEROIL"
        }
      },
      {
        "displayName": "MOL",
        "id": "mol-256df0",
        "locationSet": {"include": ["001"]},
        "oldid": "amenity/fuel|MOL",
        "tags": {
          "amenity": "fuel",
          "brand": "MOL",
          "brand:wikidata": "Q549181",
          "brand:wikipedia": "en:MOL (company)",
          "name": "MOL"
        }
      },
      {
        "displayName": "MRS",
        "id": "mrs-81e6ff",
        "locationSet": {"include": ["ng"]},
        "oldid": "amenity/fuel|MRS",
        "tags": {
          "amenity": "fuel",
          "brand": "MRS",
          "brand:wikidata": "Q56274919",
          "brand:wikipedia": "en:MRS Oil Nigeria Plc",
          "name": "MRS"
        }
      },
      {
        "displayName": "Mac's",
        "id": "macs-66f503",
        "locationSet": {"include": ["ca"]},
        "nomatch": ["shop/convenience|Mac's"],
        "oldid": "amenity/fuel|Mac's",
        "tags": {
          "amenity": "fuel",
          "brand": "Mac's",
          "brand:wikidata": "Q4043527",
          "brand:wikipedia": "en:Mac's Convenience Stores",
          "name": "Mac's"
        }
      },
      {
        "displayName": "MacEwen",
        "id": "macewen-66f503",
        "locationSet": {"include": ["ca"]},
        "oldid": "amenity/fuel|MacEwen",
        "tags": {
          "amenity": "fuel",
          "brand": "MacEwen",
          "brand:wikidata": "Q61740335",
          "name": "MacEwen"
        }
      },
      {
        "displayName": "Maes",
        "id": "maes-1af14e",
        "locationSet": {"include": ["be"]},
        "oldid": "amenity/fuel|Maes",
        "tags": {
          "amenity": "fuel",
          "brand": "Maes",
          "name": "Maes"
        }
      },
      {
        "displayName": "Marathon",
        "id": "marathon-256df0",
        "locationSet": {"include": ["001"]},
        "matchNames": ["marathon gas"],
        "nomatch": ["shop/convenience|Marathon"],
        "oldid": "amenity/fuel|Marathon",
        "tags": {
          "amenity": "fuel",
          "brand": "Marathon",
          "brand:wikidata": "Q458363",
          "brand:wikipedia": "en:Marathon Petroleum",
          "name": "Marathon"
        }
      },
      {
        "displayName": "Markant",
        "id": "markant-256df0",
        "locationSet": {"include": ["001"]},
        "oldid": "amenity/fuel|Markant",
        "tags": {
          "amenity": "fuel",
          "brand": "Markant",
          "name": "Markant"
        }
      },
      {
        "displayName": "Maverik",
        "id": "maverik-a79496",
        "locationSet": {"include": ["us"]},
        "nomatch": ["shop/convenience|Maverik"],
        "oldid": "amenity/fuel|Maverik",
        "tags": {
          "amenity": "fuel",
          "brand": "Maverik",
          "brand:wikidata": "Q64149010",
          "brand:wikipedia": "en:Maverik, Inc.",
          "name": "Maverik"
        }
      },
      {
        "displayName": "Maxol",
        "id": "maxol-99341a",
        "locationSet": {"include": ["gb", "ie"]},
        "oldid": "amenity/fuel|Maxol",
        "tags": {
          "amenity": "fuel",
          "brand": "Maxol",
          "brand:wikidata": "Q3302837",
          "brand:wikipedia": "en:Maxol",
          "name": "Maxol"
        }
      },
      {
        "displayName": "Medco",
        "id": "medco-9ff0e6",
        "locationSet": {"include": ["lb"]},
        "oldid": "amenity/fuel|Medco",
        "tags": {
          "amenity": "fuel",
          "brand": "Medco",
          "name": "Medco"
        }
      },
      {
        "displayName": "Meijer",
        "id": "meijer-a79496",
        "locationSet": {"include": ["us"]},
        "nomatch": ["shop/supermarket|Meijer"],
        "oldid": "amenity/fuel|Meijer",
        "tags": {
          "amenity": "fuel",
          "brand": "Meijer",
          "brand:wikidata": "Q1917753",
          "brand:wikipedia": "en:Meijer",
          "name": "Meijer"
        }
      },
      {
        "displayName": "Metan",
        "id": "metan-256df0",
        "locationSet": {"include": ["001"]},
        "oldid": "amenity/fuel|Metan",
        "tags": {
          "amenity": "fuel",
          "brand": "Metan",
          "name": "Metan"
        }
      },
      {
        "displayName": "Metano",
        "id": "metano-a91992",
        "locationSet": {"include": ["it"]},
        "oldid": "amenity/fuel|Metano",
        "tags": {
          "amenity": "fuel",
          "brand": "Metano",
          "brand:wikidata": "Q62294765",
          "name": "Metano"
        }
      },
      {
        "displayName": "Migrol",
        "id": "migrol-d10a21",
        "locationSet": {"include": ["ch"]},
        "oldid": "amenity/fuel|Migrol",
        "tags": {
          "amenity": "fuel",
          "brand": "Migrol",
          "brand:wikidata": "Q1747771",
          "brand:wikipedia": "de:Migrol",
          "name": "Migrol"
        }
      },
      {
        "displayName": "Mobil",
        "id": "mobil-256df0",
        "locationSet": {"include": ["001"]},
        "matchNames": ["mobile"],
        "nomatch": [
          "shop/convenience|Mobil Mart"
        ],
        "oldid": "amenity/fuel|Mobil",
        "tags": {
          "amenity": "fuel",
          "brand": "Mobil",
          "brand:wikidata": "Q3088656",
          "brand:wikipedia": "en:Mobil",
          "name": "Mobil"
        }
      },
      {
        "displayName": "Mohawk",
        "id": "mohawk-66f503",
        "locationSet": {"include": ["ca"]},
        "matchNames": ["mohawk oil"],
        "oldid": "amenity/fuel|Mohawk",
        "tags": {
          "amenity": "fuel",
          "brand": "Mohawk",
          "brand:wikidata": "Q6893796",
          "brand:wikipedia": "en:Mohawk Oil",
          "name": "Mohawk"
        }
      },
      {
        "displayName": "Moil",
        "id": "moil-c69d5b",
        "locationSet": {"include": ["tr"]},
        "oldid": "amenity/fuel|Moil",
        "tags": {
          "amenity": "fuel",
          "brand": "Moil",
          "brand:wikidata": "Q62296914",
          "name": "Moil"
        }
      },
      {
        "displayName": "Morrisons",
        "id": "morrisons-ac7bae",
        "locationSet": {"include": ["gb"]},
        "nomatch": ["shop/supermarket|Morrisons"],
        "oldid": "amenity/fuel|Morrisons",
        "tags": {
          "amenity": "fuel",
          "brand": "Morrisons",
          "brand:wikidata": "Q922344",
          "brand:wikipedia": "en:Morrisons",
          "name": "Morrisons"
        }
      },
      {
        "displayName": "Moya",
        "id": "moya-483481",
        "locationSet": {"include": ["pl"]},
        "oldid": "amenity/fuel|Moya",
        "tags": {
          "amenity": "fuel",
          "brand": "Moya",
          "brand:wikidata": "Q62297700",
          "name": "Moya"
        }
      },
      {
        "displayName": "Murco",
        "id": "murco-ac7bae",
        "locationSet": {"include": ["gb"]},
        "matchNames": ["murco petroleum"],
        "oldid": "amenity/fuel|Murco",
        "tags": {
          "amenity": "fuel",
          "brand": "Murco",
          "brand:wikidata": "Q16998281",
          "brand:wikipedia": "en:Murco Petroleum",
          "name": "Murco"
        }
      },
      {
        "displayName": "Murphy USA",
        "id": "murphyusa-a79496",
        "locationSet": {"include": ["us"]},
        "oldid": "amenity/fuel|Murphy USA",
        "tags": {
          "amenity": "fuel",
          "brand": "Murphy USA",
          "brand:wikidata": "Q19604459",
          "brand:wikipedia": "en:Murphy USA",
          "name": "Murphy USA"
        }
      },
      {
        "displayName": "N1",
        "id": "n1-efa0a4",
        "locationSet": {"include": ["is"]},
        "oldid": "amenity/fuel|N1",
        "tags": {
          "amenity": "fuel",
          "brand": "N1",
          "name": "N1"
        }
      },
      {
        "displayName": "NP",
        "id": "np-08eb7a",
        "locationSet": {"include": ["tt"]},
        "oldid": "amenity/fuel|NP",
        "tags": {
          "amenity": "fuel",
          "brand": "NP",
          "brand:wikidata": "Q7842382",
          "brand:wikipedia": "en:Trinidad & Tobago National Petroleum Marketing Company Limited",
          "name": "NP"
        }
      },
      {
        "displayName": "Neste",
        "id": "neste-256df0",
        "locationSet": {"include": ["001"]},
        "oldid": "amenity/fuel|Neste",
        "tags": {
          "amenity": "fuel",
          "brand": "Neste",
          "brand:wikidata": "Q616376",
          "brand:wikipedia": "en:Neste",
          "name": "Neste"
        }
      },
      {
        "displayName": "OIL!",
        "id": "oil-256df0",
        "locationSet": {"include": ["001"]},
        "oldid": "amenity/fuel|OIL!",
        "tags": {
          "amenity": "fuel",
          "brand": "OIL!",
          "brand:wikidata": "Q2007561",
          "brand:wikipedia": "de:OIL! Tankstellen",
          "name": "OIL!"
        }
      },
      {
        "displayName": "OK",
        "id": "ok-7a87e3",
        "locationSet": {"include": ["dk"]},
        "oldid": "amenity/fuel|OK",
        "tags": {
          "amenity": "fuel",
          "brand": "OK",
          "brand:wikidata": "Q12329785",
          "brand:wikipedia": "da:OK a.m.b.a.",
          "name": "OK"
        }
      },
      {
        "displayName": "OKQ8",
        "id": "okq8-9ca34e",
        "locationSet": {"include": ["se"]},
        "oldid": "amenity/fuel|OKQ8",
        "tags": {
          "amenity": "fuel",
          "brand": "OKQ8",
          "brand:wikidata": "Q2789310",
          "brand:wikipedia": "sv:OKQ8",
          "name": "OKQ8"
        }
      },
      {
        "displayName": "OMV",
        "id": "omv-256df0",
        "locationSet": {"include": ["001"]},
        "oldid": "amenity/fuel|OMV",
        "tags": {
          "amenity": "fuel",
          "brand": "OMV",
          "brand:wikidata": "Q168238",
          "brand:wikipedia": "en:OMV",
          "name": "OMV"
        }
      },
      {
        "displayName": "Octa+",
        "id": "octa-256df0",
        "locationSet": {"include": ["001"]},
        "oldid": "amenity/fuel|Octa+",
        "tags": {
          "amenity": "fuel",
          "brand": "Octa+",
          "name": "Octa+"
        }
      },
      {
        "displayName": "Oilibya",
        "id": "oilibya-256df0",
        "locationSet": {"include": ["001"]},
        "matchNames": [
          "oilibia",
          "oilibiya",
          "oillibia",
          "oilliby",
          "oillibya",
          "oillybia",
          "oilybia",
          "olibya",
          "olybia"
        ],
        "oldid": "amenity/fuel|Oilibya",
        "tags": {
          "amenity": "fuel",
          "brand": "Oilibya",
          "brand:wikidata": "Q7081491",
          "brand:wikipedia": "en:Oilibya",
          "name": "Oilibya",
          "name:ar": "أويليبيا"
        }
      },
      {
        "displayName": "Olerex",
        "id": "olerex-f2bda0",
        "locationSet": {"include": ["ee"]},
        "oldid": "amenity/fuel|Olerex",
        "tags": {
          "amenity": "fuel",
          "brand": "Olerex",
          "brand:wikidata": "Q16931205",
          "brand:wikipedia": "et:AS Olerex",
          "name": "Olerex"
        }
      },
      {
        "displayName": "Opet",
        "id": "opet-c69d5b",
        "locationSet": {"include": ["tr"]},
        "oldid": "amenity/fuel|Opet",
        "tags": {
          "amenity": "fuel",
          "brand": "Opet",
          "brand:wikidata": "Q7072824",
          "brand:wikipedia": "en:Opet",
          "name": "Opet"
        }
      },
      {
        "displayName": "Orlen",
        "id": "orlen-5c1b80",
        "locationSet": {"include": ["lt", "pl"]},
        "nomatch": ["shop/convenience|Orlen"],
        "oldid": "amenity/fuel|Orlen",
        "tags": {
          "amenity": "fuel",
          "brand": "Orlen",
          "brand:wikidata": "Q971649",
          "brand:wikipedia": "en:PKN Orlen",
          "name": "Orlen"
        }
      },
      {
        "displayName": "Oxxo",
        "id": "oxxo-256df0",
        "locationSet": {"include": ["001"]},
        "matchNames": ["oxxo gas"],
        "nomatch": ["shop/convenience|Oxxo"],
        "oldid": "amenity/fuel|Oxxo",
        "tags": {
          "amenity": "fuel",
          "brand": "Oxxo",
          "brand:wikidata": "Q1342538",
          "brand:wikipedia": "es:Oxxo",
          "name": "Oxxo"
        }
      },
      {
        "displayName": "PSO",
        "id": "pso-592236",
        "locationSet": {"include": ["pk"]},
        "matchNames": ["pso petrol pump"],
        "oldid": "amenity/fuel|PSO",
        "tags": {
          "amenity": "fuel",
          "brand": "PSO",
          "brand:wikidata": "Q2741455",
          "brand:wikipedia": "en:Pakistan State Oil",
          "name": "PSO"
        }
      },
      {
        "displayName": "PT",
        "id": "pt-57d3dd",
        "locationSet": {"include": ["th"]},
        "oldid": "amenity/fuel|PT",
        "tags": {
          "amenity": "fuel",
          "brand": "PT",
          "brand:wikidata": "Q62298612",
          "name": "PT"
        }
      },
      {
        "displayName": "PTT",
        "id": "ptt-256df0",
        "locationSet": {"include": ["001"]},
        "nomatch": ["amenity/post_office|PTT"],
        "oldid": "amenity/fuel|PTT",
        "tags": {
          "amenity": "fuel",
          "brand": "PTT",
          "brand:wikidata": "Q1810389",
          "brand:wikipedia": "en:PTT Public Company Limited",
          "name": "PTT"
        }
      },
      {
        "displayName": "PV Oil",
        "id": "pvoil-256df0",
        "locationSet": {"include": ["001"]},
        "oldid": "amenity/fuel|PV Oil",
        "tags": {
          "amenity": "fuel",
          "brand": "PV Oil",
          "brand:wikidata": "Q2089536",
          "brand:wikipedia": "en:Petrovietnam",
          "name": "PV Oil"
        }
      },
      {
        "displayName": "Pacific Pride",
        "id": "pacificpride-a79496",
        "locationSet": {"include": ["us"]},
        "oldid": "amenity/fuel|Pacific Pride",
        "tags": {
          "amenity": "fuel",
          "brand": "Pacific Pride",
          "brand:wikidata": "Q7122637",
          "brand:wikipedia": "en:Pacific Pride",
          "name": "Pacific Pride"
        }
      },
      {
        "displayName": "Pecsa",
        "id": "pecsa-49588e",
        "locationSet": {"include": ["pe"]},
        "oldid": "amenity/fuel|Pecsa",
        "tags": {
          "amenity": "fuel",
          "brand": "Pecsa",
          "brand:wikidata": "Q62299262",
          "name": "Pecsa"
        }
      },
      {
        "displayName": "Pemex",
        "id": "pemex-8665e7",
        "locationSet": {"include": ["mx"]},
        "oldid": "amenity/fuel|Pemex",
        "tags": {
          "amenity": "fuel",
          "brand": "Pemex",
          "brand:wikidata": "Q871308",
          "brand:wikipedia": "en:Pemex",
          "name": "Pemex"
        }
      },
      {
        "displayName": "Pertamina",
        "id": "pertamina-c3e5c8",
        "locationSet": {"include": ["id"]},
        "oldid": "amenity/fuel|Pertamina",
        "tags": {
          "amenity": "fuel",
          "brand": "Pertamina",
          "brand:wikidata": "Q1641044",
          "brand:wikipedia": "en:Pertamina",
          "name": "Pertamina"
        }
      },
      {
        "displayName": "Petro",
        "id": "petro-274e1c",
        "locationSet": {"include": ["ca", "us"]},
        "matchNames": ["petro stopping center"],
        "oldid": "amenity/fuel|Petro",
        "tags": {
          "alt_name": "Petro Stopping Centers",
          "amenity": "fuel",
          "brand": "Petro",
          "brand:wikidata": "Q64051305",
          "name": "Petro"
        }
      },
      {
        "displayName": "Petro Seven",
        "id": "petroseven-256df0",
        "locationSet": {"include": ["001"]},
        "oldid": "amenity/fuel|Petro Seven",
        "tags": {
          "amenity": "fuel",
          "brand": "Petro Seven",
          "name": "Petro Seven"
        }
      },
      {
        "displayName": "Petro-Canada",
        "id": "petrocanada-66f503",
        "locationSet": {"include": ["ca"]},
        "nomatch": [
          "shop/convenience|Petro-Canada"
        ],
        "oldid": "amenity/fuel|Petro-Canada",
        "tags": {
          "amenity": "fuel",
          "brand": "Petro-Canada",
          "brand:wikidata": "Q1208279",
          "brand:wikipedia": "en:Petro-Canada",
          "name": "Petro-Canada"
        }
      },
      {
        "displayName": "Petro-T",
        "id": "petrot-66f503",
        "locationSet": {"include": ["ca"]},
        "oldid": "amenity/fuel|Petro-T",
        "tags": {
          "amenity": "fuel",
          "brand": "Petro-T",
          "brand:wikidata": "Q61743540",
          "name": "Petro-T"
        }
      },
      {
        "displayName": "PetroPerú",
        "id": "petroperu-49588e",
        "locationSet": {"include": ["pe"]},
        "oldid": "amenity/fuel|PetroPerú",
        "tags": {
          "amenity": "fuel",
          "brand": "PetroPerú",
          "brand:wikidata": "Q2506390",
          "brand:wikipedia": "es:Petroperú",
          "name": "PetroPerú"
        }
      },
      {
        "displayName": "Petrochina",
        "id": "petrochina-943daf",
        "locationSet": {"include": ["cn"]},
        "oldid": "amenity/fuel|Petrochina",
        "tags": {
          "amenity": "fuel",
          "brand": "Petrochina",
          "brand:wikidata": "Q503182",
          "brand:wikipedia": "en:PetroChina",
          "name": "Petrochina"
        }
      },
      {
        "displayName": "Petroecuador",
        "id": "petroecuador-6e56c1",
        "locationSet": {"include": ["ec"]},
        "oldid": "amenity/fuel|Petroecuador",
        "tags": {
          "amenity": "fuel",
          "brand": "Petroecuador",
          "brand:wikidata": "Q1812822",
          "brand:wikipedia": "en:Petroecuador",
          "name": "Petroecuador"
        }
      },
      {
        "displayName": "Petrol Ofisi",
        "id": "petrolofisi-256df0",
        "locationSet": {"include": ["001"]},
        "oldid": "amenity/fuel|Petrol Ofisi",
        "tags": {
          "amenity": "fuel",
          "brand": "Petrol Ofisi",
          "brand:wikidata": "Q1278087",
          "brand:wikipedia": "en:Petrol Ofisi",
          "name": "Petrol Ofisi"
        }
      },
      {
        "displayName": "Petrolimex",
        "id": "petrolimex-256df0",
        "locationSet": {"include": ["001"]},
        "oldid": "amenity/fuel|Petrolimex",
        "tags": {
          "amenity": "fuel",
          "brand": "Petrolimex",
          "brand:wikidata": "Q10831598",
          "brand:wikipedia": "en:Petrolimex",
          "name": "Petrolimex"
        }
      },
      {
        "displayName": "Petrolina",
        "id": "petrolina-f3cbed",
        "locationSet": {"include": ["cy"]},
        "oldid": "amenity/fuel|Petrolina",
        "tags": {
          "amenity": "fuel",
          "brand": "Petrolina",
          "brand:wikidata": "Q17013948",
          "brand:wikipedia": "en:Petrolina (company)",
          "name": "Petrolina"
        }
      },
      {
        "displayName": "Petrom",
        "id": "petrom-256df0",
        "locationSet": {"include": ["001"]},
        "oldid": "amenity/fuel|Petrom",
        "tags": {
          "amenity": "fuel",
          "brand": "Petrom",
          "brand:wikidata": "Q1755034",
          "brand:wikipedia": "en:Petrom",
          "name": "Petrom"
        }
      },
      {
        "displayName": "Petron",
        "id": "petron-f73a60",
        "locationSet": {"include": ["my", "ph"]},
        "oldid": "amenity/fuel|Petron",
        "tags": {
          "amenity": "fuel",
          "brand": "Petron",
          "brand:wikidata": "Q7179011",
          "brand:wikipedia": "en:Petron Corporation",
          "name": "Petron"
        }
      },
      {
        "displayName": "Petron Gas Station",
        "id": "petrongasstation-ae0a4e",
        "locationSet": {"include": ["ph"]},
        "oldid": "amenity/fuel|Petron Gas Station",
        "tags": {
          "amenity": "fuel",
          "brand": "Petron Gas Station",
          "name": "Petron Gas Station"
        }
      },
      {
        "displayName": "Petronas",
        "id": "petronas-256df0",
        "locationSet": {"include": ["001"]},
        "oldid": "amenity/fuel|Petronas",
        "tags": {
          "amenity": "fuel",
          "brand": "Petronas",
          "brand:wikidata": "Q221692",
          "brand:wikipedia": "en:Petronas",
          "name": "Petronas"
        }
      },
      {
        "displayName": "Petronor",
        "id": "petronor-7b4cd5",
        "locationSet": {"include": ["es"]},
        "oldid": "amenity/fuel|Petronor",
        "tags": {
          "amenity": "fuel",
          "brand": "Petronor",
          "brand:wikidata": "Q1726547",
          "brand:wikipedia": "es:Petronor",
          "name": "Petronor"
        }
      },
      {
        "displayName": "Phillips 66",
        "id": "phillips66-a79496",
        "locationSet": {"include": ["us"]},
        "oldid": "amenity/fuel|Phillips 66",
        "tags": {
          "amenity": "fuel",
          "brand": "Phillips 66",
          "brand:wikidata": "Q1656230",
          "brand:wikipedia": "en:Phillips 66",
          "name": "Phillips 66"
        }
      },
      {
        "displayName": "Phoenix",
        "id": "phoenix-ae0a4e",
        "locationSet": {"include": ["ph"]},
        "oldid": "amenity/fuel|Phoenix",
        "tags": {
          "amenity": "fuel",
          "brand": "Phoenix",
          "brand:wikidata": "Q7186949",
          "brand:wikipedia": "en:Phoenix Petroleum",
          "name": "Phoenix"
        }
      },
      {
        "displayName": "Pilot",
        "id": "pilot-274e1c",
        "locationSet": {"include": ["ca", "us"]},
        "matchNames": ["pilot travel centers"],
        "oldid": "amenity/fuel|Pilot",
        "tags": {
          "amenity": "fuel",
          "brand": "Pilot",
          "brand:wikidata": "Q64128179",
          "name": "Pilot"
        }
      },
      {
        "displayName": "Pioneer",
        "id": "pioneer-66f503",
        "locationSet": {"include": ["ca"]},
        "oldid": "amenity/fuel|Pioneer",
        "tags": {
          "amenity": "fuel",
          "brand": "Pioneer",
          "brand:wikidata": "Q7196684",
          "brand:wikipedia": "en:Pioneer Energy",
          "name": "Pioneer"
        }
      },
      {
        "displayName": "Power",
        "id": "power-1af14e",
        "locationSet": {"include": ["be"]},
        "nomatch": ["shop/electronics|Power"],
        "oldid": "amenity/fuel|Power",
        "tags": {
          "amenity": "fuel",
          "brand": "Power",
          "brand:wikidata": "Q98380874",
          "name": "Power"
        }
      },
      {
        "displayName": "Preem",
        "id": "preem-60f92b",
        "locationSet": {"include": ["pl", "se"]},
        "oldid": "amenity/fuel|Preem",
        "tags": {
          "amenity": "fuel",
          "brand": "Preem",
          "brand:wikidata": "Q598835",
          "brand:wikipedia": "en:Preem",
          "name": "Preem"
        }
      },
      {
        "displayName": "Primax (Ecuador)",
        "id": "primax-6e56c1",
        "locationSet": {"include": ["ec"]},
        "oldid": "amenity/fuel|Primax~(Ecuador)",
        "tags": {
          "amenity": "fuel",
          "brand": "Primax",
          "brand:wikidata": "Q62332857",
          "name": "Primax"
        }
      },
      {
        "displayName": "Primax (Peru)",
        "id": "primax-49588e",
        "locationSet": {"include": ["pe"]},
        "oldid": "amenity/fuel|Primax~(Peru)",
        "tags": {
          "amenity": "fuel",
          "brand": "Primax",
          "brand:wikidata": "Q62332638",
          "name": "Primax"
        }
      },
      {
        "displayName": "Prio",
        "id": "prio-d6a799",
        "locationSet": {"include": ["pt"]},
        "oldid": "amenity/fuel|Prio",
        "tags": {
          "amenity": "fuel",
          "brand": "Prio",
          "brand:wikidata": "Q62530421",
          "name": "Prio"
        }
      },
      {
        "displayName": "Puma",
        "id": "puma-256df0",
        "locationSet": {"include": ["001"]},
        "nomatch": ["shop/clothes|Puma"],
        "oldid": "amenity/fuel|Puma",
        "tags": {
          "amenity": "fuel",
          "brand": "Puma",
          "brand:wikidata": "Q7259769",
          "brand:wikipedia": "en:Puma Energy",
          "name": "Puma"
        }
      },
      {
        "displayName": "Q1",
        "id": "q1-d68ae4",
        "locationSet": {"include": ["de"]},
        "oldid": "amenity/fuel|Q1",
        "tags": {
          "amenity": "fuel",
          "brand": "Q1",
          "brand:wikidata": "Q62086498",
          "name": "Q1"
        }
      },
      {
        "displayName": "Q8",
        "id": "q8-899333",
        "locationSet": {
          "include": [
            "be",
            "dk",
            "es",
            "it",
            "lu",
            "nl",
            "pt"
          ]
        },
        "oldid": "amenity/fuel|Q8",
        "tags": {
          "amenity": "fuel",
          "brand": "Q8",
          "brand:wikidata": "Q1634762",
          "brand:wikipedia": "en:Kuwait Petroleum Corporation",
          "name": "Q8"
        }
      },
      {
        "displayName": "Q8 Easy",
        "id": "q8easy-b7bc4b",
        "locationSet": {"include": ["be", "it"]},
        "oldid": "amenity/fuel|Q8 Easy",
        "tags": {
          "amenity": "fuel",
          "brand": "Q8 Easy",
          "brand:wikidata": "Q1806948",
          "brand:wikipedia": "nl:Q8 Easy",
          "name": "Q8 Easy"
        }
      },
      {
        "displayName": "Qstar",
        "id": "qstar-9ca34e",
        "locationSet": {"include": ["se"]},
        "oldid": "amenity/fuel|Qstar",
        "tags": {
          "amenity": "fuel",
          "brand": "Qstar",
          "brand:wikidata": "Q10647961",
          "brand:wikipedia": "sv:Qstar",
          "name": "Qstar"
        }
      },
      {
        "displayName": "QuickChek",
        "id": "quickchek-a79496",
        "locationSet": {"include": ["us"]},
        "nomatch": ["shop/convenience|QuickChek"],
        "oldid": "amenity/fuel|QuickChek",
        "tags": {
          "amenity": "fuel",
          "brand": "QuickChek",
          "brand:wikidata": "Q7271689",
          "brand:wikipedia": "en:QuickChek",
          "name": "QuickChek"
        }
      },
      {
        "displayName": "QuikTrip",
        "id": "quiktrip-256df0",
        "locationSet": {"include": ["001"]},
        "nomatch": ["shop/convenience|QuikTrip"],
        "oldid": "amenity/fuel|QuikTrip",
        "tags": {
          "amenity": "fuel",
          "brand": "QuikTrip",
          "brand:wikidata": "Q7271953",
          "brand:wikipedia": "en:QuikTrip",
          "name": "QuikTrip",
          "short_name": "QT"
        }
      },
      {
        "displayName": "RaceTrac",
        "id": "racetrac-256df0",
        "locationSet": {"include": ["001"]},
        "nomatch": ["shop/convenience|RaceTrac"],
        "oldid": "amenity/fuel|RaceTrac",
        "tags": {
          "amenity": "fuel",
          "brand": "RaceTrac",
          "brand:wikidata": "Q735942",
          "brand:wikipedia": "en:RaceTrac",
          "name": "RaceTrac"
        }
      },
      {
        "displayName": "RaceWay",
        "id": "raceway-a79496",
        "locationSet": {"include": ["us"]},
        "nomatch": ["shop/convenience|RaceWay"],
        "oldid": "amenity/fuel|RaceWay",
        "tags": {
          "amenity": "fuel",
          "brand": "RaceWay",
          "brand:wikidata": "Q73039084",
          "name": "RaceWay"
        }
      },
      {
        "displayName": "Raiffeisen",
        "id": "raiffeisen-d68ae4",
        "locationSet": {"include": ["de"]},
        "nomatch": [
          "amenity/bank|Raiffeisen Polbank",
          "amenity/bank|Raiffeisenbank~(Albania)",
          "amenity/bank|Raiffeisenbank~(Bulgaria)",
          "amenity/bank|Raiffeisenbank~(Czech Republic)",
          "amenity/bank|Raiffeisenbank~(Romania)",
          "amenity/bank|Raiffeisenbank~(Serbia)",
          "amenity/bank|Райффайзен",
          "amenity/bank|Райффайзен Банк Аваль"
        ],
        "oldid": "amenity/fuel|Raiffeisen",
        "tags": {
          "amenity": "fuel",
          "brand": "Raiffeisen",
          "name": "Raiffeisen"
        }
      },
      {
        "displayName": "Repsol",
        "id": "repsol-256df0",
        "locationSet": {"include": ["001"]},
        "oldid": "amenity/fuel|Repsol",
        "tags": {
          "amenity": "fuel",
          "brand": "Repsol",
          "brand:wikidata": "Q174747",
          "brand:wikipedia": "es:Repsol",
          "name": "Repsol"
        }
      },
      {
        "displayName": "Revoil",
        "id": "revoil-a14911",
        "locationSet": {"include": ["gr"]},
        "oldid": "amenity/fuel|Revoil",
        "tags": {
          "amenity": "fuel",
          "brand": "Revoil",
          "brand:wikidata": "Q62530755",
          "name": "Revoil"
        }
      },
      {
        "displayName": "Rompetrol",
        "id": "rompetrol-256df0",
        "locationSet": {"include": ["001"]},
        "oldid": "amenity/fuel|Rompetrol",
        "tags": {
          "amenity": "fuel",
          "brand": "Rompetrol",
          "brand:wikidata": "Q1788862",
          "brand:wikipedia": "en:Rompetrol",
          "name": "Rompetrol"
        }
      },
      {
        "displayName": "Rotten Robbie",
        "id": "rottenrobbie-a79496",
        "locationSet": {"include": ["us"]},
        "nomatch": [
          "shop/convenience|Rotten Robbie"
        ],
        "oldid": "amenity/fuel|Rotten Robbie",
        "tags": {
          "amenity": "fuel",
          "brand": "Rotten Robbie",
          "brand:wikidata": "Q87378070",
          "name": "Rotten Robbie"
        }
      },
      {
        "displayName": "Royal Farms",
        "id": "royalfarms-a79496",
        "locationSet": {"include": ["us"]},
        "nomatch": [
          "shop/convenience|Royal Farms"
        ],
        "oldid": "amenity/fuel|Royal Farms",
        "tags": {
          "amenity": "fuel",
          "brand": "Royal Farms",
          "brand:wikidata": "Q7374169",
          "brand:wikipedia": "en:Royal Farms",
          "name": "Royal Farms"
        }
      },
      {
        "displayName": "Rubis",
        "id": "rubis-256df0",
        "locationSet": {"include": ["001"]},
        "oldid": "amenity/fuel|Rubis",
        "tags": {
          "amenity": "fuel",
          "brand": "Rubis",
          "brand:wikidata": "Q3446514",
          "brand:wikipedia": "en:Rubis (company)",
          "name": "Rubis"
        }
      },
      {
        "displayName": "Rutter's",
        "id": "rutters-a79496",
        "locationSet": {"include": ["us"]},
        "nomatch": ["shop/convenience|Rutter's"],
        "oldid": "amenity/fuel|Rutter's",
        "tags": {
          "amenity": "fuel",
          "brand": "Rutter's",
          "brand:wikidata": "Q7383544",
          "brand:wikipedia": "en:Rutter's",
          "name": "Rutter's"
        }
      },
      {
        "displayName": "SB Tank",
        "id": "sbtank-d68ae4",
        "locationSet": {"include": ["de"]},
        "oldid": "amenity/fuel|SB Tank",
        "tags": {
          "amenity": "fuel",
          "brand": "SB Tank",
          "brand:wikidata": "Q96758296",
          "name": "SB Tank"
        }
      },
      {
        "displayName": "SK주유소",
        "id": "sk주유소-a86718",
        "locationSet": {"include": ["kr"]},
        "oldid": "amenity/fuel|SK주유소",
        "tags": {
          "amenity": "fuel",
          "brand": "SK주유소",
          "brand:ko": "SK주유소",
          "name": "SK주유소",
          "name:ko": "SK주유소"
        }
      },
      {
        "displayName": "SP",
        "id": "sp-256df0",
        "locationSet": {"include": ["001"]},
        "oldid": "amenity/fuel|SP",
        "tags": {
          "amenity": "fuel",
          "brand": "SP",
          "name": "SP"
        }
      },
      {
        "displayName": "Safeway",
        "id": "safeway-256df0",
        "locationSet": {"include": ["001"]},
        "nomatch": [
          "amenity/pharmacy|Safeway",
          "shop/supermarket|Safeway"
        ],
        "oldid": "amenity/fuel|Safeway",
        "tags": {
          "amenity": "fuel",
          "brand": "Safeway",
          "brand:wikidata": "Q1508234",
          "brand:wikipedia": "en:Safeway Inc.",
          "name": "Safeway"
        }
      },
      {
        "displayName": "Sainsbury's",
        "id": "sainsburys-ac7bae",
        "locationSet": {"include": ["gb"]},
        "nomatch": [
          "shop/supermarket|Sainsbury's"
        ],
        "oldid": "amenity/fuel|Sainsbury's",
        "tags": {
          "amenity": "fuel",
          "brand": "Sainsbury's",
          "brand:wikidata": "Q152096",
          "brand:wikipedia": "en:Sainsbury's",
          "name": "Sainsbury's"
        }
      },
      {
        "displayName": "Sam's Club",
        "id": "samsclub-256df0",
        "locationSet": {"include": ["001"]},
        "matchNames": [
          "sams club fuel center",
          "sams club gas"
        ],
        "nomatch": ["shop/wholesale|Sam's Club"],
        "oldid": "amenity/fuel|Sam's Club",
        "tags": {
          "amenity": "fuel",
          "brand": "Sam's Club",
          "brand:wikidata": "Q1972120",
          "brand:wikipedia": "en:Sam's Club",
          "name": "Sam's Club"
        }
      },
      {
        "displayName": "Sasol",
        "id": "sasol-1d396c",
        "locationSet": {"include": ["za"]},
        "oldid": "amenity/fuel|Sasol",
        "tags": {
          "amenity": "fuel",
          "brand": "Sasol",
          "brand:wikidata": "Q905998",
          "brand:wikipedia": "en:Sasol",
          "name": "Sasol"
        }
      },
      {
        "displayName": "Sea Oil",
        "id": "seaoil-ae0a4e",
        "locationSet": {"include": ["ph"]},
        "oldid": "amenity/fuel|Sea Oil",
        "tags": {
          "amenity": "fuel",
          "brand": "Sea Oil",
          "brand:wikidata": "Q7389549",
          "brand:wikipedia": "en:Seaoil Philippines",
          "name": "Sea Oil"
        }
      },
      {
        "displayName": "Sheetz",
        "id": "sheetz-256df0",
        "locationSet": {"include": ["001"]},
        "nomatch": ["shop/convenience|Sheetz"],
        "oldid": "amenity/fuel|Sheetz",
        "tags": {
          "amenity": "fuel",
          "brand": "Sheetz",
          "brand:wikidata": "Q7492551",
          "brand:wikipedia": "en:Sheetz",
          "name": "Sheetz"
        }
      },
      {
        "displayName": "Shell",
        "id": "shell-256df0",
        "locationSet": {"include": ["001"]},
        "matchNames": [
          "posto shell",
          "shell gas station",
          "shell petrol station",
          "shell station",
          "station shell"
        ],
        "nomatch": [
          "amenity/fuel|Shell Express",
          "shop/convenience|Shell Select"
        ],
        "oldid": "amenity/fuel|Shell",
        "tags": {
          "amenity": "fuel",
          "brand": "Shell",
          "brand:wikidata": "Q154950",
          "brand:wikipedia": "en:Royal Dutch Shell",
          "name": "Shell"
        }
      },
      {
        "displayName": "Shell Express",
        "id": "shellexpress-256df0",
        "locationSet": {"include": ["001"]},
        "nomatch": [
          "amenity/fuel|Shell",
          "shop/convenience|Shell Select"
        ],
        "oldid": "amenity/fuel|Shell Express",
        "tags": {
          "amenity": "fuel",
          "brand": "Shell Express",
          "brand:wikidata": "Q2289188",
          "brand:wikipedia": "nl:Shell Express",
          "name": "Shell Express"
        }
      },
      {
        "displayName": "Sinclair",
        "id": "sinclair-a79496",
        "locationSet": {"include": ["us"]},
        "oldid": "amenity/fuel|Sinclair",
        "tags": {
          "amenity": "fuel",
          "brand": "Sinclair",
          "brand:wikidata": "Q1290900",
          "brand:wikipedia": "en:Sinclair Oil Corporation",
          "name": "Sinclair"
        }
      },
      {
        "displayName": "Slovnaft",
        "id": "slovnaft-b6108f",
        "locationSet": {
          "include": ["cz", "pl", "sk"]
        },
        "oldid": "amenity/fuel|Slovnaft",
        "tags": {
          "amenity": "fuel",
          "brand": "Slovnaft",
          "brand:wikidata": "Q1587563",
          "brand:wikipedia": "en:Slovnaft",
          "name": "Slovnaft"
        }
      },
      {
        "displayName": "Socar",
        "id": "socar-256df0",
        "locationSet": {"include": ["001"]},
        "oldid": "amenity/fuel|Socar",
        "tags": {
          "amenity": "fuel",
          "brand": "Socar",
          "brand:wikidata": "Q1622293",
          "brand:wikipedia": "en:SOCAR",
          "name": "Socar"
        }
      },
      {
        "displayName": "Sokimex",
        "id": "sokimex-9608d3",
        "locationSet": {"include": ["kh"]},
        "oldid": "amenity/fuel|Sokimex",
        "tags": {
          "amenity": "fuel",
          "brand": "Sokimex",
          "brand:wikidata": "Q1149575",
          "brand:wikipedia": "en:Sokimex",
          "name": "Sokimex"
        }
      },
      {
        "displayName": "Sonangol",
        "id": "sonangol-d65773",
        "locationSet": {"include": ["ao"]},
        "oldid": "amenity/fuel|Sonangol",
        "tags": {
          "amenity": "fuel",
          "brand": "Sonangol",
          "brand:wikidata": "Q677832",
          "brand:wikipedia": "pt:Sonangol",
          "name": "Sonangol"
        }
      },
      {
        "displayName": "Sonic",
        "id": "sonic-66f503",
        "locationSet": {"include": ["ca"]},
        "nomatch": ["amenity/fast_food|Sonic"],
        "oldid": "amenity/fuel|Sonic",
        "tags": {
          "amenity": "fuel",
          "brand": "Sonic",
          "name": "Sonic"
        }
      },
      {
        "displayName": "Speedway",
        "id": "speedway-256df0",
        "locationSet": {"include": ["001"]},
        "nomatch": ["shop/convenience|Speedway"],
        "oldid": "amenity/fuel|Speedway",
        "tags": {
          "amenity": "fuel",
          "brand": "Speedway",
          "brand:wikidata": "Q7575683",
          "brand:wikipedia": "en:Speedway LLC",
          "name": "Speedway"
        }
      },
      {
        "displayName": "Sprint",
        "id": "sprint-d68ae4",
        "locationSet": {"include": ["de"]},
        "nomatch": ["shop/mobile_phone|Sprint"],
        "oldid": "amenity/fuel|Sprint",
        "tags": {
          "amenity": "fuel",
          "brand": "Sprint",
          "brand:wikidata": "Q57588452",
          "name": "Sprint"
        }
      },
      {
        "displayName": "St1",
        "id": "st1-2cb01c",
        "locationSet": {"include": ["fi", "se"]},
        "oldid": "amenity/fuel|St1",
        "tags": {
          "amenity": "fuel",
          "brand": "St1",
          "brand:wikidata": "Q7592214",
          "brand:wikipedia": "en:St1",
          "name": "St1"
        }
      },
      {
        "displayName": "Star",
        "id": "star-d68ae4",
        "locationSet": {"include": ["de"]},
        "oldid": "amenity/fuel|Star",
        "tags": {
          "amenity": "fuel",
          "brand": "Star",
          "brand:wikidata": "Q2031095",
          "brand:wikipedia": "de:Orlen Deutschland",
          "name": "Star"
        }
      },
      {
        "displayName": "Star Oil",
        "id": "staroil-256df0",
        "locationSet": {"include": ["001"]},
        "oldid": "amenity/fuel|Star Oil",
        "tags": {
          "amenity": "fuel",
          "brand": "Star Oil",
          "name": "Star Oil"
        }
      },
      {
        "displayName": "Station Service E. Leclerc",
        "id": "stationserviceeleclerc-256df0",
        "locationSet": {"include": ["001"]},
        "matchNames": ["e. leclerc"],
        "oldid": "amenity/fuel|Station Service E. Leclerc",
        "tags": {
          "amenity": "fuel",
          "brand": "E.Leclerc",
          "brand:wikidata": "Q1273376",
          "brand:wikipedia": "fr:E.Leclerc",
          "name": "Station Service E. Leclerc"
        }
      },
      {
        "displayName": "Statoil",
        "id": "statoil-350531",
        "locationSet": {
          "include": [
            "dk",
            "ee",
            "ie",
            "pl",
            "ru",
            "se"
          ]
        },
        "oldid": "amenity/fuel|Statoil",
        "tags": {
          "amenity": "fuel",
          "brand": "Statoil",
          "brand:wikidata": "Q1776022",
          "brand:wikipedia": "en:Equinor",
          "name": "Statoil"
        }
      },
      {
        "displayName": "Stewart's",
        "id": "stewarts-a79496",
        "locationSet": {"include": ["us"]},
        "nomatch": ["shop/convenience|Stewart's"],
        "oldid": "amenity/fuel|Stewart's",
        "tags": {
          "amenity": "fuel",
          "brand": "Stewart's",
          "brand:wikidata": "Q7615690",
          "brand:wikipedia": "en:Stewart's Shops",
          "name": "Stewart's"
        }
      },
      {
        "displayName": "Sunoco",
        "id": "sunoco-256df0",
        "locationSet": {"include": ["001"]},
        "nomatch": ["shop/convenience|Sunoco"],
        "oldid": "amenity/fuel|Sunoco",
        "tags": {
          "amenity": "fuel",
          "brand": "Sunoco",
          "brand:wikidata": "Q1423218",
          "brand:wikipedia": "en:Sunoco",
          "name": "Sunoco"
        }
      },
      {
        "displayName": "Super U",
        "id": "superu-ac186a",
        "locationSet": {"include": ["fr"]},
        "nomatch": [
          "shop/convenience|Utile",
          "shop/supermarket|Hyper U",
          "shop/supermarket|Super U",
          "shop/supermarket|U Express"
        ],
        "oldid": "amenity/fuel|Super U",
        "tags": {
          "amenity": "fuel",
          "brand": "Super U",
          "brand:wikidata": "Q2529029",
          "brand:wikipedia": "en:Système U",
          "name": "Super U"
        }
      },
      {
        "displayName": "Susco",
        "id": "susco-57d3dd",
        "locationSet": {"include": ["th"]},
        "oldid": "amenity/fuel|Susco",
        "tags": {
          "amenity": "fuel",
          "brand": "Susco",
          "name": "Susco"
        }
      },
      {
        "displayName": "TA",
        "id": "ta-a79496",
        "locationSet": {"include": ["us"]},
        "oldid": "amenity/fuel|TA",
        "tags": {
          "amenity": "fuel",
          "brand": "TA",
          "brand:wikidata": "Q7835892",
          "brand:wikipedia": "en:TravelCenters of America",
          "name": "TA"
        }
      },
      {
        "displayName": "Tamoil",
        "id": "tamoil-b5b2c8",
        "locationSet": {
          "include": [
            "ch",
            "de",
            "es",
            "fr",
            "it",
            "nl"
          ]
        },
        "oldid": "amenity/fuel|Tamoil",
        "tags": {
          "amenity": "fuel",
          "brand": "Tamoil",
          "brand:wikidata": "Q706793",
          "brand:wikipedia": "en:Tamoil",
          "name": "Tamoil"
        }
      },
      {
        "displayName": "Tango",
        "id": "tango-166959",
        "locationSet": {"include": ["be", "nl"]},
        "oldid": "amenity/fuel|Tango",
        "tags": {
          "amenity": "fuel",
          "brand": "Tango",
          "brand:wikidata": "Q2423920",
          "brand:wikipedia": "nl:Tango CV",
          "name": "Tango"
        }
      },
      {
        "displayName": "Tanka",
        "id": "tanka-9ca34e",
        "locationSet": {"include": ["se"]},
        "oldid": "amenity/fuel|Tanka",
        "tags": {
          "amenity": "fuel",
          "brand": "Tanka",
          "brand:wikidata": "Q10690640",
          "brand:wikipedia": "sv:Tanka (bensinstationskedja)",
          "name": "Tanka"
        }
      },
      {
        "displayName": "Teboil",
        "id": "teboil-1c19f0",
        "locationSet": {"include": ["fi"]},
        "oldid": "amenity/fuel|Teboil",
        "tags": {
          "amenity": "fuel",
          "brand": "Teboil",
          "brand:wikidata": "Q7692079",
          "brand:wikipedia": "en:Teboil",
          "name": "Teboil"
        }
      },
      {
        "displayName": "Tela",
        "id": "tela-9608d3",
        "locationSet": {"include": ["kh"]},
        "oldid": "amenity/fuel|Tela",
        "tags": {
          "amenity": "fuel",
          "brand": "Tela",
          "brand:wikidata": "Q62534875",
          "name": "Tela"
        }
      },
      {
        "displayName": "Tempo",
        "id": "tempo-66f503",
        "locationSet": {"include": ["ca"]},
        "oldid": "amenity/fuel|Tempo",
        "tags": {
          "amenity": "fuel",
          "brand": "Tempo",
          "brand:wikidata": "Q62535175",
          "name": "Tempo"
        }
      },
      {
        "displayName": "Terpel",
        "id": "terpel-256df0",
        "locationSet": {"include": ["001"]},
        "oldid": "amenity/fuel|Terpel",
        "tags": {
          "amenity": "fuel",
          "brand": "Terpel",
          "brand:wikidata": "Q7703003",
          "brand:wikipedia": "en:Terpel",
          "name": "Terpel"
        }
      },
      {
        "displayName": "Terrible's",
        "id": "terribles-a79496",
        "locationSet": {"include": ["us"]},
        "oldid": "amenity/fuel|Terrible's",
        "tags": {
          "amenity": "fuel",
          "brand": "Terrible's",
          "brand:wikidata": "Q7703648",
          "brand:wikipedia": "en:Terrible Herbst",
          "name": "Terrible's"
        }
      },
      {
        "displayName": "Tesco",
        "id": "tesco-256df0",
        "locationSet": {"include": ["001"]},
        "nomatch": [
          "shop/convenience|Tesco",
          "shop/convenience|Tesco Express",
          "shop/convenience|Tesco Lotus Express",
          "shop/supermarket|Tesco",
          "shop/supermarket|Tesco Extra",
          "shop/supermarket|Tesco Lotus",
          "shop/supermarket|Tesco Metro"
        ],
        "oldid": "amenity/fuel|Tesco",
        "tags": {
          "amenity": "fuel",
          "brand": "Tesco",
          "brand:wikidata": "Q487494",
          "brand:wikipedia": "en:Tesco",
          "name": "Tesco"
        }
      },
      {
        "displayName": "Tesoro",
        "id": "tesoro-a79496",
        "locationSet": {"include": ["us"]},
        "nomatch": ["amenity/bank|Tesoro"],
        "oldid": "amenity/fuel|Tesoro",
        "tags": {
          "amenity": "fuel",
          "brand": "Tesoro",
          "name": "Tesoro"
        }
      },
      {
        "displayName": "Texaco",
        "id": "texaco-256df0",
        "locationSet": {"include": ["001"]},
        "nomatch": ["shop/convenience|Texaco"],
        "oldid": "amenity/fuel|Texaco",
        "tags": {
          "amenity": "fuel",
          "brand": "Texaco",
          "brand:wikidata": "Q775060",
          "brand:wikipedia": "en:Texaco",
          "name": "Texaco"
        }
      },
      {
        "displayName": "Thorntons",
        "id": "thorntons-a79496",
        "locationSet": {"include": ["us"]},
        "nomatch": [
          "shop/confectionery|Thorntons",
          "shop/convenience|Thorntons"
        ],
        "oldid": "amenity/fuel|Thorntons",
        "tags": {
          "amenity": "fuel",
          "brand": "Thorntons",
          "brand:wikidata": "Q7796584",
          "brand:wikipedia": "en:Thorntons LLC",
          "name": "Thorntons"
        }
      },
      {
        "displayName": "Tinq",
        "id": "tinq-dbec7c",
        "locationSet": {"include": ["de", "nl"]},
        "oldid": "amenity/fuel|Tinq",
        "tags": {
          "amenity": "fuel",
          "brand": "Tinq",
          "brand:wikidata": "Q2132028",
          "brand:wikipedia": "nl:Tinq",
          "name": "Tinq"
        }
      },
      {
        "displayName": "Top",
        "id": "top-6d3055",
        "locationSet": {"include": ["ie"]},
        "matchNames": ["top oil"],
        "nomatch": ["shop/clothes|Topshop"],
        "oldid": "amenity/fuel|Top",
        "tags": {
          "amenity": "fuel",
          "brand": "Top",
          "brand:wikidata": "Q7693933",
          "brand:wikipedia": "en:Tedcastles Oil Products",
          "name": "Top",
          "official_name": "Tedcastles Oil Products"
        }
      },
      {
        "displayName": "Topaz",
        "id": "topaz-6d3055",
        "locationSet": {"include": ["ie"]},
        "oldid": "amenity/fuel|Topaz",
        "tags": {
          "amenity": "fuel",
          "brand": "Topaz",
          "brand:wikidata": "Q7824764",
          "brand:wikipedia": "en:Topaz Energy",
          "name": "Topaz"
        }
      },
      {
        "displayName": "Total",
        "id": "total-256df0",
        "locationSet": {"include": ["001"]},
        "matchNames": ["station total"],
        "nomatch": ["shop/convenience|Total"],
        "oldid": "amenity/fuel|Total",
        "tags": {
          "amenity": "fuel",
          "brand": "Total",
          "brand:wikidata": "Q154037",
          "brand:wikipedia": "fr:Total (entreprise)",
          "name": "Total"
        }
      },
      {
        "displayName": "Total Access",
        "id": "totalaccess-ac186a",
        "locationSet": {"include": ["fr"]},
        "oldid": "amenity/fuel|Total Access",
        "tags": {
          "amenity": "fuel",
          "brand": "Total Access",
          "brand:wikidata": "Q154037",
          "brand:wikipedia": "fr:Total (entreprise)",
          "name": "Total Access"
        }
      },
      {
        "displayName": "TotalErg",
        "id": "totalerg-a91992",
        "locationSet": {"include": ["it"]},
        "oldid": "amenity/fuel|TotalErg",
        "tags": {
          "amenity": "fuel",
          "brand": "TotalErg",
          "brand:wikidata": "Q3995933",
          "brand:wikipedia": "it:TotalErg",
          "name": "TotalErg"
        }
      },
      {
        "displayName": "Turkey Hill",
        "id": "turkeyhill-a79496",
        "locationSet": {"include": ["us"]},
        "nomatch": [
          "shop/convenience|Turkey Hill"
        ],
        "oldid": "amenity/fuel|Turkey Hill",
        "tags": {
          "amenity": "fuel",
          "brand": "Turkey Hill",
          "brand:wikidata": "Q42376970",
          "brand:wikipedia": "en:Turkey Hill Minit Markets",
          "name": "Turkey Hill"
        }
      },
      {
        "displayName": "Turmöl",
        "id": "turmol-c7e7bd",
        "locationSet": {"include": ["at"]},
        "oldid": "amenity/fuel|Turmöl",
        "tags": {
          "amenity": "fuel",
          "brand": "Turmöl",
          "brand:wikidata": "Q1473279",
          "brand:wikipedia": "de:Turmöl",
          "name": "Turmöl"
        }
      },
      {
        "displayName": "UDF Fuel",
        "id": "udffuel-a79496",
        "locationSet": {"include": ["us"]},
        "matchNames": [
          "udf fuels",
          "united dairy farmers"
        ],
        "nomatch": [
          "shop/convenience|United Dairy Farmers"
        ],
        "oldid": "amenity/fuel|UDF Fuel",
        "tags": {
          "amenity": "fuel",
          "brand": "United Dairy Farmers",
          "brand:wikidata": "Q7887677",
          "brand:wikipedia": "en:United Dairy Farmers",
          "name": "UDF Fuel",
          "short_name": "UDF"
        }
      },
      {
        "displayName": "USA Gasoline",
        "id": "usagasoline-a79496",
        "locationSet": {"include": ["us"]},
        "oldid": "amenity/fuel|USA Gasoline",
        "tags": {
          "amenity": "fuel",
          "brand": "USA Gasoline",
          "brand:wikidata": "Q17126373",
          "brand:wikipedia": "en:USA Gasoline",
          "name": "USA Gasoline"
        }
      },
      {
        "displayName": "Ultramar",
        "id": "ultramar-256df0",
        "locationSet": {"include": ["001"]},
        "nomatch": ["shop/convenience|Ultramar"],
        "oldid": "amenity/fuel|Ultramar",
        "tags": {
          "amenity": "fuel",
          "brand": "Ultramar",
          "brand:wikidata": "Q3548078",
          "brand:wikipedia": "en:Ultramar",
          "name": "Ultramar"
        }
      },
      {
        "displayName": "United",
        "id": "united-3449e7",
        "locationSet": {"include": ["au"]},
        "matchNames": ["united petroleum"],
        "nomatch": [
          "amenity/bank|United Bank~(Connecticut)",
          "amenity/bank|United Bank~(West Virginia)",
          "shop/convenience|United"
        ],
        "oldid": "amenity/fuel|United",
        "tags": {
          "amenity": "fuel",
          "brand": "United",
          "brand:wikidata": "Q28224393",
          "brand:wikipedia": "en:United Petroleum",
          "name": "United"
        }
      },
      {
        "displayName": "Uno",
        "id": "uno-6eec3e",
        "locationSet": {
          "include": [
            "bz",
            "cr",
            "gt",
            "hn",
            "ni",
            "sv"
          ]
        },
        "oldid": "amenity/fuel|Uno",
        "tags": {
          "amenity": "fuel",
          "brand": "Uno",
          "brand:wikidata": "Q62535574",
          "name": "Uno"
        }
      },
      {
        "displayName": "Uno-X",
        "id": "unox-7a87e3",
        "locationSet": {"include": ["dk"]},
        "oldid": "amenity/fuel|Uno-X",
        "tags": {
          "amenity": "fuel",
          "brand": "Uno-X",
          "brand:wikidata": "Q3362746",
          "brand:wikipedia": "en:Uno-X",
          "name": "Uno-X"
        }
      },
      {
        "displayName": "Valero",
        "id": "valero-256df0",
        "locationSet": {"include": ["001"]},
        "nomatch": ["shop/convenience|Valero"],
        "oldid": "amenity/fuel|Valero",
        "tags": {
          "amenity": "fuel",
          "brand": "Valero",
          "brand:wikidata": "Q1283291",
          "brand:wikipedia": "en:Valero Energy",
          "name": "Valero"
        }
      },
      {
        "displayName": "Viada",
        "id": "viada-dc7705",
        "locationSet": {"include": ["lt", "lv"]},
        "oldid": "amenity/fuel|Viada",
        "tags": {
          "amenity": "fuel",
          "brand": "Viada",
          "brand:wikidata": "Q12663942",
          "brand:wikipedia": "en:Lukoil Baltija",
          "name": "Viada"
        }
      },
      {
        "displayName": "Vito",
        "id": "vito-ac186a",
        "locationSet": {"include": ["fr"]},
        "oldid": "amenity/fuel|Vito",
        "tags": {
          "amenity": "fuel",
          "brand": "Vito",
          "brand:wikidata": "Q62536473",
          "name": "Vito"
        }
      },
      {
        "displayName": "WOG",
        "id": "wog-13cad4",
        "locationSet": {"include": ["ua"]},
        "oldid": "amenity/fuel|WOG",
        "tags": {
          "amenity": "fuel",
          "brand": "WOG",
          "brand:wikidata": "Q12072939",
          "brand:wikipedia": "en:WOG (gas stations)",
          "name": "WOG"
        }
      },
      {
        "displayName": "Walmart",
        "id": "walmart-256df0",
        "locationSet": {"include": ["001"]},
        "nomatch": [
          "amenity/pharmacy|Walmart Pharmacy",
          "shop/department_store|Walmart",
          "shop/garden_centre|Walmart Garden Center",
          "shop/supermarket|Walmart Neighborhood Market",
          "shop/supermarket|Walmart Supercenter",
          "shop/supermarket|Walmart Supercentre"
        ],
        "oldid": "amenity/fuel|Walmart",
        "tags": {
          "amenity": "fuel",
          "brand": "Walmart",
          "brand:wikidata": "Q62606411",
          "brand:wikipedia": "en:Walmart",
          "name": "Walmart"
        }
      },
      {
        "displayName": "Wawa",
        "id": "wawa-256df0",
        "locationSet": {"include": ["001"]},
        "nomatch": ["shop/convenience|Wawa"],
        "oldid": "amenity/fuel|Wawa",
        "tags": {
          "amenity": "fuel",
          "brand": "Wawa",
          "brand:wikidata": "Q5936320",
          "brand:wikipedia": "en:Wawa (company)",
          "name": "Wawa"
        }
      },
      {
        "displayName": "Westfalen",
        "id": "westfalen-d68ae4",
        "locationSet": {"include": ["de"]},
        "oldid": "amenity/fuel|Westfalen",
        "tags": {
          "amenity": "fuel",
          "brand": "Westfalen",
          "brand:wikidata": "Q1411209",
          "brand:wikipedia": "en:Westfalen AG",
          "name": "Westfalen"
        }
      },
      {
        "displayName": "Winxo",
        "id": "winxo-d1520b",
        "locationSet": {"include": ["ma"]},
        "oldid": "amenity/fuel|Winxo",
        "tags": {
          "amenity": "fuel",
          "brand": "Winxo",
          "brand:wikidata": "Q88389320",
          "name": "Winxo"
        }
      },
      {
        "displayName": "Woolworths Petrol",
        "id": "woolworthspetrol-3449e7",
        "locationSet": {"include": ["au"]},
        "nomatch": [
          "shop/convenience|Woolworths Petrol"
        ],
        "oldid": "amenity/fuel|Woolworths Petrol",
        "tags": {
          "amenity": "fuel",
          "brand": "Caltex",
          "brand:wikidata": "Q5023980",
          "brand:wikipedia": "en:Caltex Woolworths",
          "name": "Woolworths Petrol"
        }
      },
      {
        "displayName": "XTR",
        "id": "xtr-66f503",
        "locationSet": {"include": ["ca"]},
        "oldid": "amenity/fuel|XTR",
        "tags": {
          "amenity": "fuel",
          "brand": "XTR",
          "brand:wikidata": "Q62537250",
          "name": "XTR"
        }
      },
      {
        "displayName": "YPF",
        "id": "ypf-256df0",
        "locationSet": {"include": ["001"]},
        "oldid": "amenity/fuel|YPF",
        "tags": {
          "amenity": "fuel",
          "brand": "YPF",
          "brand:wikidata": "Q2006989",
          "brand:wikipedia": "en:YPF",
          "name": "YPF"
        }
      },
      {
        "displayName": "YX Energi",
        "id": "yxenergi-4e0eb5",
        "locationSet": {"include": ["dk", "no"]},
        "oldid": "amenity/fuel|YX Energi",
        "tags": {
          "amenity": "fuel",
          "brand": "YX Energi",
          "brand:wikidata": "Q4580519",
          "brand:wikipedia": "en:YX Energi",
          "name": "YX Energi"
        }
      },
      {
        "displayName": "Z",
        "id": "z-529bd1",
        "locationSet": {"include": ["nz"]},
        "nomatch": ["shop/clothes|Z"],
        "oldid": "amenity/fuel|Z",
        "tags": {
          "amenity": "fuel",
          "brand": "Z",
          "brand:wikidata": "Q8063337",
          "brand:wikipedia": "en:Z Energy",
          "name": "Z"
        }
      },
      {
        "displayName": "Ziz",
        "id": "ziz-d1520b",
        "locationSet": {"include": ["ma"]},
        "oldid": "amenity/fuel|Ziz",
        "tags": {
          "amenity": "fuel",
          "brand": "Ziz",
          "brand:wikidata": "Q88393228",
          "name": "Ziz"
        }
      },
      {
        "displayName": "bft",
        "id": "bft-d68ae4",
        "locationSet": {"include": ["de"]},
        "oldid": "amenity/fuel|bft",
        "tags": {
          "amenity": "fuel",
          "brand": "bft",
          "brand:wikidata": "Q1009104",
          "brand:wikipedia": "de:Bundesverband freier Tankstellen",
          "name": "bft"
        }
      },
      {
        "displayName": "bi1",
        "id": "bi1-ac186a",
        "locationSet": {"include": ["fr"]},
        "nomatch": ["shop/supermarket|bi1"],
        "oldid": "amenity/fuel|bi1",
        "tags": {
          "amenity": "fuel",
          "brand": "bi1",
          "brand:wikidata": "Q56325139",
          "brand:wikipedia": "pl:Bi1",
          "name": "bi1"
        }
      },
      {
        "displayName": "din-X",
        "id": "dinx-9ca34e",
        "locationSet": {"include": ["se"]},
        "oldid": "amenity/fuel|din-X",
        "tags": {
          "amenity": "fuel",
          "brand": "din-X",
          "brand:wikidata": "Q10472858",
          "brand:wikipedia": "sv:Din-X",
          "name": "din-X"
        }
      },
      {
        "displayName": "uSmile 昆仑好客",
        "id": "usmile昆仑好-943daf",
        "locationSet": {"include": ["cn"]},
        "matchNames": [
          "usmile",
          "usmile 便利店",
          "昆仑好",
          "昆仑好客"
        ],
        "nomatch": [
          "shop/convenience|uSmile 昆仑好客"
        ],
        "oldid": "amenity/fuel|uSmile 昆仑好客",
        "tags": {
          "amenity": "fuel",
          "brand": "uSmile 昆仑好客",
          "brand:en": "uSmile",
          "brand:wikidata": "Q66480830",
          "brand:zh": "昆仑好客",
          "name": "uSmile 昆仑好",
          "name:en": "uSmile",
          "name:zh": "昆仑好客"
        }
      },
      {
        "displayName": "АГНКС Метан",
        "id": "агнксметан-256df0",
        "locationSet": {"include": ["001"]},
        "oldid": "amenity/fuel|АГНКС Метан",
        "tags": {
          "amenity": "fuel",
          "brand": "АГНКС Метан",
          "name": "АГНКС Метан"
        }
      },
      {
        "displayName": "Авіас",
        "id": "авіас-13cad4",
        "locationSet": {"include": ["ua"]},
        "oldid": "amenity/fuel|Авіас",
        "tags": {
          "amenity": "fuel",
          "brand": "Авіас",
          "brand:wikidata": "Q12122687",
          "brand:wikipedia": "uk:Мережа АЗС Приват",
          "name": "Авіас"
        }
      },
      {
        "displayName": "БРСМ-Нафта",
        "id": "брсмнафта-13cad4",
        "locationSet": {"include": ["ua"]},
        "oldid": "amenity/fuel|БРСМ-Нафта",
        "tags": {
          "amenity": "fuel",
          "brand": "БРСМ-Нафта",
          "brand:wikidata": "Q56356523",
          "brand:wikipedia": "uk:БРСМ-Нафта",
          "name": "БРСМ-Нафта"
        }
      },
      {
        "displayName": "Башнефть",
        "id": "башнефть-d79a84",
        "locationSet": {"include": ["ru"]},
        "oldid": "amenity/fuel|Башнефть",
        "tags": {
          "amenity": "fuel",
          "brand": "Башнефть",
          "brand:en": "Bashneft",
          "brand:wikidata": "Q809985",
          "brand:wikipedia": "en:Bashneft",
          "name": "Башнефть",
          "name:en": "Bashneft"
        }
      },
      {
        "displayName": "Белоруснефть",
        "id": "беnоруснефть-fde237",
        "locationSet": {"include": ["by"]},
        "oldid": "amenity/fuel|Белоруснефть",
        "tags": {
          "amenity": "fuel",
          "brand": "Белоруснефть",
          "brand:wikidata": "Q4082693",
          "brand:wikipedia": "ru:Белоруснефть",
          "name": "Белоруснефть"
        }
      },
      {
        "displayName": "Газпромнефть",
        "id": "газпромнефть-2beccc",
        "locationSet": {
          "include": [
            "by",
            "kg",
            "kz",
            "ru",
            "tj"
          ]
        },
        "matchNames": ["газпром"],
        "oldid": "amenity/fuel|Газпромнефть",
        "tags": {
          "amenity": "fuel",
          "brand": "Газпромнефть",
          "brand:wikidata": "Q1461799",
          "brand:wikipedia": "en:Gazprom Neft",
          "name": "Газпромнефть"
        }
      },
      {
        "displayName": "Гелиос",
        "id": "геnиос-d09fe3",
        "locationSet": {"include": ["kz"]},
        "matchNames": ["helios"],
        "oldid": "amenity/fuel|Гелиос",
        "tags": {
          "amenity": "fuel",
          "brand": "Гелиос",
          "brand:en": "Helios",
          "brand:wikidata": "Q62286471",
          "name": "Гелиос",
          "name:en": "Helios"
        }
      },
      {
        "displayName": "Движение",
        "id": "движение-256df0",
        "locationSet": {"include": ["001"]},
        "oldid": "amenity/fuel|Движение",
        "tags": {
          "amenity": "fuel",
          "brand": "Движение",
          "name": "Движение"
        }
      },
      {
        "displayName": "ЕКА",
        "id": "ека-d79a84",
        "locationSet": {"include": ["ru"]},
        "oldid": "amenity/fuel|ЕКА",
        "tags": {
          "amenity": "fuel",
          "brand": "ЕКА",
          "brand:wikidata": "Q62543029",
          "name": "ЕКА"
        }
      },
      {
        "displayName": "КЛО",
        "id": "кnо-13cad4",
        "locationSet": {"include": ["ua"]},
        "oldid": "amenity/fuel|КЛО",
        "tags": {
          "amenity": "fuel",
          "brand": "КЛО",
          "brand:en": "Klo",
          "brand:wikidata": "Q60966526",
          "brand:wikipedia": "ru:КЛО (сеть АЗС)",
          "name": "КЛО",
          "name:en": "Klo"
        }
      },
      {
        "displayName": "КазМунайГаз",
        "id": "казмунайгаз-d09fe3",
        "locationSet": {"include": ["kz"]},
        "nomatch": [
          "shop/convenience|КазМунайГаз"
        ],
        "oldid": "amenity/fuel|КазМунайГаз",
        "tags": {
          "amenity": "fuel",
          "brand": "КазМунайГаз",
          "brand:wikidata": "Q1417227",
          "brand:wikipedia": "en:KazMunayGas",
          "name": "КазМунайГаз"
        }
      },
      {
        "displayName": "Лукойл",
        "id": "nукойn-256df0",
        "locationSet": {"include": ["001"]},
        "matchNames": ["лукоил"],
        "nomatch": ["shop/convenience|Лукойл"],
        "oldid": "amenity/fuel|Лукойл",
        "tags": {
          "amenity": "fuel",
          "brand": "Лукойл",
          "brand:en": "Lukoil",
          "brand:ru": "Лукойл",
          "brand:wikidata": "Q329347",
          "brand:wikipedia": "ru:Лукойл",
          "name": "Лукойл",
          "name:en": "Lukoil",
          "name:ru": "Лукойл"
        }
      },
      {
        "displayName": "Макпетрол",
        "id": "макпетроn-7a9a5b",
        "locationSet": {"include": ["mk"]},
        "oldid": "amenity/fuel|Макпетрол",
        "tags": {
          "amenity": "fuel",
          "brand": "Макпетрол",
          "brand:wikidata": "Q1886438",
          "brand:wikipedia": "en:Makpetrol",
          "name": "Макпетрол"
        }
      },
      {
        "displayName": "НК Альянс",
        "id": "нкаnьянс-d79a84",
        "locationSet": {"include": ["ru"]},
        "oldid": "amenity/fuel|НК Альянс",
        "tags": {
          "amenity": "fuel",
          "brand": "НК Альянс",
          "brand:en": "Alliance Oil",
          "brand:ru": "НК Альянс",
          "brand:wikidata": "Q4063700",
          "brand:wikipedia": "ru:Альянс (компания)",
          "name": "НК Альянс",
          "name:en": "Alliance Oil",
          "name:ru": "НК Альянс"
        }
      },
      {
        "displayName": "Нефтьмагистраль",
        "id": "нефтьмагистраnь-d79a84",
        "locationSet": {"include": ["ru"]},
        "oldid": "amenity/fuel|Нефтьмагистраль",
        "tags": {
          "amenity": "fuel",
          "brand": "Нефтьмагистраль",
          "brand:en": "Neftmagistral",
          "brand:wikidata": "Q62544323",
          "name": "Нефтьмагистраль",
          "name:en": "Neftmagistral"
        }
      },
      {
        "displayName": "ОККО",
        "id": "окко-13cad4",
        "locationSet": {"include": ["ua"]},
        "oldid": "amenity/fuel|ОККО",
        "tags": {
          "amenity": "fuel",
          "brand": "ОККО",
          "brand:en": "OKKO",
          "brand:wikidata": "Q7072617",
          "brand:wikipedia": "en:OKKO",
          "name": "ОККО",
          "name:en": "OKKO"
        }
      },
      {
        "displayName": "ОМВ",
        "id": "омв-1ff521",
        "locationSet": {"include": ["bg", "rs"]},
        "oldid": "amenity/fuel|ОМВ",
        "tags": {
          "amenity": "fuel",
          "brand": "ОМВ",
          "brand:wikidata": "Q168238",
          "brand:wikipedia": "en:OMV",
          "name": "ОМВ"
        }
      },
      {
        "displayName": "ПТК",
        "id": "птк-d79a84",
        "locationSet": {"include": ["ru"]},
        "oldid": "amenity/fuel|ПТК",
        "tags": {
          "amenity": "fuel",
          "brand": "ПТК",
          "brand:en": "The Petersburg Fuel Company",
          "brand:ru": "ПТК",
          "brand:wikidata": "Q4360193",
          "brand:wikipedia": "ru:Петербургская топливная компания",
          "name": "ПТК",
          "name:en": "The Petersburg Fuel Company",
          "name:ru": "ПТК"
        }
      },
      {
        "displayName": "Петрол",
        "id": "петроn-609502",
        "locationSet": {"include": ["bg"]},
        "oldid": "amenity/fuel|Петрол",
        "tags": {
          "amenity": "fuel",
          "brand": "Петрол",
          "brand:en": "Petrol AD",
          "brand:wikidata": "Q24315",
          "brand:wikipedia": "en:Petrol AD",
          "name": "Петрол",
          "name:en": "Petrol AD"
        }
      },
      {
        "displayName": "Роснефть",
        "id": "роснефть-256df0",
        "locationSet": {"include": ["001"]},
        "oldid": "amenity/fuel|Роснефть",
        "tags": {
          "amenity": "fuel",
          "brand": "Роснефть",
          "brand:en": "Rosneft",
          "brand:ru": "Роснефть",
          "brand:wikidata": "Q1141123",
          "brand:wikipedia": "ru:Роснефть",
          "name": "Роснефть",
          "name:en": "Rosneft",
          "name:ru": "Роснефть"
        }
      },
      {
        "displayName": "Сибнефть",
        "id": "сибнефть-d79a84",
        "locationSet": {"include": ["ru"]},
        "oldid": "amenity/fuel|Сибнефть",
        "tags": {
          "amenity": "fuel",
          "brand": "Сибнефть",
          "name": "Сибнефть"
        }
      },
      {
        "displayName": "Сургутнефтегаз",
        "id": "сургутнефтегаз-d79a84",
        "locationSet": {"include": ["ru"]},
        "oldid": "amenity/fuel|Сургутнефтегаз",
        "tags": {
          "amenity": "fuel",
          "brand": "Сургутнефтегаз",
          "brand:en": "Surgutneftegas",
          "brand:ru": "Сургутнефтегаз",
          "brand:wikidata": "Q680776",
          "brand:wikipedia": "en:Surgutneftegas",
          "name": "Сургутнефтегаз",
          "name:en": "Surgutneftegas",
          "name:ru": "Сургутнефтегаз"
        }
      },
      {
        "displayName": "ТНК",
        "id": "тнк-ee630b",
        "locationSet": {"include": ["ru", "ua"]},
        "oldid": "amenity/fuel|ТНК",
        "tags": {
          "amenity": "fuel",
          "brand": "ТНК",
          "brand:wikidata": "Q2298901",
          "brand:wikipedia": "en:TNK-BP",
          "name": "ТНК"
        }
      },
      {
        "displayName": "Татнефтепродукт",
        "id": "татнефтепродукт-d79a84",
        "locationSet": {"include": ["ru"]},
        "oldid": "amenity/fuel|Татнефтепродукт",
        "tags": {
          "amenity": "fuel",
          "brand": "Татнефтепродукт",
          "brand:en": "Tatnefteprodukt",
          "brand:ru": "Татнефтепродукт",
          "brand:wikidata": "Q62545686",
          "name": "Татнефтепродукт",
          "name:en": "Tatnefteprodukt",
          "name:ru": "Татнефтепродукт"
        }
      },
      {
        "displayName": "Татнефть",
        "id": "татнефть-ee630b",
        "locationSet": {"include": ["ru", "ua"]},
        "oldid": "amenity/fuel|Татнефть",
        "tags": {
          "amenity": "fuel",
          "brand": "Татнефть",
          "brand:en": "Tatneft",
          "brand:ru": "Татнефть",
          "brand:wikidata": "Q1616858",
          "brand:wikipedia": "en:Tatneft",
          "name": "Татнефть",
          "name:en": "Tatneft",
          "name:ru": "Татнефть"
        }
      },
      {
        "displayName": "Укрнафта",
        "id": "укрнафта-13cad4",
        "locationSet": {"include": ["ua"]},
        "oldid": "amenity/fuel|Укрнафта",
        "tags": {
          "amenity": "fuel",
          "brand": "Укрнафта",
          "brand:en": "Ukrnafta",
          "brand:uk": "Укрнафта",
          "brand:wikidata": "Q2447961",
          "brand:wikipedia": "uk:Укрнафта",
          "name": "Укрнафта",
          "name:en": "Ukrnafta",
          "name:uk": "Укрнафта"
        }
      },
      {
        "displayName": "דור אלון",
        "id": "דוראלון-0146f8",
        "locationSet": {"include": ["il"]},
        "oldid": "amenity/fuel|דור אלון",
        "tags": {
          "amenity": "fuel",
          "brand": "דור אלון",
          "brand:en": "Dor Alon",
          "brand:he": "דור אלון",
          "brand:wikidata": "Q16130352",
          "brand:wikipedia": "he:דור אלון אנרגיה בישראל (1988)",
          "name": "דור אלון",
          "name:en": "Dor Alon",
          "name:he": "דור אלון"
        }
      },
      {
        "displayName": "סונול",
        "id": "סונול-0146f8",
        "locationSet": {"include": ["il"]},
        "oldid": "amenity/fuel|סונול",
        "tags": {
          "amenity": "fuel",
          "brand": "סונול",
          "brand:en": "Sonol",
          "brand:he": "סונול",
          "brand:wikidata": "Q3701622",
          "brand:wikipedia": "en:Sonol",
          "name": "סונול",
          "name:en": "Sonol",
          "name:he": "סונול"
        }
      },
      {
        "displayName": "פז",
        "id": "פז-0146f8",
        "locationSet": {"include": ["il"]},
        "oldid": "amenity/fuel|פז",
        "tags": {
          "amenity": "fuel",
          "brand": "פז",
          "brand:en": "Paz",
          "brand:he": "פז",
          "brand:wikidata": "Q2211731",
          "brand:wikipedia": "en:Paz Oil Company",
          "name": "פז",
          "name:en": "Paz",
          "name:he": "פז"
        }
      },
      {
        "displayName": "ادنوك",
        "id": "ادنوك-24d9fc",
        "locationSet": {"include": ["ae"]},
        "oldid": "amenity/fuel|ادنوك",
        "tags": {
          "amenity": "fuel",
          "brand": "ادنوك",
          "brand:ar": "ادنوك",
          "brand:en": "ADNOC",
          "brand:wikidata": "Q166729",
          "brand:wikipedia": "en:Abu Dhabi National Oil Company",
          "name": "ادنوك",
          "name:ar": "ادنوك",
          "name:en": "ADNOC"
        }
      },
      {
        "displayName": "اينوك",
        "id": "اينوك-256df0",
        "locationSet": {"include": ["001"]},
        "oldid": "amenity/fuel|اينوك",
        "tags": {
          "amenity": "fuel",
          "brand": "اينوك",
          "brand:ar": "اينوك",
          "brand:en": "ENOC",
          "brand:wikidata": "Q3045998",
          "brand:wikipedia": "ar:اينوك",
          "name": "اينوك",
          "name:ar": "اينوك",
          "name:en": "ENOC"
        }
      },
      {
        "displayName": "توتال",
        "id": "توتال-256df0",
        "locationSet": {"include": ["001"]},
        "oldid": "amenity/fuel|توتال",
        "tags": {
          "amenity": "fuel",
          "brand": "توتال",
          "brand:ar": "توتال",
          "brand:en": "Total",
          "brand:wikidata": "Q154037",
          "brand:wikipedia": "fr:Total (entreprise)",
          "name": "توتال",
          "name:ar": "توتال",
          "name:en": "Total"
        }
      },
      {
        "displayName": "محطة",
        "id": "محطة-256df0",
        "locationSet": {"include": ["001"]},
        "oldid": "amenity/fuel|محطة",
        "tags": {
          "amenity": "fuel",
          "brand": "محطة",
          "name": "محطة"
        }
      },
      {
        "displayName": "نفطال",
        "id": "نفطال-256df0",
        "locationSet": {"include": ["001"]},
        "oldid": "amenity/fuel|نفطال",
        "tags": {
          "amenity": "fuel",
          "brand": "نفطال",
          "name": "نفطال"
        }
      },
      {
        "displayName": "บางจาก",
        "id": "บางจาก-57d3dd",
        "locationSet": {"include": ["th"]},
        "oldid": "amenity/fuel|บางจาก",
        "tags": {
          "amenity": "fuel",
          "brand": "บางจาก",
          "brand:en": "Bangchak",
          "brand:th": "บางจาก",
          "brand:wikidata": "Q6579719",
          "brand:wikipedia": "th:บางจาก คอร์ปอเรชัน",
          "name": "บางจาก",
          "name:en": "Bangchak",
          "name:th": "บางจาก"
        }
      },
      {
        "displayName": "ป.ต.ท.",
        "id": "ปตท-57d3dd",
        "locationSet": {"include": ["th"]},
        "oldid": "amenity/fuel|ป.ต.ท.",
        "tags": {
          "amenity": "fuel",
          "brand": "ป.ต.ท.",
          "brand:en": "PTT",
          "brand:th": "ป.ต.ท.",
          "brand:wikidata": "Q1810389",
          "brand:wikipedia": "th:ปตท.",
          "name": "ป.ต.ท.",
          "name:en": "PTT",
          "name:th": "ป.ต.ท."
        }
      },
      {
        "displayName": "เชลล์",
        "id": "เชลล์-57d3dd",
        "locationSet": {"include": ["th"]},
        "oldid": "amenity/fuel|เชลล์",
        "tags": {
          "amenity": "fuel",
          "brand": "เชลล์",
          "brand:en": "Shell",
          "brand:th": "เชลล์",
          "brand:wikidata": "Q154950",
          "brand:wikipedia": "en:Royal Dutch Shell",
          "name": "เชลล์",
          "name:en": "Shell",
          "name:th": "เชลล์"
        }
      },
      {
        "displayName": "เอสโซ่",
        "id": "เอสโซ่-57d3dd",
        "locationSet": {"include": ["th"]},
        "oldid": "amenity/fuel|เอสโซ่",
        "tags": {
          "amenity": "fuel",
          "brand": "เอสโซ่",
          "brand:en": "Esso",
          "brand:th": "เอสโซ่",
          "brand:wikidata": "Q867662",
          "brand:wikipedia": "en:Esso",
          "name": "เอสโซ่",
          "name:en": "Esso",
          "name:th": "เอสโซ่"
        }
      },
      {
        "displayName": "エッソ",
        "id": "エッソ-cbd98b",
        "locationSet": {"include": ["jp"]},
        "matchNames": ["エッソ石油"],
        "oldid": "amenity/fuel|エッソ",
        "tags": {
          "amenity": "fuel",
          "brand": "エッソ",
          "brand:en": "Esso",
          "brand:ja": "エッソ",
          "brand:wikidata": "Q867662",
          "brand:wikipedia": "en:Esso",
          "name": "エッソ",
          "name:en": "Esso",
          "name:ja": "エッソ"
        }
      },
      {
        "displayName": "エネオス",
        "id": "エネオス-cbd98b",
        "locationSet": {"include": ["jp"]},
        "matchNames": ["eneos"],
        "oldid": "amenity/fuel|エネオス",
        "tags": {
          "amenity": "fuel",
          "brand": "エネオス",
          "brand:en": "ENEOS",
          "brand:ja": "エネオス",
          "brand:wikidata": "Q1640290",
          "brand:wikipedia": "en:JXTG Nippon Oil & Energy",
          "name": "エネオス",
          "name:en": "ENEOS",
          "name:ja": "エネオス"
        }
      },
      {
        "displayName": "キグナス石油",
        "id": "キグナス石油-cbd98b",
        "locationSet": {"include": ["jp"]},
        "matchNames": ["キグナス"],
        "oldid": "amenity/fuel|キグナス石油",
        "tags": {
          "amenity": "fuel",
          "brand": "キグナス石油",
          "brand:en": "KYGNUS",
          "brand:ja": "キグナス石油",
          "brand:wikidata": "Q11296629",
          "brand:wikipedia": "ja:キグナス石油",
          "name": "キグナス石油",
          "name:en": "Kygnus",
          "name:ja": "キグナス石油"
        }
      },
      {
        "displayName": "コスモ",
        "id": "コスモ-cbd98b",
        "locationSet": {"include": ["jp"]},
        "nomatch": ["amenity/restaurant|Cosmo"],
        "oldid": "amenity/fuel|コスモ",
        "tags": {
          "amenity": "fuel",
          "brand": "コスモ",
          "brand:en": "Cosmo",
          "brand:ja": "コスモ",
          "brand:wikidata": "Q2498318",
          "brand:wikipedia": "en:Cosmo Oil Company",
          "name": "コスモ",
          "name:en": "Cosmo",
          "name:ja": "コスモ",
          "official_name": "コスモ石油"
        }
      },
      {
        "displayName": "ゼネラル",
        "id": "ゼネラル-cbd98b",
        "locationSet": {"include": ["jp"]},
        "oldid": "amenity/fuel|ゼネラル",
        "tags": {
          "amenity": "fuel",
          "brand": "ゼネラル",
          "brand:en": "Tonen General",
          "brand:ja": "ゼネラル",
          "brand:wikidata": "Q11528048",
          "brand:wikipedia": "ja:東燃ゼネラル石油",
          "name": "ゼネラル",
          "name:en": "Tonen General",
          "name:ja": "ゼネラル"
        }
      },
      {
        "displayName": "モービル",
        "id": "モービル-cbd98b",
        "locationSet": {"include": ["jp"]},
        "oldid": "amenity/fuel|モービル",
        "tags": {
          "amenity": "fuel",
          "brand": "モービル",
          "brand:en": "Mobil",
          "brand:ja": "モービル",
          "brand:wikidata": "Q3088656",
          "brand:wikipedia": "ja:モービル (ブランド)",
          "name": "モービル",
          "name:en": "Mobil",
          "name:ja": "モービル"
        }
      },
      {
        "displayName": "中国石化",
        "id": "中国石化-943daf",
        "locationSet": {"include": ["cn"]},
        "matchNames": [
          "sinopec",
          "sinopec fuel",
          "中国石化",
          "中国石化 sinopec",
          "中国石化加油站"
        ],
        "oldid": "amenity/fuel|中国石化",
        "tags": {
          "amenity": "fuel",
          "brand": "中国石化",
          "brand:en": "Sinopec",
          "brand:wikidata": "Q831445",
          "brand:wikipedia": "en:Sinopec",
          "brand:zh": "中国石化",
          "name": "中国石化",
          "name:en": "Sinopec",
          "name:zh": "中国石化"
        }
      },
      {
        "displayName": "中国石油",
        "id": "中国石油-943daf",
        "locationSet": {"include": ["cn"]},
        "matchNames": ["中油加油站"],
        "oldid": "amenity/fuel|中国石油",
        "tags": {
          "amenity": "fuel",
          "brand": "中国石油",
          "brand:en": "PetroChina",
          "brand:wikidata": "Q503182",
          "brand:wikipedia": "en:PetroChina",
          "brand:zh": "中国石油",
          "name": "中国石油",
          "name:en": "PetroChina",
          "name:zh": "中国石油"
        }
      },
      {
        "displayName": "全國加油站",
        "id": "全國加油站-2bb2e9",
        "locationSet": {"include": ["tw"]},
        "oldid": "amenity/fuel|全國加油站",
        "tags": {
          "amenity": "fuel",
          "brand": "全國加油站",
          "brand:en": "NPC",
          "brand:wikidata": "Q20410455",
          "brand:wikipedia": "zh:全國加油站",
          "brand:zh": "全國加油站",
          "name": "全國加油站",
          "name:en": "NPC",
          "name:zh": "全國加油站"
        }
      },
      {
        "displayName": "出光",
        "id": "出光-cbd98b",
        "locationSet": {"include": ["jp"]},
        "oldid": "amenity/fuel|出光",
        "tags": {
          "amenity": "fuel",
          "brand": "出光",
          "brand:en": "Idemitsu Kosan",
          "brand:ja": "出光",
          "brand:wikidata": "Q2216770",
          "brand:wikipedia": "en:Idemitsu Kosan",
          "name": "出光",
          "name:en": "Idemitsu Kosan",
          "name:ja": "出光"
        }
      },
      {
        "displayName": "台塑石油",
        "id": "台塑石油-256df0",
        "locationSet": {"include": ["001"]},
        "oldid": "amenity/fuel|台塑石油",
        "tags": {
          "amenity": "fuel",
          "brand": "台塑石油",
          "brand:en": "Formosa Petrochemical Corporation",
          "brand:wikidata": "Q1437742",
          "brand:wikipedia": "zh:台塑石油",
          "brand:zh": "台塑石油",
          "name": "台塑石油",
          "name:en": "Formosa Petrochemical Corporation",
          "name:zh": "台塑石油"
        }
      },
      {
        "displayName": "台灣中油",
        "id": "台灣中油-2bb2e9",
        "locationSet": {"include": ["tw"]},
        "matchNames": ["中油"],
        "oldid": "amenity/fuel|台灣中油",
        "tags": {
          "amenity": "fuel",
          "brand": "台灣中油",
          "brand:en": "CPC Corporation, Taiwan",
          "brand:wikidata": "Q21527177",
          "brand:wikipedia": "en:CPC Corporation, Taiwan",
          "brand:zh": "台灣中油",
          "name": "台灣中油",
          "name:en": "CPC Corporation, Taiwan",
          "name:zh": "台灣中油"
        }
      },
      {
        "displayName": "昭和シェル",
        "id": "昭和シェル-cbd98b",
        "locationSet": {"include": ["jp"]},
        "matchNames": ["昭和シェル石油"],
        "oldid": "amenity/fuel|昭和シェル",
        "tags": {
          "amenity": "fuel",
          "brand": "昭和シェル",
          "brand:en": "Showa Shell Sekiyu",
          "brand:ja": "昭和シェル",
          "brand:wikidata": "Q277115",
          "brand:wikipedia": "en:Showa Shell Sekiyu",
          "name": "昭和シェル",
          "name:en": "Showa Shell Sekiyu",
          "name:ja": "昭和シェル"
        }
      },
      {
        "displayName": "福懋加油站",
        "id": "福懋加油站-256df0",
        "locationSet": {"include": ["001"]},
        "oldid": "amenity/fuel|福懋加油站",
        "tags": {
          "amenity": "fuel",
          "brand": "福懋加油站",
          "name": "福懋加油站"
        }
      }
    ]
  }
}