{
  "amenity": {
    "hospital": [
      {
        "displayName": "City Hospital",
        "id": "cityhospital-2f3786",
        "locationSet": {"include": ["001"]},
        "oldid": "amenity/hospital|City Hospital",
        "tags": {
          "amenity": "hospital",
          "brand": "City Hospital",
          "name": "City Hospital"
        }
      },
      {
        "displayName": "Civil Hospital",
        "id": "civilhospital-2f3786",
        "locationSet": {"include": ["001"]},
        "oldid": "amenity/hospital|Civil Hospital",
        "tags": {
          "amenity": "hospital",
          "brand": "Civil Hospital",
          "name": "Civil Hospital"
        }
      },
      {
        "displayName": "Cruz Roja",
        "id": "cruzroja-2f3786",
        "locationSet": {"include": ["001"]},
        "oldid": "amenity/hospital|Cruz Roja",
        "tags": {
          "amenity": "hospital",
          "brand": "Cruz Roja",
          "name": "Cruz Roja"
        }
      },
      {
        "displayName": "ESI Hospital",
        "id": "esihospital-2f3786",
        "locationSet": {"include": ["001"]},
        "oldid": "amenity/hospital|ESI Hospital",
        "tags": {
          "amenity": "hospital",
          "brand": "ESI Hospital",
          "name": "ESI Hospital"
        }
      },
      {
        "displayName": "Fortis Healthcare",
        "id": "fortishealthcare-9c4dc1",
        "locationSet": {"include": ["in"]},
        "oldid": "amenity/hospital|Fortis Healthcare",
        "tags": {
          "amenity": "hospital",
          "brand": "Fortis Healthcare",
          "brand:wikidata": "Q7810035",
          "brand:wikipedia": "en:Fortis Healthcare",
          "healthcare": "hospital",
          "name": "Fortis Healthcare"
        }
      },
      {
        "displayName": "IMSS",
        "id": "imss-2f3786",
        "locationSet": {"include": ["001"]},
        "oldid": "amenity/hospital|IMSS",
        "tags": {
          "amenity": "hospital",
          "brand": "IMSS",
          "name": "IMSS"
        }
      },
      {
        "displayName": "Select Specialty Hospital",
        "id": "selectspecialtyhospital-6bdf93",
        "locationSet": {"include": ["us"]},
        "matchNames": ["select speciality"],
        "oldid": "amenity/hospital|Select Specialty Hospital",
        "tags": {
          "amenity": "hospital",
          "brand": "Select Specialty Hospital",
          "brand:wikidata": "Q66360902",
          "healthcare": "hospital",
          "name": "Select Specialty Hospital"
        }
      },
      {
        "displayName": "Shriners Hospital for Children",
        "id": "shrinershospitalsforchildren-6bdf93",
        "locationSet": {"include": ["us"]},
        "matchNames": [
          "shriners burn hospital",
          "shriners hospital",
          "shriners hospitals for children"
        ],
        "oldid": "amenity/hospital|Shriners Hospital for Children",
        "tags": {
          "amenity": "hospital",
          "brand": "Shriners Hospitals for Children",
          "brand:wikidata": "Q7504109",
          "brand:wikipedia": "en:Shriners Hospitals for Children",
          "healthcare": "hospital",
          "healthcare:speciality": "paediatrics",
          "name": "Shriners Hospitals for Children"
        }
      },
      {
        "displayName": "VA Medical Center",
        "id": "vamedicalcenter-6bdf93",
        "locationSet": {"include": ["us"]},
        "matchNames": [
          "department of veterans affairs medical center",
          "veterans administration",
          "veterans administration hospital",
          "veterans administration medical center",
          "veterans affairs",
          "veterans affairs hospital",
          "veterans affairs medical center"
        ],
        "oldid": "amenity/hospital|VA Medical Center",
        "tags": {
          "amenity": "hospital",
          "brand": "VA",
          "brand:wikidata": "Q6580225",
          "brand:wikipedia": "en:Veterans Health Administration",
          "healthcare": "hospital",
          "healthcare:for": "veterans",
          "name": "VA Medical Center",
          "short_name": "VA"
        }
      },
      {
        "displayName": "Городская больница",
        "id": "городскаябоnьница-2f3786",
        "locationSet": {"include": ["001"]},
        "oldid": "amenity/hospital|Городская больница",
        "tags": {
          "amenity": "hospital",
          "brand": "Городская больница",
          "name": "Городская больница"
        }
      },
      {
        "displayName": "Детская больница",
        "id": "детскаябоnьница-2f3786",
        "locationSet": {"include": ["001"]},
        "oldid": "amenity/hospital|Детская больница",
        "tags": {
          "amenity": "hospital",
          "brand": "Детская больница",
          "name": "Детская больница"
        }
      },
      {
        "displayName": "Медпункт",
        "id": "медпункт-2f3786",
        "locationSet": {"include": ["001"]},
        "oldid": "amenity/hospital|Медпункт",
        "tags": {
          "amenity": "hospital",
          "brand": "Медпункт",
          "name": "Медпункт"
        }
      },
      {
        "displayName": "Противотуберкулезный диспансер",
        "id": "противотуберкуnезныйдиспансер-2f3786",
        "locationSet": {"include": ["001"]},
        "oldid": "amenity/hospital|Противотуберкулезный диспансер",
        "tags": {
          "amenity": "hospital",
          "brand": "Противотуберкулезный диспансер",
          "name": "Противотуберкулезный диспансер"
        }
      },
      {
        "displayName": "Районная больница",
        "id": "районнаябоnьница-2f3786",
        "locationSet": {"include": ["001"]},
        "oldid": "amenity/hospital|Районная больница",
        "tags": {
          "amenity": "hospital",
          "brand": "Районная больница",
          "name": "Районная больница"
        }
      },
      {
        "displayName": "Роддом",
        "id": "роддом-2f3786",
        "locationSet": {"include": ["001"]},
        "oldid": "amenity/hospital|Роддом",
        "tags": {
          "amenity": "hospital",
          "brand": "Роддом",
          "name": "Роддом"
        }
      },
      {
        "displayName": "Родильный дом",
        "id": "родиnьныйдом-2f3786",
        "locationSet": {"include": ["001"]},
        "oldid": "amenity/hospital|Родильный дом",
        "tags": {
          "amenity": "hospital",
          "brand": "Родильный дом",
          "name": "Родильный дом"
        }
      },
      {
        "displayName": "Скорая помощь",
        "id": "скораяпомощь-2f3786",
        "locationSet": {"include": ["001"]},
        "oldid": "amenity/hospital|Скорая помощь",
        "tags": {
          "amenity": "hospital",
          "brand": "Скорая помощь",
          "name": "Скорая помощь"
        }
      },
      {
        "displayName": "โรงพยาบาลส่งเสริมสุขภาพตำบล",
        "id": "โรงพยาบาลส่งเสริมสุขภาพตำบล-d44be1",
        "locationSet": {"include": ["th"]},
        "oldid": "amenity/hospital|โรงพยาบาลส่งเสริมสุขภาพตำบล",
        "tags": {
          "amenity": "hospital",
          "brand": "โรงพยาบาลส่งเสริมสุขภาพตำบล",
          "brand:th": "โรงพยาบาลส่งเสริมสุขภาพตำบล",
          "name": "โรงพยาบาลส่งเสริมสุขภาพตำบล",
          "name:th": "โรงพยาบาลส่งเสริมสุขภาพตำบล"
        }
      }
    ]
  }
}