{
  "amenity": {
    "ice_cream": [
      {
        "displayName": "33 пингвина",
        "id": "33пингвина-02787c",
        "locationSet": {"include": ["001"]},
        "oldid": "amenity/ice_cream|33 пингвина",
        "tags": {
          "amenity": "ice_cream",
          "brand": "33 пингвина",
          "name": "33 пингвина"
        }
      },
      {
        "displayName": "Abbott's Frozen Custard",
        "id": "abbottsfrozencustard-356fcd",
        "locationSet": {"include": ["us"]},
        "oldid": "amenity/ice_cream|Abbott's Frozen Custard",
        "tags": {
          "amenity": "ice_cream",
          "brand": "Abbott's Frozen Custard",
          "brand:wikidata": "Q4664334",
          "brand:wikipedia": "en:Abbott's Frozen Custard",
          "name": "Abbott's Frozen Custard",
          "short_name": "Abbott's"
        }
      },
      {
        "displayName": "Amorino",
        "id": "amorino-e382a2",
        "locationSet": {
          "include": [
            "ae",
            "ch",
            "cz",
            "de",
            "es",
            "fr",
            "gb",
            "gr",
            "ie",
            "it",
            "lu",
            "ma",
            "mt",
            "mx",
            "nc",
            "pt",
            "qa",
            "re",
            "us"
          ]
        },
        "oldid": "amenity/ice_cream|Amorino",
        "tags": {
          "amenity": "ice_cream",
          "brand": "Amorino",
          "brand:wikidata": "Q2843884",
          "brand:wikipedia": "fr:Amorino",
          "name": "Amorino"
        }
      },
      {
        "displayName": "Amy's Ice Creams",
        "id": "amysicecreams-02787c",
        "locationSet": {"include": ["001"]},
        "oldid": "amenity/ice_cream|Amy's Ice Creams",
        "tags": {
          "amenity": "ice_cream",
          "brand": "Amy's Ice Creams",
          "brand:wikidata": "Q4749045",
          "brand:wikipedia": "en:Amy's Ice Creams",
          "name": "Amy's Ice Creams"
        }
      },
      {
        "displayName": "Andy's Frozen Custard",
        "id": "andysfrozencustard-356fcd",
        "locationSet": {"include": ["us"]},
        "oldid": "amenity/ice_cream|Andy's Frozen Custard",
        "tags": {
          "amenity": "ice_cream",
          "brand": "Andy's Frozen Custard",
          "brand:wikidata": "Q4760327",
          "brand:wikipedia": "en:Andy's Frozen Custard",
          "name": "Andy's Frozen Custard",
          "short_name": "Andy's"
        }
      },
      {
        "displayName": "Baskin-Robbins",
        "id": "baskinrobbins-02787c",
        "locationSet": {"include": ["001"]},
        "oldid": "amenity/ice_cream|Baskin-Robbins",
        "tags": {
          "amenity": "ice_cream",
          "brand": "Baskin-Robbins",
          "brand:wikidata": "Q584601",
          "brand:wikipedia": "en:Baskin-Robbins",
          "cuisine": "ice_cream",
          "name": "Baskin-Robbins"
        }
      },
      {
        "displayName": "Ben & Jerry's",
        "id": "benandjerrys-02787c",
        "locationSet": {"include": ["001"]},
        "oldid": "amenity/ice_cream|Ben & Jerry's",
        "tags": {
          "amenity": "ice_cream",
          "brand": "Ben & Jerry's",
          "brand:wikidata": "Q816412",
          "brand:wikipedia": "en:Ben & Jerry's",
          "cuisine": "ice_cream",
          "name": "Ben & Jerry's"
        }
      },
      {
        "displayName": "Bruster's Ice Cream",
        "id": "brustersicecream-356fcd",
        "locationSet": {"include": ["us"]},
        "matchNames": ["brusters"],
        "oldid": "amenity/ice_cream|Bruster's Ice Cream",
        "tags": {
          "amenity": "ice_cream",
          "brand": "Bruster's Ice Cream",
          "brand:wikidata": "Q4979810",
          "brand:wikipedia": "en:Bruster's Ice Cream",
          "cuisine": "ice_cream",
          "name": "Bruster's Ice Cream"
        }
      },
      {
        "displayName": "Carvel",
        "id": "carvel-356fcd",
        "locationSet": {"include": ["us"]},
        "oldid": "amenity/ice_cream|Carvel",
        "tags": {
          "amenity": "ice_cream",
          "brand": "Carvel",
          "brand:wikidata": "Q5047520",
          "brand:wikipedia": "en:Carvel (franchise)",
          "cuisine": "ice_cream",
          "name": "Carvel",
          "takeaway": "yes"
        }
      },
      {
        "displayName": "Cold Rock Ice Creamery",
        "id": "coldrockicecreamery-10772f",
        "locationSet": {"include": ["au"]},
        "oldid": "amenity/ice_cream|Cold Rock Ice Creamery",
        "tags": {
          "amenity": "ice_cream",
          "brand": "Cold Rock Ice Creamery",
          "brand:wikidata": "Q2982390",
          "brand:wikipedia": "en:Cold Rock Ice Creamery",
          "cuisine": "ice_cream",
          "name": "Cold Rock Ice Creamery",
          "takeaway": "yes"
        }
      },
      {
        "displayName": "Cold Stone Creamery",
        "id": "coldstonecreamery-7ff669",
        "locationSet": {"include": ["ng", "us"]},
        "matchNames": ["cold stone"],
        "oldid": "amenity/ice_cream|Cold Stone Creamery",
        "tags": {
          "amenity": "ice_cream",
          "brand": "Cold Stone Creamery",
          "brand:wikidata": "Q1094923",
          "brand:wikipedia": "en:Cold Stone Creamery",
          "cuisine": "ice_cream",
          "name": "Cold Stone Creamery"
        }
      },
      {
        "displayName": "D'Onofrio",
        "id": "donofrio-fc9287",
        "locationSet": {"include": ["pe"]},
        "oldid": "amenity/ice_cream|D'Onofrio",
        "tags": {
          "amenity": "ice_cream",
          "brand": "D'Onofrio",
          "brand:wikidata": "Q5203166",
          "brand:wikipedia": "es:D'Onofrio",
          "cuisine": "ice_cream",
          "name": "D'Onofrio"
        }
      },
      {
        "displayName": "Freddo",
        "id": "freddo-02787c",
        "locationSet": {"include": ["001"]},
        "oldid": "amenity/ice_cream|Freddo",
        "tags": {
          "amenity": "ice_cream",
          "brand": "Freddo",
          "brand:wikidata": "Q28823999",
          "brand:wikipedia": "es:Freddo",
          "cuisine": "ice_cream",
          "name": "Freddo"
        }
      },
      {
        "displayName": "Graeter's",
        "id": "graeters-356fcd",
        "locationSet": {"include": ["us"]},
        "matchNames": ["greaters"],
        "oldid": "amenity/ice_cream|Graeter's",
        "tags": {
          "amenity": "ice_cream",
          "brand": "Graeter's",
          "brand:wikidata": "Q5592430",
          "brand:wikipedia": "en:Graeter's",
          "cuisine": "ice_cream",
          "name": "Graeter's",
          "takeaway": "yes"
        }
      },
      {
        "displayName": "Grido",
        "id": "grido-b79198",
        "locationSet": {"include": ["ar"]},
        "matchNames": ["grido helado"],
        "matchTags": ["shop/confectionary"],
        "oldid": "amenity/ice_cream|Grido",
        "tags": {
          "amenity": "ice_cream",
          "brand": "Grido",
          "brand:wikidata": "Q5885724",
          "brand:wikipedia": "es:Grido Helado",
          "cuisine": "ice_cream",
          "name": "Grido"
        }
      },
      {
        "displayName": "Häagen-Dazs",
        "id": "haagendazs-02787c",
        "locationSet": {"include": ["001"]},
        "oldid": "amenity/ice_cream|Häagen-Dazs",
        "tags": {
          "amenity": "ice_cream",
          "brand": "Häagen-Dazs",
          "brand:wikidata": "Q1143333",
          "brand:wikipedia": "en:Häagen-Dazs",
          "name": "Häagen-Dazs"
        }
      },
      {
        "displayName": "La Michoacana",
        "id": "lamichoacana-10bc0a",
        "locationSet": {"include": ["mx"]},
        "matchNames": ["paleteria la michoacana"],
        "oldid": "amenity/ice_cream|La Michoacana",
        "tags": {
          "amenity": "ice_cream",
          "brand": "La Michoacana",
          "brand:wikidata": "Q17118857",
          "brand:wikipedia": "en:Paletería La Michoacana",
          "name": "La Michoacana"
        }
      },
      {
        "displayName": "Marble Slab Creamery",
        "id": "marbleslabcreamery-f78fa8",
        "locationSet": {"include": ["ca", "us"]},
        "oldid": "amenity/ice_cream|Marble Slab Creamery",
        "tags": {
          "amenity": "ice_cream",
          "brand": "Marble Slab Creamery",
          "brand:wikidata": "Q17020087",
          "brand:wikipedia": "en:Marble Slab Creamery",
          "cuisine": "ice_cream",
          "name": "Marble Slab Creamery"
        }
      },
      {
        "displayName": "Menchie's",
        "id": "menchies-63ae8f",
        "locationSet": {
          "include": [
            "ae",
            "bh",
            "bs",
            "ca",
            "cn",
            "gb",
            "in",
            "jp",
            "kw",
            "qa",
            "sa",
            "us"
          ]
        },
        "matchNames": [
          "menchie's frozen yoghurt",
          "menchie's frozen yogurt"
        ],
        "oldid": "amenity/ice_cream|Menchie's",
        "tags": {
          "amenity": "ice_cream",
          "brand": "Menchie's",
          "brand:wikidata": "Q6816528",
          "brand:wikipedia": "en:Menchie's Frozen Yogurt",
          "cuisine": "frozen_yogurt",
          "name": "Menchie's"
        }
      },
      {
        "displayName": "Naturals",
        "id": "naturals-781368",
        "locationSet": {"include": ["in"]},
        "oldid": "amenity/ice_cream|Naturals",
        "tags": {
          "amenity": "ice_cream",
          "brand": "Naturals",
          "brand:wikidata": "Q24439154",
          "brand:wikipedia": "en:Natural Ice Cream",
          "cuisine": "ice_cream",
          "name": "Naturals"
        }
      },
      {
        "displayName": "Pinkberry",
        "id": "pinkberry-02787c",
        "locationSet": {"include": ["001"]},
        "oldid": "amenity/ice_cream|Pinkberry",
        "tags": {
          "amenity": "ice_cream",
          "brand": "Pinkberry",
          "brand:wikidata": "Q2904053",
          "brand:wikipedia": "en:Pinkberry",
          "cuisine": "frozen_yogurt",
          "name": "Pinkberry",
          "takeaway": "yes"
        }
      },
      {
        "displayName": "Ralph's Italian Ices",
        "id": "ralphsitalianices-356fcd",
        "locationSet": {"include": ["us"]},
        "matchNames": [
          "ralphs famous italian ices and ice cream",
          "ralphs italian ice",
          "ralphs italian ices and ice cream"
        ],
        "oldid": "amenity/ice_cream|Ralph's Italian Ices",
        "tags": {
          "amenity": "ice_cream",
          "brand": "Ralph's Italian Ices",
          "brand:wikidata": "Q62576909",
          "cuisine": "ice_cream",
          "name": "Ralph's Italian Ices",
          "official_name": "Ralph's Famous Italian Ices"
        }
      },
      {
        "displayName": "Rita's Italian Ice",
        "id": "ritasitalianice-356fcd",
        "locationSet": {"include": ["us"]},
        "matchNames": [
          "ritas",
          "ritas water ice"
        ],
        "oldid": "amenity/ice_cream|Rita's Italian Ice",
        "tags": {
          "amenity": "ice_cream",
          "brand": "Rita's Italian Ice",
          "brand:wikidata": "Q7336456",
          "brand:wikipedia": "en:Rita's Italian Ice",
          "cuisine": "ice_cream",
          "name": "Rita's Italian Ice"
        }
      },
      {
        "displayName": "Shake's",
        "id": "shakes-356fcd",
        "locationSet": {"include": ["us"]},
        "oldid": "amenity/ice_cream|Shake's",
        "tags": {
          "amenity": "ice_cream",
          "brand": "Shake's",
          "brand:wikidata": "Q17032842",
          "brand:wikipedia": "en:Shake's Frozen Custard",
          "name": "Shake's",
          "official_name": "Shake’s Frozen Custard"
        }
      },
      {
        "displayName": "TCBY",
        "id": "tcby-02787c",
        "locationSet": {"include": ["001"]},
        "oldid": "amenity/ice_cream|TCBY",
        "tags": {
          "amenity": "ice_cream",
          "brand": "TCBY",
          "brand:wikidata": "Q7669631",
          "brand:wikipedia": "en:TCBY",
          "cuisine": "frozen_yogurt",
          "name": "TCBY",
          "takeaway": "yes"
        }
      },
      {
        "displayName": "Toscana",
        "id": "toscana-ae72e1",
        "locationSet": {"include": ["nl"]},
        "oldid": "amenity/ice_cream|Toscana",
        "tags": {
          "amenity": "ice_cream",
          "brand": "Toscana",
          "brand:wikidata": "Q92555442",
          "name": "Toscana"
        }
      },
      {
        "displayName": "Yogen Früz",
        "id": "yogenfruz-02787c",
        "locationSet": {"include": ["001"]},
        "oldid": "amenity/ice_cream|Yogen Früz",
        "tags": {
          "amenity": "ice_cream",
          "brand": "Yogen Früz",
          "brand:wikidata": "Q8054358",
          "brand:wikipedia": "en:Yogen Früz",
          "cuisine": "frozen_yogurt",
          "name": "Yogen Früz",
          "takeaway": "yes"
        }
      },
      {
        "displayName": "Yogurt Mountain",
        "id": "yogurtmountain-02787c",
        "locationSet": {"include": ["001"]},
        "oldid": "amenity/ice_cream|Yogurt Mountain",
        "tags": {
          "amenity": "ice_cream",
          "brand": "Yogurt Mountain",
          "brand:wikidata": "Q8054427",
          "brand:wikipedia": "en:Yogurt Mountain",
          "cuisine": "frozen_yogurt",
          "name": "Yogurt Mountain",
          "takeaway": "yes"
        }
      },
      {
        "displayName": "Yogurtland",
        "id": "yogurtland-276431",
        "locationSet": {
          "include": [
            "ae",
            "au",
            "sg",
            "th",
            "us",
            "ve"
          ]
        },
        "oldid": "amenity/ice_cream|Yogurtland",
        "tags": {
          "amenity": "ice_cream",
          "brand": "Yogurtland",
          "brand:wikidata": "Q8054428",
          "brand:wikipedia": "en:Yogurtland",
          "cuisine": "frozen_yogurt",
          "name": "Yogurtland",
          "takeaway": "yes"
        }
      },
      {
        "displayName": "smöoy",
        "id": "smooy-a57189",
        "locationSet": {
          "include": [
            "ao",
            "ci",
            "cn",
            "dz",
            "ec",
            "es",
            "fr",
            "gb",
            "gn",
            "it",
            "ma",
            "pa",
            "pe",
            "pt",
            "re",
            "sa"
          ]
        },
        "oldid": "amenity/ice_cream|smöoy",
        "tags": {
          "amenity": "ice_cream",
          "brand": "smöoy",
          "brand:wikidata": "Q21573945",
          "brand:wikipedia": "es:Smöoy",
          "name": "smöoy",
          "official_name": "Softy Cream"
        }
      },
      {
        "displayName": "sweetFrog",
        "id": "sweetfrog-356fcd",
        "locationSet": {"include": ["us"]},
        "matchNames": [
          "sweetfrog frozen yogurt",
          "sweetfrog premium frozen yogurt"
        ],
        "oldid": "amenity/ice_cream|sweetFrog",
        "tags": {
          "amenity": "ice_cream",
          "brand": "sweetFrog",
          "brand:wikidata": "Q16952110",
          "brand:wikipedia": "en:Sweet Frog",
          "cuisine": "frozen_yogurt",
          "name": "sweetFrog"
        }
      },
      {
        "displayName": "サーティワンアイスクリーム",
        "id": "サーティワンアイスクリーム-6f6799",
        "locationSet": {"include": ["jp"]},
        "matchNames": ["31アイスクリーム", "サーティーワン"],
        "oldid": "amenity/ice_cream|サーティワンアイスクリーム",
        "tags": {
          "amenity": "ice_cream",
          "brand": "バスキン・ロビンス",
          "brand:en": "Baskin-Robbins",
          "brand:ja": "バスキン・ロビンス",
          "brand:wikidata": "Q584601",
          "brand:wikipedia": "ja:バスキン・ロビンス",
          "cuisine": "ice_cream",
          "name": "サーティワンアイスクリーム",
          "name:en": "Baskin-Robbins",
          "name:ja": "サーティワンアイスクリーム"
        }
      }
    ]
  }
}