{
  "amenity": {
    "karaoke_box": [
      {
        "displayName": "カラオケ まねきねこ",
        "id": "カラオケまねきねこ-bd577b",
        "locationSet": {"include": ["jp"]},
        "matchNames": ["まねきねこ"],
        "oldid": "amenity/karaoke_box|カラオケ まねきねこ",
        "tags": {
          "amenity": "karaoke_box",
          "brand": "カラオケ まねきねこ",
          "brand:en": "Karaoke Manekineko",
          "brand:ja": "カラオケ まねきねこ",
          "brand:wikidata": "Q88326334",
          "fee": "yes",
          "name": "カラオケ まねきねこ",
          "name:en": "Karaoke Manekineko",
          "name:ja": "カラオケ まねきねこ"
        }
      },
      {
        "displayName": "カラオケバンバン",
        "id": "カラオケバンバン-bd577b",
        "locationSet": {"include": ["jp"]},
        "oldid": "amenity/karaoke_box|カラオケバンバン",
        "tags": {
          "amenity": "karaoke_box",
          "brand": "カラオケバンバン",
          "brand:en": "Karaoke BanBan",
          "brand:ja": "カラオケバンバン",
          "brand:wikidata": "Q88485685",
          "fee": "yes",
          "name": "カラオケバンバン",
          "name:en": "Karaoke BanBan",
          "name:ja": "カラオケバンバン"
        }
      },
      {
        "displayName": "カラオケ館",
        "id": "カラオケ館-bd577b",
        "locationSet": {"include": ["jp"]},
        "oldid": "amenity/karaoke_box|カラオケ館",
        "tags": {
          "amenity": "karaoke_box",
          "brand": "カラオケ館",
          "brand:en": "Karaoke-kan",
          "brand:ja": "カラオケ館",
          "brand:wikidata": "Q11294889",
          "brand:wikipedia": "ja:B&V",
          "fee": "yes",
          "name": "カラオケ館",
          "name:en": "Karaoke-kan",
          "name:ja": "カラオケ館"
        }
      },
      {
        "displayName": "コート・ダ・ジュール",
        "id": "コートダジュール-bd577b",
        "locationSet": {"include": ["jp"]},
        "oldid": "amenity/karaoke_box|コート・ダ・ジュール",
        "tags": {
          "amenity": "karaoke_box",
          "brand": "コート・ダジュール",
          "brand:en": "Cote d'Azur",
          "brand:ja": "コート・ダジュール",
          "brand:wikidata": "Q93542022",
          "fee": "yes",
          "name": "コート・ダジュール",
          "name:en": "Cote d'Azur",
          "name:ja": "コート・ダジュール"
        }
      },
      {
        "displayName": "シダックス",
        "id": "シダックス-bd577b",
        "locationSet": {"include": ["jp"]},
        "oldid": "amenity/karaoke_box|シダックス",
        "tags": {
          "amenity": "karaoke_box",
          "brand": "シダックス",
          "brand:en": "Shidax",
          "brand:ja": "シダックス",
          "brand:wikidata": "Q7496130",
          "brand:wikipedia": "ja:シダックス",
          "fee": "yes",
          "name": "シダックス",
          "name:en": "Shidax",
          "name:ja": "シダックス"
        }
      },
      {
        "displayName": "ジョイサウンド",
        "id": "ジョイサウンド-bd577b",
        "locationSet": {"include": ["jp"]},
        "oldid": "amenity/karaoke_box|ジョイサウンド",
        "tags": {
          "amenity": "karaoke_box",
          "brand": "ジョイサウンド",
          "brand:en": "Joysound",
          "brand:ja": "ジョイサウンド",
          "brand:wikidata": "Q11226033",
          "brand:wikipedia": "ja:JOYSOUND",
          "fee": "yes",
          "name": "ジョイサウンド",
          "name:en": "Joysound",
          "name:ja": "ジョイサウンド"
        }
      },
      {
        "displayName": "ビッグエコー",
        "id": "ビッグエコー-bd577b",
        "locationSet": {"include": ["jp"]},
        "oldid": "amenity/karaoke_box|ビッグエコー",
        "tags": {
          "amenity": "karaoke_box",
          "brand": "ビッグエコー",
          "brand:en": "Big Echo",
          "brand:ja": "ビッグエコー",
          "brand:wikidata": "Q88117761",
          "fee": "yes",
          "name": "ビッグエコー",
          "name:en": "Big Echo",
          "name:ja": "ビッグエコー"
        }
      }
    ]
  }
}