{
  "amenity/language_school|Berlitz": {
    "tags": {
      "amenity": "language_school",
      "brand": "Berlitz",
      "brand:wikidata": "Q821960",
      "brand:wikipedia": "en:Berlitz Corporation",
      "name": "Berlitz"
    }
  },
  "amenity/language_school|ELS": {
    "countryCodes": [
      "ca",
      "in",
      "my",
      "pa",
      "sa",
      "tr",
      "us",
      "vn"
    ],
    "tags": {
      "amenity": "language_school",
      "brand": "ELS",
      "brand:en": "ELS",
      "brand:wikidata": "Q5323325",
      "brand:wikipedia": "en:ELS Language Centers",
      "language:en": "main",
      "name": "ELS",
      "name:en": "ELS",
      "official_name": "ELS Language Centers",
      "official_name:en": "ELS Language Centers"
    }
  },
  "amenity/language_school|NOVA": {
    "countryCodes": ["jp"],
    "matchTags": [
      "amenity/college",
      "amenity/school"
    ],
    "tags": {
      "amenity": "language_school",
      "brand": "NOVA",
      "brand:ja": "NOVA",
      "brand:ja-Hira": "ノヴァ",
      "brand:ja-Latn": "NOVA",
      "brand:wikidata": "Q7064000",
      "brand:wikipedia": "ja:NOVA",
      "language:en": "main",
      "name": "NOVA",
      "name:ja": "NOVA",
      "name:ja-Hira": "ノヴァ",
      "name:ja-Latn": "NOVA"
    }
  },
  "amenity/language_school|Shane English School": {
    "countryCodes": [
      "cn",
      "dz",
      "gb",
      "hk",
      "id",
      "kr",
      "pl",
      "th",
      "tw",
      "vn"
    ],
    "tags": {
      "amenity": "language_school",
      "brand": "Shane English School",
      "brand:en": "Shane English School",
      "brand:ja": "シェーン英会話",
      "brand:ja-Latn": "Shēn Eikaiwa",
      "brand:wikidata": "Q17054332",
      "brand:wikipedia": "en:Shane English School",
      "language:en": "main",
      "name": "Shane English School",
      "name:en": "Shane English School",
      "name:ja": "シェーン英会話",
      "name:ja-Latn": "Shēn Eikaiwa"
    }
  },
  "amenity/language_school|シェーン英会話": {
    "countryCodes": ["jp"],
    "tags": {
      "amenity": "language_school",
      "brand": "シェーン英会話",
      "brand:en": "Shane English School",
      "brand:ja": "シェーン英会話",
      "brand:ja-Latn": "Shēn Eikaiwa",
      "brand:wikidata": "Q17054332",
      "brand:wikipedia": "ja:シェーン英会話スクール",
      "language:en": "main",
      "name": "シェーン英会話",
      "name:en": "Shane English School",
      "name:ja": "シェーン英会話",
      "name:ja-Latn": "Shēn Eikaiwa"
    }
  }
}