{
  "brands/amenity/pharmacy": [
    {
      "displayName": "36,6",
      "id": "366-288c27",
      "locationSet": {"include": ["ru"]},
      "matchNames": ["аптека 36,6"],
      "oldid": "amenity/pharmacy|36,6",
      "tags": {
        "amenity": "pharmacy",
        "brand": "36,6",
        "brand:wikidata": "Q226889",
        "brand:wikipedia": "ru:36,6 (аптечная сеть)",
        "healthcare": "pharmacy",
        "name": "36,6"
      }
    },
    {
      "displayName": "ADEL",
      "id": "adel-f5140f",
      "locationSet": {"include": ["001"]},
      "oldid": "amenity/pharmacy|ADEL",
      "tags": {
        "amenity": "pharmacy",
        "brand": "ADEL",
        "healthcare": "pharmacy",
        "name": "ADEL"
      }
    },
    {
      "displayName": "Agafarma",
      "id": "agafarma-295f06",
      "locationSet": {"include": ["br"]},
      "oldid": "amenity/pharmacy|Agafarma",
      "tags": {
        "amenity": "pharmacy",
        "brand": "Agafarma",
        "brand:wikidata": "Q93735939",
        "healthcare": "pharmacy",
        "name": "Agafarma"
      }
    },
    {
      "displayName": "Amavita",
      "id": "amavita-7092c5",
      "locationSet": {"include": ["ch"]},
      "oldid": "amenity/pharmacy|Amavita",
      "tags": {
        "amenity": "pharmacy",
        "brand": "Amavita",
        "brand:wikidata": "Q93733901",
        "healthcare": "pharmacy",
        "name": "Amavita"
      }
    },
    {
      "displayName": "Amcal",
      "id": "amcal-a4bb5f",
      "locationSet": {"include": ["au"]},
      "matchNames": ["amcal pharmacy"],
      "oldid": "amenity/pharmacy|Amcal",
      "tags": {
        "amenity": "pharmacy",
        "brand": "Amcal",
        "brand:wikidata": "Q63367373",
        "healthcare": "pharmacy",
        "name": "Amcal"
      }
    },
    {
      "displayName": "Anton et Willem",
      "id": "antonandwillem-4ed69f",
      "locationSet": {"include": ["fr"]},
      "oldid": "amenity/pharmacy|Anton et Willem",
      "tags": {
        "amenity": "pharmacy",
        "brand": "Anton & Willem",
        "brand:wikidata": "Q91330267",
        "healthcare": "pharmacy",
        "name": "Anton & Willem"
      }
    },
    {
      "displayName": "Apollo Pharmacy",
      "id": "apollopharmacy-95192b",
      "locationSet": {"include": ["in"]},
      "nomatch": ["shop/optician|Apollo-Optik"],
      "oldid": "amenity/pharmacy|Apollo Pharmacy",
      "tags": {
        "amenity": "pharmacy",
        "brand": "Apollo Pharmacy",
        "brand:wikidata": "Q62562612",
        "healthcare": "pharmacy",
        "name": "Apollo Pharmacy"
      }
    },
    {
      "displayName": "Apotek Hjärtat",
      "id": "apotekhjartat-bc5266",
      "locationSet": {"include": ["se"]},
      "oldid": "amenity/pharmacy|Apotek Hjärtat",
      "tags": {
        "amenity": "pharmacy",
        "brand": "Apotek Hjärtat",
        "brand:wikidata": "Q10416114",
        "brand:wikipedia": "sv:Apotek Hjärtat",
        "healthcare": "pharmacy",
        "name": "Apotek Hjärtat"
      }
    },
    {
      "displayName": "Bartell Drugs",
      "id": "bartelldrugs-3ab288",
      "locationSet": {"include": ["us"]},
      "oldid": "amenity/pharmacy|Bartell Drugs",
      "tags": {
        "amenity": "pharmacy",
        "brand": "Bartell Drugs",
        "brand:wikidata": "Q4865152",
        "brand:wikipedia": "en:Bartell Drugs",
        "healthcare": "pharmacy",
        "name": "Bartell Drugs"
      }
    },
    {
      "displayName": "Benavides",
      "id": "benavides-7a195a",
      "locationSet": {"include": ["mx"]},
      "oldid": "amenity/pharmacy|Benavides",
      "tags": {
        "amenity": "pharmacy",
        "brand": "Benavides",
        "brand:wikidata": "Q5435613",
        "brand:wikipedia": "en:Farmacias Benavides",
        "healthcare": "pharmacy",
        "name": "Benavides"
      }
    },
    {
      "displayName": "Benu",
      "id": "benu-f5140f",
      "locationSet": {"include": ["001"]},
      "oldid": "amenity/pharmacy|Benu",
      "tags": {
        "amenity": "pharmacy",
        "brand": "Benu",
        "brand:wikidata": "Q62562792",
        "healthcare": "pharmacy",
        "name": "Benu"
      }
    },
    {
      "displayName": "Blooms The Chemist",
      "id": "bloomsthechemist-a4bb5f",
      "locationSet": {"include": ["au"]},
      "oldid": "amenity/pharmacy|Blooms The Chemist",
      "tags": {
        "amenity": "pharmacy",
        "brand": "Blooms The Chemist",
        "brand:wikidata": "Q63367543",
        "healthcare": "pharmacy",
        "name": "Blooms The Chemist",
        "shop": "chemist"
      }
    },
    {
      "displayName": "Boots",
      "id": "boots-b98d4f",
      "locationSet": {"include": ["gb"]},
      "matchNames": ["boots pharmacy"],
      "nomatch": ["shop/chemist|Boots"],
      "oldid": "amenity/pharmacy|Boots",
      "tags": {
        "amenity": "pharmacy",
        "brand": "Boots",
        "brand:wikidata": "Q6123139",
        "brand:wikipedia": "en:Boots UK",
        "healthcare": "pharmacy",
        "name": "Boots"
      }
    },
    {
      "displayName": "Boticas y Salud",
      "id": "boticasysalud-141e89",
      "locationSet": {"include": ["pe"]},
      "oldid": "amenity/pharmacy|Boticas y Salud",
      "tags": {
        "amenity": "pharmacy",
        "brand": "Boticas y Salud",
        "brand:wikidata": "Q62563126",
        "healthcare": "pharmacy",
        "name": "Boticas y Salud"
      }
    },
    {
      "displayName": "Brookshire Brothers Pharmacy",
      "id": "brookshirebrotherspharmacy-3ab288",
      "locationSet": {"include": ["us"]},
      "oldid": "amenity/pharmacy|Brookshire Brothers Pharmacy",
      "tags": {
        "amenity": "pharmacy",
        "brand": "Brookshire Brothers Pharmacy",
        "brand:wikidata": "Q4975084",
        "brand:wikipedia": "en:Brookshire Brothers",
        "healthcare": "pharmacy",
        "name": "Brookshire Brothers Pharmacy"
      }
    },
    {
      "displayName": "Brookshire's Pharmacy",
      "id": "brookshirespharmacy-3ab288",
      "locationSet": {"include": ["us"]},
      "oldid": "amenity/pharmacy|Brookshire's Pharmacy",
      "tags": {
        "amenity": "pharmacy",
        "brand": "Brookshire's Pharmacy",
        "healthcare": "pharmacy",
        "name": "Brookshire's Pharmacy"
      }
    },
    {
      "displayName": "Brunet",
      "id": "brunet-f5140f",
      "locationSet": {"include": ["001"]},
      "oldid": "amenity/pharmacy|Brunet",
      "tags": {
        "amenity": "pharmacy",
        "brand": "Brunet",
        "healthcare": "pharmacy",
        "name": "Brunet"
      }
    },
    {
      "displayName": "Camelia",
      "id": "camelia-503e9a",
      "locationSet": {"include": ["lt"]},
      "oldid": "amenity/pharmacy|Camelia",
      "tags": {
        "amenity": "pharmacy",
        "brand": "Camelia",
        "brand:wikidata": "Q15867413",
        "brand:wikipedia": "lt:Nemuno vaistinė",
        "healthcare": "pharmacy",
        "name": "Camelia"
      }
    },
    {
      "displayName": "Catena",
      "id": "catena-8861f5",
      "locationSet": {"include": ["ro"]},
      "oldid": "amenity/pharmacy|Catena",
      "tags": {
        "amenity": "pharmacy",
        "brand": "Catena",
        "brand:wikidata": "Q24035728",
        "brand:wikipedia": "ro:Farmacia Catena",
        "healthcare": "pharmacy",
        "name": "Catena"
      }
    },
    {
      "displayName": "Chemist King Discount Pharmacy",
      "id": "chemistkingdiscountpharmacy-a4bb5f",
      "locationSet": {"include": ["au"]},
      "matchNames": [
        "chemist king",
        "chemist king discount pharmacies"
      ],
      "oldid": "amenity/pharmacy|Chemist King Discount Pharmacy",
      "tags": {
        "amenity": "pharmacy",
        "brand": "Chemist King Discount Pharmacy",
        "brand:wikidata": "Q63367667",
        "healthcare": "pharmacy",
        "name": "Chemist King Discount Pharmacy"
      }
    },
    {
      "displayName": "Chemist Warehouse",
      "id": "chemistwarehouse-382a5b",
      "locationSet": {"include": ["au", "nz"]},
      "oldid": "amenity/pharmacy|Chemist Warehouse",
      "tags": {
        "amenity": "pharmacy",
        "brand": "Chemist Warehouse",
        "brand:wikidata": "Q48782120",
        "brand:wikipedia": "en:Chemist Warehouse",
        "healthcare": "pharmacy",
        "name": "Chemist Warehouse"
      }
    },
    {
      "displayName": "Clicks",
      "id": "clicks-091dbc",
      "locationSet": {"include": ["za"]},
      "oldid": "amenity/pharmacy|Clicks",
      "tags": {
        "amenity": "pharmacy",
        "brand": "Clicks",
        "brand:wikidata": "Q62563622",
        "healthcare": "pharmacy",
        "name": "Clicks"
      }
    },
    {
      "displayName": "Cohens Chemist",
      "id": "cohenschemist-f5140f",
      "locationSet": {"include": ["001"]},
      "oldid": "amenity/pharmacy|Cohens Chemist",
      "tags": {
        "amenity": "pharmacy",
        "brand": "Cohens Chemist",
        "healthcare": "pharmacy",
        "name": "Cohens Chemist"
      }
    },
    {
      "displayName": "Coop Vitality",
      "id": "coopvitality-7092c5",
      "locationSet": {"include": ["ch"]},
      "oldid": "amenity/pharmacy|Coop Vitality",
      "tags": {
        "amenity": "pharmacy",
        "brand": "Coop Vitality",
        "healthcare": "pharmacy",
        "name": "Coop Vitality"
      }
    },
    {
      "displayName": "Costco Pharmacy",
      "id": "costcopharmacy-3ab288",
      "locationSet": {"include": ["us"]},
      "nomatch": [
        "amenity/fuel|Costco Gasoline",
        "shop/wholesale|Costco"
      ],
      "oldid": "amenity/pharmacy|Costco Pharmacy",
      "tags": {
        "amenity": "pharmacy",
        "brand": "Costco Pharmacy",
        "brand:wikidata": "Q715583",
        "brand:wikipedia": "en:Costco",
        "healthcare": "pharmacy",
        "name": "Costco Pharmacy"
      }
    },
    {
      "displayName": "Cruz Azul",
      "id": "cruzazul-235c18",
      "locationSet": {"include": ["ec"]},
      "matchNames": ["farmacias cruz azul"],
      "oldid": "amenity/pharmacy|Cruz Azul",
      "tags": {
        "amenity": "pharmacy",
        "brand": "Cruz Azul",
        "brand:wikidata": "Q62108219",
        "healthcare": "pharmacy",
        "name": "Cruz Azul"
      }
    },
    {
      "displayName": "Cruz Verde",
      "id": "cruzverde-af67e0",
      "locationSet": {"include": ["cl"]},
      "matchNames": ["farmacias cruz verde"],
      "oldid": "amenity/pharmacy|Cruz Verde",
      "tags": {
        "amenity": "pharmacy",
        "brand": "Cruz Verde",
        "brand:wikidata": "Q5856071",
        "brand:wikipedia": "es:Farmacias Cruz Verde",
        "healthcare": "pharmacy",
        "name": "Cruz Verde"
      }
    },
    {
      "displayName": "CVS Pharmacy",
      "id": "cvspharmacy-3ab288",
      "locationSet": {"include": ["us"]},
      "nomatch": [
        "amenity/vending_machine|CVS Pharmacy",
        "shop/chemist|CVS Pharmacy"
      ],
      "oldid": "amenity/pharmacy|CVS Pharmacy",
      "tags": {
        "amenity": "pharmacy",
        "brand": "CVS Pharmacy",
        "brand:wikidata": "Q2078880",
        "brand:wikipedia": "en:CVS Pharmacy",
        "healthcare": "pharmacy",
        "name": "CVS Pharmacy",
        "short_name": "CVS"
      }
    },
    {
      "displayName": "Day Lewis Pharmacy",
      "id": "daylewispharmacy-b98d4f",
      "locationSet": {"include": ["gb"]},
      "oldid": "amenity/pharmacy|Day Lewis Pharmacy",
      "tags": {
        "amenity": "pharmacy",
        "brand": "Day Lewis Pharmacy",
        "brand:wikidata": "Q62563772",
        "healthcare": "pharmacy",
        "name": "Day Lewis Pharmacy"
      }
    },
    {
      "displayName": "Dbam o Zdrowie",
      "id": "dbamozdrowie-cf61fb",
      "locationSet": {"include": ["pl"]},
      "oldid": "amenity/pharmacy|Dbam o Zdrowie",
      "tags": {
        "amenity": "pharmacy",
        "brand": "Dbam o Zdrowie",
        "brand:wikidata": "Q62563833",
        "healthcare": "pharmacy",
        "name": "Dbam o Zdrowie"
      }
    },
    {
      "displayName": "Dona",
      "id": "dona-8861f5",
      "locationSet": {"include": ["ro"]},
      "oldid": "amenity/pharmacy|Dona",
      "tags": {
        "amenity": "pharmacy",
        "brand": "Dona",
        "healthcare": "pharmacy",
        "name": "Dona"
      }
    },
    {
      "displayName": "Dr. Max",
      "id": "drmax-edd407",
      "locationSet": {
        "include": ["cz", "pl", "sk"]
      },
      "oldid": "amenity/pharmacy|Dr. Max",
      "tags": {
        "amenity": "pharmacy",
        "brand": "Dr. Max",
        "brand:wikidata": "Q56317371",
        "brand:wikipedia": "fr:Dr.Max",
        "healthcare": "pharmacy",
        "name": "Dr. Max"
      }
    },
    {
      "displayName": "Droga Raia",
      "id": "drogaraia-295f06",
      "locationSet": {"include": ["br"]},
      "oldid": "amenity/pharmacy|Droga Raia",
      "tags": {
        "amenity": "pharmacy",
        "brand": "Droga Raia",
        "brand:wikidata": "Q10357101",
        "brand:wikipedia": "pt:RaiaDrogasil",
        "healthcare": "pharmacy",
        "name": "Droga Raia"
      }
    },
    {
      "displayName": "Drogaria São Paulo",
      "id": "drogariasaopaulo-295f06",
      "locationSet": {"include": ["br"]},
      "oldid": "amenity/pharmacy|Drogaria São Paulo",
      "tags": {
        "amenity": "pharmacy",
        "brand": "Drogaria São Paulo",
        "brand:wikidata": "Q5308184",
        "brand:wikipedia": "en:Grupo DPSP",
        "healthcare": "pharmacy",
        "name": "Drogaria São Paulo"
      }
    },
    {
      "displayName": "Drogasil",
      "id": "drogasil-295f06",
      "locationSet": {"include": ["br"]},
      "oldid": "amenity/pharmacy|Drogasil",
      "tags": {
        "amenity": "pharmacy",
        "brand": "Drogasil",
        "brand:wikidata": "Q5308185",
        "brand:wikipedia": "pt:Drogasil",
        "healthcare": "pharmacy",
        "name": "Drogasil",
        "wheelchair": "yes"
      }
    },
    {
      "displayName": "Duane Reade",
      "id": "duanereade-3ab288",
      "locationSet": {"include": ["us"]},
      "oldid": "amenity/pharmacy|Duane Reade",
      "tags": {
        "amenity": "pharmacy",
        "brand": "Duane Reade",
        "brand:wikidata": "Q5310380",
        "brand:wikipedia": "en:Duane Reade",
        "healthcare": "pharmacy",
        "name": "Duane Reade"
      }
    },
    {
      "displayName": "Eurovaistinė",
      "id": "eurovaistine-503e9a",
      "locationSet": {"include": ["lt"]},
      "oldid": "amenity/pharmacy|Eurovaistinė",
      "tags": {
        "amenity": "pharmacy",
        "brand": "Eurovaistinė",
        "brand:wikidata": "Q267205",
        "brand:wikipedia": "en:Euroapotheca",
        "healthcare": "pharmacy",
        "name": "Eurovaistinė"
      }
    },
    {
      "displayName": "Extrafarma",
      "id": "extrafarma-295f06",
      "locationSet": {"include": ["br"]},
      "oldid": "amenity/pharmacy|Extrafarma",
      "tags": {
        "amenity": "pharmacy",
        "brand": "Extrafarma",
        "brand:wikidata": "Q20055480",
        "brand:wikipedia": "pt:Extrafarma",
        "healthcare": "pharmacy",
        "name": "Extrafarma"
      }
    },
    {
      "displayName": "Familiprix",
      "id": "familiprix-b56451",
      "locationSet": {"include": ["ca"]},
      "oldid": "amenity/pharmacy|Familiprix",
      "tags": {
        "amenity": "pharmacy",
        "brand": "Familiprix",
        "brand:wikidata": "Q3064881",
        "brand:wikipedia": "fr:Familiprix",
        "healthcare": "pharmacy",
        "name": "Familiprix"
      }
    },
    {
      "displayName": "Farmacenter (Colombia)",
      "id": "farmacenter-e95dde",
      "locationSet": {"include": ["co"]},
      "oldid": "amenity/pharmacy|Farmacenter~(Colombia)",
      "tags": {
        "amenity": "pharmacy",
        "brand": "Farmacenter",
        "brand:wikidata": "Q62563928",
        "healthcare": "pharmacy",
        "name": "Farmacenter"
      }
    },
    {
      "displayName": "Farmacenter (Paraguay)",
      "id": "farmacenter-0e462a",
      "locationSet": {"include": ["py"]},
      "oldid": "amenity/pharmacy|Farmacenter~(Paraguay)",
      "tags": {
        "amenity": "pharmacy",
        "brand": "Farmacenter",
        "brand:wikidata": "",
        "healthcare": "pharmacy",
        "name": "Farmacenter"
      }
    },
    {
      "displayName": "Farmacia",
      "id": "farmacia-e8d74c",
      "locationSet": {"include": ["hr"]},
      "oldid": "amenity/pharmacy|Farmacia",
      "tags": {
        "amenity": "pharmacy",
        "brand": "Farmacia",
        "healthcare": "pharmacy",
        "name": "Farmacia"
      }
    },
    {
      "displayName": "Farmacia Benavides",
      "id": "farmaciabenavides-7a195a",
      "locationSet": {"include": ["mx"]},
      "oldid": "amenity/pharmacy|Farmacia Benavides",
      "tags": {
        "amenity": "pharmacy",
        "brand": "Farmacia Benavides",
        "brand:wikidata": "Q5435613",
        "brand:wikipedia": "en:Farmacias Benavides",
        "healthcare": "pharmacy",
        "name": "Farmacia Benavides"
      }
    },
    {
      "displayName": "Farmacia Chávez",
      "id": "farmaciachavez-552afd",
      "locationSet": {"include": ["bo"]},
      "oldid": "amenity/pharmacy|Farmacia Chávez",
      "tags": {
        "amenity": "pharmacy",
        "brand": "Farmacia Chávez",
        "brand:wikidata": "Q81969919",
        "healthcare": "pharmacy",
        "name": "Farmacia Chávez"
      }
    },
    {
      "displayName": "Farmacia Cruz Azul",
      "id": "farmaciacruzazul-235c18",
      "locationSet": {"include": ["ec"]},
      "oldid": "amenity/pharmacy|Farmacia Cruz Azul",
      "tags": {
        "amenity": "pharmacy",
        "brand": "Farmacia Cruz Azul",
        "healthcare": "pharmacy",
        "name": "Farmacia Cruz Azul"
      }
    },
    {
      "displayName": "Farmacia Familiei",
      "id": "farmaciafamiliei-52cb11",
      "locationSet": {"include": ["md"]},
      "oldid": "amenity/pharmacy|Farmacia Familiei",
      "tags": {
        "amenity": "pharmacy",
        "brand": "Farmacia Familiei",
        "healthcare": "pharmacy",
        "name": "Farmacia Familiei"
      }
    },
    {
      "displayName": "Farmacia Guadalajara",
      "id": "farmaciaguadalajara-7a195a",
      "locationSet": {"include": ["mx"]},
      "matchNames": ["farmacias guadalajara"],
      "oldid": "amenity/pharmacy|Farmacia Guadalajara",
      "tags": {
        "amenity": "pharmacy",
        "brand": "Farmacia Guadalajara",
        "brand:wikidata": "Q5435609",
        "brand:wikipedia": "en:Farmacias Guadalajara",
        "healthcare": "pharmacy",
        "name": "Farmacia Guadalajara"
      }
    },
    {
      "displayName": "Farmacia Hipermaxi",
      "id": "farmaciahipermaxi-552afd",
      "locationSet": {"include": ["bo"]},
      "oldid": "amenity/pharmacy|Farmacia Hipermaxi",
      "tags": {
        "amenity": "pharmacy",
        "brand": "Farmacia Hipermaxi",
        "brand:wikidata": "Q81970238",
        "healthcare": "pharmacy",
        "name": "Farmacia Hipermaxi"
      }
    },
    {
      "displayName": "Farmácia Popular",
      "id": "farmaciapopular-f5140f",
      "locationSet": {"include": ["001"]},
      "oldid": "amenity/pharmacy|Farmácia Popular",
      "tags": {
        "amenity": "pharmacy",
        "brand": "Farmácia Popular",
        "healthcare": "pharmacy",
        "name": "Farmácia Popular"
      }
    },
    {
      "displayName": "Farmácia São João",
      "id": "farmaciasaojoao-f5140f",
      "locationSet": {"include": ["001"]},
      "oldid": "amenity/pharmacy|Farmácia São João",
      "tags": {
        "amenity": "pharmacy",
        "brand": "Farmácia São João",
        "healthcare": "pharmacy",
        "name": "Farmácia São João"
      }
    },
    {
      "displayName": "Farmacias Ahumada",
      "id": "farmaciasahumada-f5140f",
      "locationSet": {"include": ["001"]},
      "oldid": "amenity/pharmacy|Farmacias Ahumada",
      "tags": {
        "amenity": "pharmacy",
        "brand": "Farmacias Ahumada",
        "brand:wikidata": "Q5856069",
        "brand:wikipedia": "es:Farmacias Ahumada",
        "healthcare": "pharmacy",
        "name": "Farmacias Ahumada"
      }
    },
    {
      "displayName": "Farmacias Benavides",
      "id": "farmaciasbenavides-f5140f",
      "locationSet": {"include": ["001"]},
      "oldid": "amenity/pharmacy|Farmacias Benavides",
      "tags": {
        "amenity": "pharmacy",
        "brand": "Farmacias Benavides",
        "healthcare": "pharmacy",
        "name": "Farmacias Benavides"
      }
    },
    {
      "displayName": "Farmacias Bolivia",
      "id": "farmaciasbolivia-552afd",
      "locationSet": {"include": ["bo"]},
      "oldid": "amenity/pharmacy|Farmacias Bolivia",
      "tags": {
        "amenity": "pharmacy",
        "brand": "Farmacias Bolivia",
        "brand:wikidata": "Q81970584",
        "healthcare": "pharmacy",
        "name": "Farmacias Bolivia"
      }
    },
    {
      "displayName": "Farmacias del Ahorro",
      "id": "farmaciasdelahorro-7a195a",
      "locationSet": {"include": ["mx"]},
      "matchNames": ["farmacia del ahorro"],
      "oldid": "amenity/pharmacy|Farmacias del Ahorro",
      "tags": {
        "amenity": "pharmacy",
        "brand": "Farmacias del Ahorro",
        "brand:wikidata": "Q62086647",
        "healthcare": "pharmacy",
        "name": "Farmacias del Ahorro"
      }
    },
    {
      "displayName": "Farmacias del Dr. Simi",
      "id": "farmaciasdeldrsimi-f147d5",
      "locationSet": {
        "include": ["cl", "gt", "mx"]
      },
      "oldid": "amenity/pharmacy|Farmacias del Dr. Simi",
      "tags": {
        "amenity": "pharmacy",
        "brand": "Farmacias del Dr. Simi",
        "brand:wikidata": "Q62564610",
        "healthcare": "pharmacy",
        "name": "Farmacias del Dr. Simi"
      }
    },
    {
      "displayName": "Farmacias Económicas (Ecuador)",
      "id": "farmaciaseconomicas-235c18",
      "locationSet": {"include": ["ec"]},
      "oldid": "amenity/pharmacy|Farmacias Económicas~(Ecuador)",
      "tags": {
        "amenity": "pharmacy",
        "brand": "Farmacias Económicas",
        "brand:wikidata": "Q62108380",
        "healthcare": "pharmacy",
        "name": "Farmacias Económicas"
      }
    },
    {
      "displayName": "Farmacias Económicas (El Salvador)",
      "id": "farmaciaseconomicas-fa48f5",
      "locationSet": {"include": ["sv"]},
      "oldid": "amenity/pharmacy|Farmacias Económicas~(El Salvador)",
      "tags": {
        "amenity": "pharmacy",
        "brand": "Farmacias Económicas",
        "brand:wikidata": "Q62108397",
        "healthcare": "pharmacy",
        "name": "Farmacias Económicas"
      }
    },
    {
      "displayName": "Farmacias Similares",
      "id": "farmaciassimilares-f147d5",
      "locationSet": {
        "include": ["cl", "gt", "mx"]
      },
      "matchNames": ["similares"],
      "oldid": "amenity/pharmacy|Farmacias Similares",
      "tags": {
        "amenity": "pharmacy",
        "brand": "Farmacias Similares",
        "brand:wikidata": "Q62564610",
        "healthcare": "pharmacy",
        "name": "Farmacias Similares"
      }
    },
    {
      "displayName": "Farmacity",
      "id": "farmacity-901f91",
      "locationSet": {"include": ["ra"]},
      "oldid": "amenity/pharmacy|Farmacity",
      "tags": {
        "amenity": "pharmacy",
        "brand": "Farmacity",
        "brand:wikidata": "Q5856076",
        "brand:wikipedia": "es:Farmacity",
        "healthcare": "pharmacy",
        "name": "Farmacity"
      }
    },
    {
      "displayName": "Farmacorp",
      "id": "farmacorp-552afd",
      "locationSet": {"include": ["bo"]},
      "oldid": "amenity/pharmacy|Farmacorp",
      "tags": {
        "amenity": "pharmacy",
        "brand": "Farmacorp",
        "brand:wikidata": "Q81968937",
        "healthcare": "pharmacy",
        "name": "Farmacorp"
      }
    },
    {
      "displayName": "FarmaElías",
      "id": "farmaelias-552afd",
      "locationSet": {"include": ["bo"]},
      "oldid": "amenity/pharmacy|FarmaElías",
      "tags": {
        "amenity": "pharmacy",
        "brand": "FarmaElías",
        "brand:wikidata": "Q81969487",
        "healthcare": "pharmacy",
        "name": "FarmaElías"
      }
    },
    {
      "displayName": "Farmahorro",
      "id": "farmahorro-f5140f",
      "locationSet": {"include": ["001"]},
      "oldid": "amenity/pharmacy|Farmahorro",
      "tags": {
        "amenity": "pharmacy",
        "brand": "Farmahorro",
        "brand:wikidata": "Q20015002",
        "brand:wikipedia": "es:Farmahorro",
        "healthcare": "pharmacy",
        "name": "Farmahorro"
      }
    },
    {
      "displayName": "Farmatodo",
      "id": "farmatodo-f5140f",
      "locationSet": {"include": ["001"]},
      "oldid": "amenity/pharmacy|Farmatodo",
      "tags": {
        "amenity": "pharmacy",
        "brand": "Farmatodo",
        "brand:wikidata": "Q5856092",
        "brand:wikipedia": "es:Farmatodo",
        "healthcare": "pharmacy",
        "name": "Farmatodo"
      }
    },
    {
      "displayName": "Felicia",
      "id": "felicia-52cb11",
      "locationSet": {"include": ["md"]},
      "oldid": "amenity/pharmacy|Felicia",
      "tags": {
        "amenity": "pharmacy",
        "brand": "Felicia",
        "brand:wikidata": "Q62564805",
        "healthcare": "pharmacy",
        "name": "Felicia"
      }
    },
    {
      "displayName": "Fred Meyer Pharmacy",
      "id": "fredmeyerpharmacy-3ab288",
      "locationSet": {"include": ["us"]},
      "matchNames": ["fred meyer"],
      "nomatch": ["shop/supermarket|Fred Meyer"],
      "oldid": "amenity/pharmacy|Fred Meyer Pharmacy",
      "tags": {
        "amenity": "pharmacy",
        "brand": "Fred Meyer",
        "brand:wikidata": "Q5495932",
        "brand:wikipedia": "en:Fred Meyer",
        "healthcare": "pharmacy",
        "name": "Fred Meyer Pharmacy"
      }
    },
    {
      "displayName": "Fybeca",
      "id": "fybeca-235c18",
      "locationSet": {"include": ["ec"]},
      "oldid": "amenity/pharmacy|Fybeca",
      "tags": {
        "amenity": "pharmacy",
        "brand": "Fybeca",
        "brand:wikidata": "Q62564822",
        "healthcare": "pharmacy",
        "name": "Fybeca"
      }
    },
    {
      "displayName": "Generika",
      "id": "generika-2ddb76",
      "locationSet": {"include": ["ph"]},
      "matchNames": ["generika drugstore"],
      "oldid": "amenity/pharmacy|Generika",
      "tags": {
        "amenity": "pharmacy",
        "brand": "Generika",
        "brand:wikidata": "Q62564876",
        "healthcare": "pharmacy",
        "name": "Generika"
      }
    },
    {
      "displayName": "Gintarinė vaistinė",
      "id": "gintarinevaistine-503e9a",
      "locationSet": {"include": ["lt"]},
      "oldid": "amenity/pharmacy|Gintarinė vaistinė",
      "tags": {
        "amenity": "pharmacy",
        "brand": "Gintarinė vaistinė",
        "brand:wikidata": "Q15857801",
        "brand:wikipedia": "lt:Gintarinė vaistinė",
        "healthcare": "pharmacy",
        "name": "Gintarinė vaistinė"
      }
    },
    {
      "displayName": "Gradska ljekarna Zagreb",
      "id": "gradskaljekarnazagreb-e8d74c",
      "locationSet": {"include": ["hr"]},
      "oldid": "amenity/pharmacy|Gradska ljekarna Zagreb",
      "tags": {
        "amenity": "pharmacy",
        "brand": "Gradska ljekarna Zagreb",
        "healthcare": "pharmacy",
        "name": "Gradska ljekarna Zagreb"
      }
    },
    {
      "displayName": "Guardian (Asia)",
      "id": "guardian-c3738d",
      "locationSet": {
        "include": [
          "bn",
          "id",
          "kh",
          "my",
          "sg",
          "vn"
        ]
      },
      "oldid": "amenity/pharmacy|Guardian~(Asia)",
      "tags": {
        "amenity": "pharmacy",
        "brand": "Guardian",
        "brand:wikidata": "Q63371124",
        "brand:wikipedia": "ms:Guardian Malaysia",
        "healthcare": "pharmacy",
        "name": "Guardian"
      }
    },
    {
      "displayName": "Guardian (Australia)",
      "id": "guardian-a4bb5f",
      "locationSet": {"include": ["au"]},
      "matchNames": [
        "guardian pharmacies",
        "guardian pharmacy"
      ],
      "oldid": "amenity/pharmacy|Guardian~(Australia)",
      "tags": {
        "amenity": "pharmacy",
        "brand": "Guardian",
        "brand:wikidata": "Q63367814",
        "healthcare": "pharmacy",
        "name": "Guardian"
      }
    },
    {
      "displayName": "Guardian (Canada)",
      "id": "guardian-b56451",
      "locationSet": {"include": ["ca"]},
      "nomatch": [
        "amenity/pharmacy|Guardian~(Asia)",
        "amenity/pharmacy|Guardian~(Australia)"
      ],
      "oldid": "amenity/pharmacy|Guardian~(Canada)",
      "tags": {
        "amenity": "pharmacy",
        "brand": "Guardian",
        "brand:wikidata": "Q65553864",
        "healthcare": "pharmacy",
        "name": "Guardian"
      }
    },
    {
      "displayName": "H-E-B Pharmacy",
      "id": "hebpharmacy-3ab288",
      "locationSet": {"include": ["us"]},
      "oldid": "amenity/pharmacy|H-E-B Pharmacy",
      "tags": {
        "amenity": "pharmacy",
        "brand": "H-E-B Pharmacy",
        "brand:wikidata": "Q830621",
        "brand:wikipedia": "en:H-E-B",
        "healthcare": "pharmacy",
        "name": "H-E-B Pharmacy"
      }
    },
    {
      "displayName": "Health Mart",
      "id": "healthmart-3ab288",
      "locationSet": {"include": ["us"]},
      "matchNames": ["health mart pharmacy"],
      "oldid": "amenity/pharmacy|Health Mart",
      "tags": {
        "amenity": "pharmacy",
        "brand": "Health Mart",
        "brand:wikidata": "Q5690597",
        "brand:wikipedia": "en:Health Mart",
        "healthcare": "pharmacy",
        "name": "Health Mart"
      }
    },
    {
      "displayName": "Hy-Vee Pharmacy",
      "id": "hyveepharmacy-3ab288",
      "locationSet": {"include": ["us"]},
      "oldid": "amenity/pharmacy|Hy-Vee Pharmacy",
      "tags": {
        "amenity": "pharmacy",
        "brand": "Hy-Vee Pharmacy",
        "brand:wikidata": "Q1639719",
        "brand:wikipedia": "en:Hy-Vee",
        "healthcare": "pharmacy",
        "name": "Hy-Vee Pharmacy"
      }
    },
    {
      "displayName": "I.D.A.",
      "id": "ida-b56451",
      "locationSet": {"include": ["ca"]},
      "oldid": "amenity/pharmacy|I.D.A.",
      "tags": {
        "amenity": "pharmacy",
        "brand": "I.D.A.",
        "brand:wikidata": "Q65553883",
        "healthcare": "pharmacy",
        "name": "I.D.A."
      }
    },
    {
      "displayName": "Inkafarma",
      "id": "inkafarma-141e89",
      "locationSet": {"include": ["pe"]},
      "oldid": "amenity/pharmacy|Inkafarma",
      "tags": {
        "amenity": "pharmacy",
        "brand": "Inkafarma",
        "brand:wikidata": "Q10997748",
        "brand:wikipedia": "es:Inkafarma",
        "healthcare": "pharmacy",
        "name": "Inkafarma"
      }
    },
    {
      "displayName": "Jean Coutu",
      "id": "jeancoutu-b56451",
      "locationSet": {"include": ["ca"]},
      "oldid": "amenity/pharmacy|Jean Coutu",
      "tags": {
        "amenity": "pharmacy",
        "brand": "Jean Coutu",
        "brand:wikidata": "Q3117457",
        "brand:wikipedia": "fr:Groupe Jean Coutu",
        "healthcare": "pharmacy",
        "name": "Jean Coutu"
      }
    },
    {
      "displayName": "Kimia Farma",
      "id": "kimiafarma-5c6039",
      "locationSet": {"include": ["id"]},
      "matchNames": ["apotek kimia farma"],
      "oldid": "amenity/pharmacy|Kimia Farma",
      "tags": {
        "amenity": "pharmacy",
        "brand": "Kimia Farma",
        "brand:wikidata": "Q11264892",
        "brand:wikipedia": "id:Kimia Farma",
        "healthcare": "pharmacy",
        "name": "Kimia Farma"
      }
    },
    {
      "displayName": "Kinney Drugs",
      "id": "kinneydrugs-3ab288",
      "locationSet": {"include": ["us"]},
      "oldid": "amenity/pharmacy|Kinney Drugs",
      "tags": {
        "amenity": "pharmacy",
        "brand": "Kinney Drugs",
        "brand:wikidata": "Q6414090",
        "brand:wikipedia": "en:Kinney Drugs",
        "healthcare": "pharmacy",
        "name": "Kinney Drugs"
      }
    },
    {
      "displayName": "Kroger Pharmacy",
      "id": "krogerpharmacy-3ab288",
      "locationSet": {"include": ["us"]},
      "oldid": "amenity/pharmacy|Kroger Pharmacy",
      "tags": {
        "amenity": "pharmacy",
        "brand": "Kroger Pharmacy",
        "healthcare": "pharmacy",
        "name": "Kroger Pharmacy"
      }
    },
    {
      "displayName": "Kronans Apotek",
      "id": "kronansapotek-bc5266",
      "locationSet": {"include": ["se"]},
      "oldid": "amenity/pharmacy|Kronans Apotek",
      "tags": {
        "amenity": "pharmacy",
        "brand": "Kronans Apotek",
        "healthcare": "pharmacy",
        "name": "Kronans Apotek"
      }
    },
    {
      "displayName": "Lafayette",
      "id": "lafayette-4ed69f",
      "locationSet": {"include": ["fr"]},
      "matchNames": ["pharmacie lafayette"],
      "oldid": "amenity/pharmacy|Lafayette",
      "tags": {
        "amenity": "pharmacy",
        "brand": "Lafayette",
        "brand:wikidata": "Q91301346",
        "healthcare": "pharmacy",
        "name": "Lafayette"
      }
    },
    {
      "displayName": "Life Pharmacy",
      "id": "lifepharmacy-f5140f",
      "locationSet": {"include": ["001"]},
      "oldid": "amenity/pharmacy|Life Pharmacy",
      "tags": {
        "amenity": "pharmacy",
        "brand": "Life Pharmacy",
        "healthcare": "pharmacy",
        "name": "Life Pharmacy"
      }
    },
    {
      "displayName": "Ljekarna Jadran",
      "id": "ljekarnajadran-e8d74c",
      "locationSet": {"include": ["hr"]},
      "oldid": "amenity/pharmacy|Ljekarna Jadran",
      "tags": {
        "amenity": "pharmacy",
        "brand": "Ljekarna Jadran",
        "healthcare": "pharmacy",
        "name": "Ljekarna Jadran"
      }
    },
    {
      "displayName": "Ljekarna Joukhadar",
      "id": "ljekarnajoukhadar-e8d74c",
      "locationSet": {"include": ["hr"]},
      "oldid": "amenity/pharmacy|Ljekarna Joukhadar",
      "tags": {
        "amenity": "pharmacy",
        "brand": "Ljekarna Joukhadar",
        "healthcare": "pharmacy",
        "name": "Ljekarna Joukhadar"
      }
    },
    {
      "displayName": "Ljekarna Pablo",
      "id": "ljekarnapablo-e8d74c",
      "locationSet": {"include": ["hr"]},
      "oldid": "amenity/pharmacy|Ljekarna Pablo",
      "tags": {
        "amenity": "pharmacy",
        "brand": "Ljekarna Pablo",
        "healthcare": "pharmacy",
        "name": "Ljekarna Pablo"
      }
    },
    {
      "displayName": "Lloyds Pharmacy",
      "id": "lloydspharmacy-ab6db1",
      "locationSet": {
        "include": ["be", "gb", "ie", "im"]
      },
      "matchNames": ["lloyds"],
      "oldid": "amenity/pharmacy|Lloyds Pharmacy",
      "tags": {
        "amenity": "pharmacy",
        "brand": "Lloyds Pharmacy",
        "brand:wikidata": "Q6662870",
        "brand:wikipedia": "en:LloydsPharmacy",
        "healthcare": "pharmacy",
        "name": "Lloyds Pharmacy"
      }
    },
    {
      "displayName": "Locatel",
      "id": "locatel-f5140f",
      "locationSet": {"include": ["001"]},
      "oldid": "amenity/pharmacy|Locatel",
      "tags": {
        "amenity": "pharmacy",
        "brand": "Locatel",
        "healthcare": "pharmacy",
        "name": "Locatel"
      }
    },
    {
      "displayName": "London Drugs",
      "id": "londondrugs-b56451",
      "locationSet": {"include": ["ca"]},
      "oldid": "amenity/pharmacy|London Drugs",
      "tags": {
        "amenity": "pharmacy",
        "brand": "London Drugs",
        "brand:wikidata": "Q3258955",
        "brand:wikipedia": "en:London Drugs",
        "healthcare": "pharmacy",
        "name": "London Drugs"
      }
    },
    {
      "displayName": "Longs Drugs (Hawaii)",
      "id": "longsdrugs-3ab288",
      "locationSet": {"include": ["us"]},
      "oldid": "amenity/pharmacy|Longs Drugs~(Hawaii)",
      "tags": {
        "amenity": "pharmacy",
        "brand": "Longs Drugs",
        "brand:wikidata": "Q16931196",
        "brand:wikipedia": "en:Longs Drugs",
        "healthcare": "pharmacy",
        "name": "Longs Drugs",
        "short_name": "Longs"
      }
    },
    {
      "displayName": "Mandis Pharm",
      "id": "mandispharm-e8d74c",
      "locationSet": {"include": ["hr"]},
      "oldid": "amenity/pharmacy|Mandis Pharm",
      "tags": {
        "amenity": "pharmacy",
        "brand": "Mandis Pharm",
        "healthcare": "pharmacy",
        "name": "Mandis Pharm"
      }
    },
    {
      "displayName": "Mannings",
      "id": "mannings-fbd6d0",
      "locationSet": {
        "include": ["cn", "hk", "mo"]
      },
      "oldid": "amenity/pharmacy|Mannings",
      "tags": {
        "amenity": "pharmacy",
        "brand": "Mannings",
        "brand:wikidata": "Q13646560",
        "brand:wikipedia": "en:Mannings",
        "healthcare": "pharmacy",
        "name": "Mannings"
      }
    },
    {
      "displayName": "Marc's Pharmacy",
      "id": "marcspharmacy-3ab288",
      "locationSet": {"include": ["us"]},
      "nomatch": ["shop/supermarket|Marc's"],
      "oldid": "amenity/pharmacy|Marc's Pharmacy",
      "tags": {
        "amenity": "pharmacy",
        "brand": "Marc's",
        "brand:wikidata": "Q17080259",
        "brand:wikipedia": "en:Marc's",
        "healthcare": "pharmacy",
        "name": "Marc's Pharmacy"
      }
    },
    {
      "displayName": "MedPlus",
      "id": "medplus-95192b",
      "locationSet": {"include": ["in"]},
      "oldid": "amenity/pharmacy|MedPlus",
      "tags": {
        "amenity": "pharmacy",
        "brand": "MedPlus",
        "brand:wikidata": "Q65684234",
        "brand:wikipedia": "en:MedPlus",
        "healthcare": "pharmacy",
        "name": "MedPlus"
      }
    },
    {
      "displayName": "Mēness aptieka",
      "id": "menessaptieka-0eac7e",
      "locationSet": {"include": ["lv"]},
      "oldid": "amenity/pharmacy|Mēness aptieka",
      "tags": {
        "amenity": "pharmacy",
        "brand": "Mēness aptieka",
        "brand:wikidata": "Q57583051",
        "healthcare": "pharmacy",
        "name": "Mēness aptieka"
      }
    },
    {
      "displayName": "Mercury Drug",
      "id": "mercurydrug-2ddb76",
      "locationSet": {"include": ["ph"]},
      "oldid": "amenity/pharmacy|Mercury Drug",
      "tags": {
        "amenity": "pharmacy",
        "brand": "Mercury Drug",
        "brand:wikidata": "Q6818610",
        "brand:wikipedia": "en:Mercury Drug",
        "healthcare": "pharmacy",
        "name": "Mercury Drug"
      }
    },
    {
      "displayName": "Mifarma",
      "id": "mifarma-141e89",
      "locationSet": {"include": ["pe"]},
      "oldid": "amenity/pharmacy|Mifarma",
      "tags": {
        "amenity": "pharmacy",
        "brand": "Mifarma",
        "brand:wikidata": "Q62564998",
        "healthcare": "pharmacy",
        "name": "Mifarma"
      }
    },
    {
      "displayName": "Multipharma",
      "id": "multipharma-c9bc6f",
      "locationSet": {"include": ["be"]},
      "oldid": "amenity/pharmacy|Multipharma",
      "tags": {
        "amenity": "pharmacy",
        "brand": "Multipharma",
        "brand:wikidata": "Q62565018",
        "healthcare": "pharmacy",
        "name": "Multipharma"
      }
    },
    {
      "displayName": "Pague Menos",
      "id": "paguemenos-295f06",
      "locationSet": {"include": ["br"]},
      "matchNames": ["farmácia pague menos"],
      "oldid": "amenity/pharmacy|Pague Menos",
      "tags": {
        "amenity": "pharmacy",
        "brand": "Pague Menos",
        "brand:wikidata": "Q7124466",
        "brand:wikipedia": "pt:Pague Menos",
        "healthcare": "pharmacy",
        "name": "Pague Menos"
      }
    },
    {
      "displayName": "Panvel",
      "id": "panvel-295f06",
      "locationSet": {"include": ["br"]},
      "oldid": "amenity/pharmacy|Panvel",
      "tags": {
        "amenity": "pharmacy",
        "brand": "Panvel",
        "brand:wikidata": "Q10344254",
        "brand:wikipedia": "pt:Panvel",
        "healthcare": "pharmacy",
        "name": "Panvel"
      }
    },
    {
      "displayName": "Parafarmacia Conad",
      "id": "parafarmaciaconad-f5140f",
      "locationSet": {"include": ["001"]},
      "oldid": "amenity/pharmacy|Parafarmacia Conad",
      "tags": {
        "amenity": "pharmacy",
        "brand": "Parafarmacia Conad",
        "healthcare": "pharmacy",
        "name": "Parafarmacia Conad"
      }
    },
    {
      "displayName": "PharmaChoice",
      "id": "pharmachoice-b56451",
      "locationSet": {"include": ["ca"]},
      "oldid": "amenity/pharmacy|PharmaChoice",
      "tags": {
        "amenity": "pharmacy",
        "brand": "PharmaChoice",
        "brand:wikidata": "Q7180716",
        "brand:wikipedia": "en:PharmaChoice",
        "healthcare": "pharmacy",
        "name": "PharmaChoice"
      }
    },
    {
      "displayName": "Pharmacie Principale",
      "id": "pharmacieprincipale-f5140f",
      "locationSet": {"include": ["001"]},
      "oldid": "amenity/pharmacy|Pharmacie Principale",
      "tags": {
        "amenity": "pharmacy",
        "brand": "Pharmacie Principale",
        "brand:wikidata": "Q1547749",
        "brand:wikipedia": "fr:Groupe PP Holding",
        "healthcare": "pharmacy",
        "name": "Pharmacie Principale"
      }
    },
    {
      "displayName": "Pharmacy 4 Less",
      "id": "pharmacy4less-a4bb5f",
      "locationSet": {"include": ["au"]},
      "oldid": "amenity/pharmacy|Pharmacy 4 Less",
      "tags": {
        "amenity": "pharmacy",
        "brand": "Pharmacy 4 Less",
        "brand:wikidata": "Q63367608",
        "healthcare": "pharmacy",
        "name": "Pharmacy 4 Less"
      }
    },
    {
      "displayName": "Pharmaprix",
      "id": "pharmaprix-b56451",
      "locationSet": {"include": ["ca"]},
      "oldid": "amenity/pharmacy|Pharmaprix",
      "tags": {
        "amenity": "pharmacy",
        "brand": "Pharmaprix",
        "brand:wikidata": "Q1820137",
        "brand:wikipedia": "fr:Pharmaprix",
        "healthcare": "pharmacy",
        "name": "Pharmaprix"
      }
    },
    {
      "displayName": "PharmaSave (Australia)",
      "id": "pharmasave-a4bb5f",
      "locationSet": {"include": ["au"]},
      "nomatch": [
        "amenity/pharmacy|Pharmasave~(Canada)"
      ],
      "oldid": "amenity/pharmacy|PharmaSave~(Australia)",
      "tags": {
        "amenity": "pharmacy",
        "brand": "PharmaSave",
        "brand:wikidata": "Q63367906",
        "healthcare": "pharmacy",
        "name": "PharmaSave"
      }
    },
    {
      "displayName": "Pharmasave (Canada)",
      "id": "pharmasave-b56451",
      "locationSet": {"include": ["ca"]},
      "nomatch": [
        "amenity/pharmacy|Pharmasave~(Australia)"
      ],
      "oldid": "amenity/pharmacy|Pharmasave~(Canada)",
      "tags": {
        "amenity": "pharmacy",
        "brand": "Pharmasave",
        "brand:wikidata": "Q17093822",
        "brand:wikipedia": "en:Pharmasave",
        "healthcare": "pharmacy",
        "name": "Pharmasave"
      }
    },
    {
      "displayName": "Priceline Pharmacy",
      "id": "pricelinepharmacy-a4bb5f",
      "locationSet": {"include": ["au"]},
      "matchNames": ["priceline"],
      "oldid": "amenity/pharmacy|Priceline Pharmacy",
      "tags": {
        "amenity": "pharmacy",
        "brand": "Priceline Pharmacy",
        "brand:wikidata": "Q7242652",
        "brand:wikipedia": "en:Priceline (Australia)",
        "healthcare": "pharmacy",
        "name": "Priceline Pharmacy"
      }
    },
    {
      "displayName": "Prima Pharme",
      "id": "primapharme-e8d74c",
      "locationSet": {"include": ["hr"]},
      "oldid": "amenity/pharmacy|Prima Pharme",
      "tags": {
        "amenity": "pharmacy",
        "brand": "Prima Pharme",
        "healthcare": "pharmacy",
        "name": "Prima Pharme"
      }
    },
    {
      "displayName": "Proxim",
      "id": "proxim-f5140f",
      "locationSet": {"include": ["001"]},
      "oldid": "amenity/pharmacy|Proxim",
      "tags": {
        "amenity": "pharmacy",
        "brand": "Proxim",
        "healthcare": "pharmacy",
        "name": "Proxim"
      }
    },
    {
      "displayName": "Publix",
      "id": "publix-c42a5a",
      "locationSet": {"include": ["br", "us"]},
      "nomatch": ["shop/supermarket|Publix"],
      "oldid": "amenity/pharmacy|Publix",
      "tags": {
        "amenity": "pharmacy",
        "brand": "Publix",
        "brand:wikidata": "Q672170",
        "brand:wikipedia": "en:Publix",
        "healthcare": "pharmacy",
        "name": "Publix"
      }
    },
    {
      "displayName": "Punto Farma (Colombia)",
      "id": "puntofarma-e95dde",
      "locationSet": {"include": ["co"]},
      "oldid": "amenity/pharmacy|Punto Farma~(Colombia)",
      "tags": {
        "amenity": "pharmacy",
        "brand": "Punto Farma",
        "brand:wikidata": "Q62595271",
        "healthcare": "pharmacy",
        "name": "Punto Farma"
      }
    },
    {
      "displayName": "Punto Farma (Honduras)",
      "id": "puntofarma-30ead0",
      "locationSet": {"include": ["hn"]},
      "oldid": "amenity/pharmacy|Punto Farma~(Honduras)",
      "tags": {
        "amenity": "pharmacy",
        "brand": "Punto Farma",
        "brand:wikidata": "Q62595229",
        "healthcare": "pharmacy",
        "name": "Punto Farma"
      }
    },
    {
      "displayName": "Punto Farma (Paraguay)",
      "id": "puntofarma-0e462a",
      "locationSet": {"include": ["py"]},
      "oldid": "amenity/pharmacy|Punto Farma~(Paraguay)",
      "tags": {
        "amenity": "pharmacy",
        "brand": "Punto Farma",
        "brand:wikidata": "Q62595220",
        "healthcare": "pharmacy",
        "name": "Punto Farma"
      }
    },
    {
      "displayName": "Remedy'sRx",
      "id": "remedysrx-b56451",
      "locationSet": {"include": ["ca"]},
      "oldid": "amenity/pharmacy|Remedy'sRx",
      "tags": {
        "amenity": "pharmacy",
        "brand": "Remedy'sRx",
        "brand:wikidata": "Q65553833",
        "healthcare": "pharmacy",
        "name": "Remedy'sRx"
      }
    },
    {
      "displayName": "Rexall",
      "id": "rexall-5d3b40",
      "locationSet": {"include": ["ca", "us"]},
      "oldid": "amenity/pharmacy|Rexall",
      "tags": {
        "amenity": "pharmacy",
        "brand": "Rexall",
        "brand:wikidata": "Q7319360",
        "brand:wikipedia": "en:Rexall",
        "healthcare": "pharmacy",
        "name": "Rexall"
      }
    },
    {
      "displayName": "Rite Aid",
      "id": "riteaid-3ab288",
      "locationSet": {"include": ["us"]},
      "matchNames": ["rite aid pharmacy"],
      "nomatch": ["shop/chemist|Rite Aid"],
      "oldid": "amenity/pharmacy|Rite Aid",
      "tags": {
        "amenity": "pharmacy",
        "brand": "Rite Aid",
        "brand:wikidata": "Q3433273",
        "brand:wikipedia": "en:Rite Aid",
        "healthcare": "pharmacy",
        "name": "Rite Aid"
      }
    },
    {
      "displayName": "Rose Pharmacy",
      "id": "rosepharmacy-2ddb76",
      "locationSet": {"include": ["ph"]},
      "oldid": "amenity/pharmacy|Rose Pharmacy",
      "tags": {
        "amenity": "pharmacy",
        "brand": "Rose Pharmacy",
        "brand:wikidata": "Q62663208",
        "healthcare": "pharmacy",
        "name": "Rose Pharmacy"
      }
    },
    {
      "displayName": "Rowlands Pharmacy",
      "id": "rowlandspharmacy-b98d4f",
      "locationSet": {"include": ["gb"]},
      "matchNames": ["rowlands"],
      "oldid": "amenity/pharmacy|Rowlands Pharmacy",
      "tags": {
        "amenity": "pharmacy",
        "brand": "Rowlands Pharmacy",
        "brand:wikidata": "Q62663235",
        "healthcare": "pharmacy",
        "name": "Rowlands Pharmacy"
      }
    },
    {
      "displayName": "Safeway",
      "id": "safeway-3ab288",
      "locationSet": {"include": ["us"]},
      "nomatch": [
        "amenity/fuel|Safeway",
        "shop/supermarket|Safeway"
      ],
      "oldid": "amenity/pharmacy|Safeway",
      "tags": {
        "amenity": "pharmacy",
        "brand": "Safeway",
        "brand:wikidata": "Q1508234",
        "brand:wikipedia": "en:Safeway Inc.",
        "healthcare": "pharmacy",
        "name": "Safeway"
      }
    },
    {
      "displayName": "SalcoBrand",
      "id": "salcobrand-af67e0",
      "locationSet": {"include": ["cl"]},
      "matchNames": ["farmacias salcobrand"],
      "oldid": "amenity/pharmacy|SalcoBrand",
      "tags": {
        "amenity": "pharmacy",
        "brand": "SalcoBrand",
        "brand:wikidata": "Q2877054",
        "brand:wikipedia": "es:Farmacias Salcobrand",
        "healthcare": "pharmacy",
        "name": "SalcoBrand"
      }
    },
    {
      "displayName": "Sana Sana",
      "id": "sanasana-235c18",
      "locationSet": {"include": ["ec"]},
      "matchNames": ["farmacias sana sana"],
      "oldid": "amenity/pharmacy|Sana Sana",
      "tags": {
        "amenity": "pharmacy",
        "brand": "Sana Sana",
        "brand:wikidata": "Q62564499",
        "healthcare": "pharmacy",
        "name": "Sana Sana"
      }
    },
    {
      "displayName": "São João",
      "id": "saojoao-295f06",
      "locationSet": {"include": ["br"]},
      "oldid": "amenity/pharmacy|São João",
      "tags": {
        "amenity": "pharmacy",
        "brand": "São João",
        "brand:wikidata": "Q62663306",
        "healthcare": "pharmacy",
        "name": "São João"
      }
    },
    {
      "displayName": "Schneider",
      "id": "schneider-f39a0c",
      "locationSet": {"include": ["sk"]},
      "oldid": "amenity/pharmacy|Schneider",
      "tags": {
        "amenity": "pharmacy",
        "brand": "Schneider",
        "brand:wikidata": "Q93514377",
        "healthcare": "pharmacy",
        "name": "Schneider"
      }
    },
    {
      "displayName": "Sensiblu",
      "id": "sensiblu-8861f5",
      "locationSet": {"include": ["ro"]},
      "oldid": "amenity/pharmacy|Sensiblu",
      "tags": {
        "amenity": "pharmacy",
        "brand": "Sensiblu",
        "brand:wikidata": "Q12740640",
        "brand:wikipedia": "ro:Sensiblu",
        "healthcare": "pharmacy",
        "name": "Sensiblu"
      }
    },
    {
      "displayName": "Shoppers Drug Mart",
      "id": "shoppersdrugmart-b56451",
      "locationSet": {"include": ["ca"]},
      "oldid": "amenity/pharmacy|Shoppers Drug Mart",
      "tags": {
        "amenity": "pharmacy",
        "brand": "Shoppers Drug Mart",
        "brand:wikidata": "Q1820137",
        "brand:wikipedia": "en:Shoppers Drug Mart",
        "healthcare": "pharmacy",
        "name": "Shoppers Drug Mart"
      }
    },
    {
      "displayName": "Słoneczna",
      "id": "sloneczna-cf61fb",
      "locationSet": {"include": ["pl"]},
      "oldid": "amenity/pharmacy|Słoneczna",
      "tags": {
        "amenity": "pharmacy",
        "brand": "Słoneczna",
        "healthcare": "pharmacy",
        "name": "Słoneczna"
      }
    },
    {
      "displayName": "South Star Drug",
      "id": "southstardrug-2ddb76",
      "locationSet": {"include": ["ph"]},
      "oldid": "amenity/pharmacy|South Star Drug",
      "tags": {
        "amenity": "pharmacy",
        "brand": "South Star Drug",
        "brand:wikidata": "Q7568544",
        "brand:wikipedia": "en:South Star Drug",
        "healthcare": "pharmacy",
        "name": "South Star Drug"
      }
    },
    {
      "displayName": "Superdrug",
      "id": "superdrug-b98d4f",
      "locationSet": {"include": ["gb"]},
      "nomatch": ["shop/chemist|Superdrug"],
      "oldid": "amenity/pharmacy|Superdrug",
      "tags": {
        "amenity": "pharmacy",
        "brand": "Superdrug",
        "brand:wikidata": "Q7643261",
        "brand:wikipedia": "en:Superdrug",
        "healthcare": "pharmacy",
        "name": "Superdrug"
      }
    },
    {
      "displayName": "TerryWhite Chemmart",
      "id": "terrywhitechemmart-a4bb5f",
      "locationSet": {"include": ["au"]},
      "matchNames": [
        "terrywhite",
        "terrywhite chemist",
        "terrywhite chemists"
      ],
      "oldid": "amenity/pharmacy|TerryWhite Chemmart",
      "tags": {
        "amenity": "pharmacy",
        "brand": "TerryWhite Chemmart",
        "brand:wikidata": "Q24089773",
        "brand:wikipedia": "en:Terry White Chemmart",
        "healthcare": "pharmacy",
        "name": "TerryWhite Chemmart"
      }
    },
    {
      "displayName": "TGP",
      "id": "tgp-2ddb76",
      "locationSet": {"include": ["ph"]},
      "oldid": "amenity/pharmacy|TGP",
      "tags": {
        "amenity": "pharmacy",
        "brand": "The Generics Pharmacy",
        "brand:wikidata": "Q61948677",
        "healthcare": "pharmacy",
        "name": "TGP",
        "official_name": "The Generics Pharmacy"
      }
    },
    {
      "displayName": "UFS",
      "id": "ufs-a4bb5f",
      "locationSet": {"include": ["au"]},
      "matchNames": ["ufs dispensaries"],
      "oldid": "amenity/pharmacy|UFS",
      "tags": {
        "amenity": "pharmacy",
        "brand": "UFS",
        "brand:wikidata": "Q63367573",
        "healthcare": "pharmacy",
        "name": "UFS"
      }
    },
    {
      "displayName": "Unichem Pharmacy",
      "id": "unichempharmacy-8496bc",
      "locationSet": {"include": ["nz"]},
      "oldid": "amenity/pharmacy|Unichem Pharmacy",
      "tags": {
        "amenity": "pharmacy",
        "brand": "Unichem Pharmacy",
        "brand:wikidata": "Q62663379",
        "healthcare": "pharmacy",
        "name": "Unichem Pharmacy"
      }
    },
    {
      "displayName": "Uniprix",
      "id": "uniprix-b56451",
      "locationSet": {"include": ["ca"]},
      "oldid": "amenity/pharmacy|Uniprix",
      "tags": {
        "amenity": "pharmacy",
        "brand": "Uniprix",
        "brand:wikidata": "Q683265",
        "brand:wikipedia": "fr:Uniprix (pharmacies)",
        "healthcare": "pharmacy",
        "name": "Uniprix"
      }
    },
    {
      "displayName": "V・ドラッグ",
      "id": "vドラッグ-650eee",
      "locationSet": {"include": ["jp"]},
      "oldid": "amenity/pharmacy|V・ドラッグ",
      "tags": {
        "amenity": "pharmacy",
        "brand": "V・ドラッグ",
        "brand:en": "V・Drug",
        "brand:ja": "V・ドラッグ",
        "brand:wikidata": "Q11367334",
        "brand:wikipedia": "ja:中部薬品",
        "healthcare": "pharmacy",
        "name": "V・ドラッグ",
        "name:en": "V・Drug",
        "name:ja": "V・ドラッグ"
      }
    },
    {
      "displayName": "Vaše zdravlje",
      "id": "vasezdravlje-e8d74c",
      "locationSet": {"include": ["hr"]},
      "oldid": "amenity/pharmacy|Vaše zdravlje",
      "tags": {
        "amenity": "pharmacy",
        "brand": "Vaše zdravlje",
        "healthcare": "pharmacy",
        "name": "Vaše zdravlje"
      }
    },
    {
      "displayName": "Walgreens",
      "id": "walgreens-3ab288",
      "locationSet": {"include": ["us"]},
      "matchNames": ["walgreens pharmacy"],
      "nomatch": ["shop/chemist|Walgreens"],
      "oldid": "amenity/pharmacy|Walgreens",
      "tags": {
        "amenity": "pharmacy",
        "brand": "Walgreens",
        "brand:wikidata": "Q1591889",
        "brand:wikipedia": "en:Walgreens",
        "healthcare": "pharmacy",
        "name": "Walgreens"
      }
    },
    {
      "displayName": "Walmart Pharmacy",
      "id": "walmartpharmacy-5d3b40",
      "locationSet": {"include": ["ca", "us"]},
      "matchNames": ["walmart"],
      "nomatch": [
        "amenity/fuel|Walmart",
        "shop/department_store|Walmart",
        "shop/garden_centre|Walmart Garden Center",
        "shop/supermarket|Walmart Neighborhood Market",
        "shop/supermarket|Walmart Supercenter",
        "shop/supermarket|Walmart Supercentre"
      ],
      "oldid": "amenity/pharmacy|Walmart Pharmacy",
      "tags": {
        "amenity": "pharmacy",
        "brand": "Walmart",
        "brand:wikidata": "Q483551",
        "brand:wikipedia": "en:Walmart",
        "healthcare": "pharmacy",
        "name": "Walmart Pharmacy"
      }
    },
    {
      "displayName": "Watsons",
      "id": "watsons-f5140f",
      "locationSet": {"include": ["001"]},
      "nomatch": ["shop/chemist|Watsons"],
      "oldid": "amenity/pharmacy|Watsons",
      "tags": {
        "amenity": "pharmacy",
        "brand": "Watsons",
        "brand:wikidata": "Q7974785",
        "brand:wikipedia": "en:Watsons",
        "healthcare": "pharmacy",
        "name": "Watsons"
      }
    },
    {
      "displayName": "Well Pharmacy",
      "id": "wellpharmacy-b98d4f",
      "locationSet": {"include": ["gb"]},
      "matchNames": ["well"],
      "oldid": "amenity/pharmacy|Well Pharmacy",
      "tags": {
        "amenity": "pharmacy",
        "brand": "Well Pharmacy",
        "brand:wikidata": "Q7726524",
        "brand:wikipedia": "en:Well Pharmacy",
        "healthcare": "pharmacy",
        "name": "Well Pharmacy"
      }
    },
    {
      "displayName": "Ziko Apteka",
      "id": "zikoapteka-cf61fb",
      "locationSet": {"include": ["pl"]},
      "oldid": "amenity/pharmacy|Ziko Apteka",
      "tags": {
        "amenity": "pharmacy",
        "brand": "Ziko Apteka",
        "brand:wikidata": "Q63432892",
        "healthcare": "pharmacy",
        "name": "Ziko Apteka",
        "short_name": "Ziko"
      }
    },
    {
      "displayName": "А-мега",
      "id": "амега-f5140f",
      "locationSet": {"include": ["001"]},
      "oldid": "amenity/pharmacy|А-мега",
      "tags": {
        "amenity": "pharmacy",
        "brand": "А-мега",
        "healthcare": "pharmacy",
        "name": "А-мега"
      }
    },
    {
      "displayName": "А5",
      "id": "а5-288c27",
      "locationSet": {"include": ["ru"]},
      "oldid": "amenity/pharmacy|А5",
      "tags": {
        "amenity": "pharmacy",
        "brand": "А5",
        "brand:wikidata": "Q62663476",
        "healthcare": "pharmacy",
        "name": "А5"
      }
    },
    {
      "displayName": "Алоэ",
      "id": "аnоэ-f5140f",
      "locationSet": {"include": ["001"]},
      "oldid": "amenity/pharmacy|Алоэ",
      "tags": {
        "amenity": "pharmacy",
        "brand": "Алоэ",
        "healthcare": "pharmacy",
        "name": "Алоэ"
      }
    },
    {
      "displayName": "Апрель",
      "id": "апреnь-f5140f",
      "locationSet": {"include": ["001"]},
      "oldid": "amenity/pharmacy|Апрель",
      "tags": {
        "amenity": "pharmacy",
        "brand": "Апрель",
        "healthcare": "pharmacy",
        "name": "Апрель"
      }
    },
    {
      "displayName": "Бажаємо здоров'я",
      "id": "бажаємоздоровя-996e17",
      "locationSet": {"include": ["ua"]},
      "oldid": "amenity/pharmacy|Бажаємо здоров'я",
      "tags": {
        "amenity": "pharmacy",
        "brand": "Бажаємо здоров'я",
        "healthcare": "pharmacy",
        "name": "Бажаємо здоров'я"
      }
    },
    {
      "displayName": "Бережная аптека",
      "id": "бережнаяаптека-288c27",
      "locationSet": {"include": ["ru"]},
      "oldid": "amenity/pharmacy|Бережная аптека",
      "tags": {
        "amenity": "pharmacy",
        "brand": "Бережная аптека",
        "brand:wikidata": "Q62664194",
        "healthcare": "pharmacy",
        "name": "Бережная аптека"
      }
    },
    {
      "displayName": "Будь здоров",
      "id": "будьздоров-571ebe",
      "locationSet": {"include": ["ru", "ua"]},
      "oldid": "amenity/pharmacy|Будь здоров",
      "tags": {
        "amenity": "pharmacy",
        "brand": "Будь здоров",
        "healthcare": "pharmacy",
        "name": "Будь здоров"
      }
    },
    {
      "displayName": "Вита",
      "id": "вита-288c27",
      "locationSet": {"include": ["ru"]},
      "oldid": "amenity/pharmacy|Вита",
      "tags": {
        "amenity": "pharmacy",
        "brand": "Вита",
        "healthcare": "pharmacy",
        "name": "Вита"
      }
    },
    {
      "displayName": "Вита Экспресс",
      "id": "витаэкспресс-f5140f",
      "locationSet": {"include": ["001"]},
      "oldid": "amenity/pharmacy|Вита Экспресс",
      "tags": {
        "amenity": "pharmacy",
        "brand": "Вита Экспресс",
        "healthcare": "pharmacy",
        "name": "Вита Экспресс"
      }
    },
    {
      "displayName": "Горздрав",
      "id": "горздрав-288c27",
      "locationSet": {"include": ["ru"]},
      "oldid": "amenity/pharmacy|Горздрав",
      "tags": {
        "amenity": "pharmacy",
        "brand": "Горздрав",
        "healthcare": "pharmacy",
        "name": "Горздрав"
      }
    },
    {
      "displayName": "Добрая аптека",
      "id": "добраяаптека-288c27",
      "locationSet": {"include": ["ru"]},
      "oldid": "amenity/pharmacy|Добрая аптека",
      "tags": {
        "amenity": "pharmacy",
        "brand": "Добрая аптека",
        "healthcare": "pharmacy",
        "name": "Добрая аптека"
      }
    },
    {
      "displayName": "Добрыя леки",
      "id": "добрыяnеки-f5140f",
      "locationSet": {"include": ["001"]},
      "oldid": "amenity/pharmacy|Добрыя леки",
      "tags": {
        "amenity": "pharmacy",
        "brand": "Добрыя леки",
        "healthcare": "pharmacy",
        "name": "Добрыя леки"
      }
    },
    {
      "displayName": "Доктор Столетов",
      "id": "докторстоnетов-288c27",
      "locationSet": {"include": ["ru"]},
      "oldid": "amenity/pharmacy|Доктор Столетов",
      "tags": {
        "amenity": "pharmacy",
        "brand": "Доктор Столетов",
        "healthcare": "pharmacy",
        "name": "Доктор Столетов"
      }
    },
    {
      "displayName": "Живика",
      "id": "живика-288c27",
      "locationSet": {"include": ["ru"]},
      "oldid": "amenity/pharmacy|Живика",
      "tags": {
        "amenity": "pharmacy",
        "brand": "Живика",
        "healthcare": "pharmacy",
        "name": "Живика"
      }
    },
    {
      "displayName": "Здоровье",
      "id": "здоровье-494ab4",
      "locationSet": {
        "include": ["kz", "ru", "ua"]
      },
      "oldid": "amenity/pharmacy|Здоровье",
      "tags": {
        "amenity": "pharmacy",
        "brand": "Здоровье",
        "healthcare": "pharmacy",
        "name": "Здоровье"
      }
    },
    {
      "displayName": "Зеленая аптека",
      "id": "зеnенаяаптека-c16414",
      "locationSet": {"include": ["by"]},
      "matchTags": ["shop/health_food"],
      "oldid": "amenity/pharmacy|Зеленая аптека",
      "tags": {
        "amenity": "pharmacy",
        "brand": "Зеленая аптека",
        "healthcare": "pharmacy",
        "name": "Зеленая аптека"
      }
    },
    {
      "displayName": "Имплозия",
      "id": "импnозия-288c27",
      "locationSet": {"include": ["ru"]},
      "oldid": "amenity/pharmacy|Имплозия",
      "tags": {
        "amenity": "pharmacy",
        "brand": "Имплозия",
        "healthcare": "pharmacy",
        "name": "Имплозия"
      }
    },
    {
      "displayName": "Классика",
      "id": "кnассика-288c27",
      "locationSet": {"include": ["ru"]},
      "oldid": "amenity/pharmacy|Классика",
      "tags": {
        "amenity": "pharmacy",
        "brand": "Классика",
        "healthcare": "pharmacy",
        "name": "Классика"
      }
    },
    {
      "displayName": "Ладушка",
      "id": "nадушка-288c27",
      "locationSet": {"include": ["ru"]},
      "oldid": "amenity/pharmacy|Ладушка",
      "tags": {
        "amenity": "pharmacy",
        "brand": "Ладушка",
        "healthcare": "pharmacy",
        "name": "Ладушка"
      }
    },
    {
      "displayName": "Максавит",
      "id": "максавит-288c27",
      "locationSet": {"include": ["ru"]},
      "oldid": "amenity/pharmacy|Максавит",
      "tags": {
        "amenity": "pharmacy",
        "brand": "Максавит",
        "healthcare": "pharmacy",
        "name": "Максавит"
      }
    },
    {
      "displayName": "Марешки",
      "id": "марешки-768624",
      "locationSet": {"include": ["bg"]},
      "oldid": "amenity/pharmacy|Марешки",
      "tags": {
        "amenity": "pharmacy",
        "brand": "Марешки",
        "healthcare": "pharmacy",
        "name": "Марешки"
      }
    },
    {
      "displayName": "Мед-сервіс",
      "id": "медсервіс-996e17",
      "locationSet": {"include": ["ua"]},
      "oldid": "amenity/pharmacy|Мед-сервіс",
      "tags": {
        "amenity": "pharmacy",
        "brand": "Мед-сервіс",
        "healthcare": "pharmacy",
        "name": "Мед-сервіс"
      }
    },
    {
      "displayName": "Медея",
      "id": "медея-f5140f",
      "locationSet": {"include": ["001"]},
      "oldid": "amenity/pharmacy|Медея",
      "tags": {
        "amenity": "pharmacy",
        "brand": "Медея",
        "healthcare": "pharmacy",
        "name": "Медея"
      }
    },
    {
      "displayName": "Мелодия здоровья",
      "id": "меnодияздоровья-288c27",
      "locationSet": {"include": ["ru"]},
      "oldid": "amenity/pharmacy|Мелодия здоровья",
      "tags": {
        "amenity": "pharmacy",
        "brand": "Мелодия здоровья",
        "healthcare": "pharmacy",
        "name": "Мелодия здоровья"
      }
    },
    {
      "displayName": "Невис",
      "id": "невис-288c27",
      "locationSet": {"include": ["ru"]},
      "oldid": "amenity/pharmacy|Невис",
      "tags": {
        "amenity": "pharmacy",
        "brand": "Невис",
        "healthcare": "pharmacy",
        "name": "Невис"
      }
    },
    {
      "displayName": "Неофарм",
      "id": "неофарм-f5140f",
      "locationSet": {"include": ["001"]},
      "oldid": "amenity/pharmacy|Неофарм",
      "tags": {
        "amenity": "pharmacy",
        "brand": "Неофарм",
        "healthcare": "pharmacy",
        "name": "Неофарм"
      }
    },
    {
      "displayName": "Норма",
      "id": "норма-288c27",
      "locationSet": {"include": ["ru"]},
      "oldid": "amenity/pharmacy|Норма",
      "tags": {
        "amenity": "pharmacy",
        "brand": "Норма",
        "healthcare": "pharmacy",
        "name": "Норма"
      }
    },
    {
      "displayName": "Озерки",
      "id": "озерки-288c27",
      "locationSet": {"include": ["ru"]},
      "oldid": "amenity/pharmacy|Озерки",
      "tags": {
        "amenity": "pharmacy",
        "brand": "Озерки",
        "healthcare": "pharmacy",
        "name": "Озерки"
      }
    },
    {
      "displayName": "Панацея",
      "id": "панацея-494ab4",
      "locationSet": {
        "include": ["kz", "ru", "ua"]
      },
      "oldid": "amenity/pharmacy|Панацея",
      "tags": {
        "amenity": "pharmacy",
        "brand": "Панацея",
        "healthcare": "pharmacy",
        "name": "Панацея"
      }
    },
    {
      "displayName": "Первая помощь",
      "id": "перваяпомощь-288c27",
      "locationSet": {"include": ["ru"]},
      "oldid": "amenity/pharmacy|Первая помощь",
      "tags": {
        "amenity": "pharmacy",
        "brand": "Первая помощь",
        "healthcare": "pharmacy",
        "name": "Первая помощь"
      }
    },
    {
      "displayName": "Планета здоровья",
      "id": "пnанетаздоровья-74ea97",
      "locationSet": {"include": ["by", "ru"]},
      "oldid": "amenity/pharmacy|Планета здоровья",
      "tags": {
        "amenity": "pharmacy",
        "brand": "Планета здоровья",
        "healthcare": "pharmacy",
        "name": "Планета здоровья"
      }
    },
    {
      "displayName": "Подорожник",
      "id": "подорожник-996e17",
      "locationSet": {"include": ["ua"]},
      "oldid": "amenity/pharmacy|Подорожник",
      "tags": {
        "amenity": "pharmacy",
        "brand": "Подорожник",
        "healthcare": "pharmacy",
        "name": "Подорожник"
      }
    },
    {
      "displayName": "Пульс",
      "id": "пуnьс-f5140f",
      "locationSet": {"include": ["001"]},
      "oldid": "amenity/pharmacy|Пульс",
      "tags": {
        "amenity": "pharmacy",
        "brand": "Пульс",
        "healthcare": "pharmacy",
        "name": "Пульс"
      }
    },
    {
      "displayName": "Радуга",
      "id": "радуга-f5140f",
      "locationSet": {"include": ["001"]},
      "oldid": "amenity/pharmacy|Радуга",
      "tags": {
        "amenity": "pharmacy",
        "brand": "Радуга",
        "healthcare": "pharmacy",
        "name": "Радуга"
      }
    },
    {
      "displayName": "Ригла",
      "id": "ригnа-288c27",
      "locationSet": {"include": ["ru"]},
      "oldid": "amenity/pharmacy|Ригла",
      "tags": {
        "amenity": "pharmacy",
        "brand": "Ригла",
        "brand:wikidata": "Q4394431",
        "brand:wikipedia": "ru:Ригла",
        "healthcare": "pharmacy",
        "name": "Ригла"
      }
    },
    {
      "displayName": "Семейная",
      "id": "семейная-8786f0",
      "locationSet": {"include": ["kz", "ru"]},
      "oldid": "amenity/pharmacy|Семейная",
      "tags": {
        "amenity": "pharmacy",
        "brand": "Семейная",
        "healthcare": "pharmacy",
        "name": "Семейная"
      }
    },
    {
      "displayName": "Семейная аптека",
      "id": "семейнаяаптека-571ebe",
      "locationSet": {"include": ["ru", "ua"]},
      "oldid": "amenity/pharmacy|Семейная аптека",
      "tags": {
        "amenity": "pharmacy",
        "brand": "Семейная аптека",
        "healthcare": "pharmacy",
        "name": "Семейная аптека"
      }
    },
    {
      "displayName": "Социальная аптека",
      "id": "социаnьнаяаптека-571ebe",
      "locationSet": {"include": ["ru", "ua"]},
      "oldid": "amenity/pharmacy|Социальная аптека",
      "tags": {
        "amenity": "pharmacy",
        "brand": "Социальная аптека",
        "healthcare": "pharmacy",
        "name": "Социальная аптека"
      }
    },
    {
      "displayName": "Столички",
      "id": "стоnички-288c27",
      "locationSet": {"include": ["ru"]},
      "oldid": "amenity/pharmacy|Столички",
      "tags": {
        "amenity": "pharmacy",
        "brand": "Столички",
        "healthcare": "pharmacy",
        "name": "Столички"
      }
    },
    {
      "displayName": "Фармакопейка",
      "id": "фармакопейка-288c27",
      "locationSet": {"include": ["ru"]},
      "oldid": "amenity/pharmacy|Фармакопейка",
      "tags": {
        "amenity": "pharmacy",
        "brand": "Фармакопейка",
        "healthcare": "pharmacy",
        "name": "Фармакопейка"
      }
    },
    {
      "displayName": "Фармакор",
      "id": "фармакор-288c27",
      "locationSet": {"include": ["ru"]},
      "oldid": "amenity/pharmacy|Фармакор",
      "tags": {
        "amenity": "pharmacy",
        "brand": "Фармакор",
        "healthcare": "pharmacy",
        "name": "Фармакор"
      }
    },
    {
      "displayName": "Фармленд",
      "id": "фармnенд-288c27",
      "locationSet": {"include": ["ru"]},
      "oldid": "amenity/pharmacy|Фармленд",
      "tags": {
        "amenity": "pharmacy",
        "brand": "Фармленд",
        "healthcare": "pharmacy",
        "name": "Фармленд"
      }
    },
    {
      "displayName": "Центральная аптека",
      "id": "центраnьнаяаптека-4b9132",
      "locationSet": {
        "include": ["by", "kz", "ru", "uz"]
      },
      "oldid": "amenity/pharmacy|Центральная аптека",
      "tags": {
        "amenity": "pharmacy",
        "brand": "Центральная аптека",
        "healthcare": "pharmacy",
        "name": "Центральная аптека"
      }
    },
    {
      "displayName": "Экона",
      "id": "экона-f5140f",
      "locationSet": {"include": ["001"]},
      "oldid": "amenity/pharmacy|Экона",
      "tags": {
        "amenity": "pharmacy",
        "brand": "Экона",
        "healthcare": "pharmacy",
        "name": "Экона"
      }
    },
    {
      "displayName": "סופר-פארם",
      "id": "סופרפארם-b1ecfe",
      "locationSet": {"include": ["il"]},
      "oldid": "amenity/pharmacy|סופר-פארם",
      "tags": {
        "amenity": "pharmacy",
        "brand": "סופר-פארם",
        "brand:he": "סופר-פארם",
        "brand:wikidata": "Q13220217",
        "brand:wikipedia": "en:Super-Pharm",
        "healthcare": "pharmacy",
        "name": "סופר-פארם",
        "name:he": "סופר-פארם"
      }
    },
    {
      "displayName": "アイン薬局",
      "id": "アイン薬局-650eee",
      "locationSet": {"include": ["jp"]},
      "oldid": "amenity/pharmacy|アイン薬局",
      "tags": {
        "amenity": "pharmacy",
        "brand": "アイン薬局",
        "brand:ja": "アイン薬局",
        "brand:wikidata": "Q11282518",
        "brand:wikipedia": "ja:アインファーマシーズ",
        "healthcare": "pharmacy",
        "name": "アイン薬局",
        "name:en": "Ain Pharmaciez",
        "name:ja": "アイン薬局"
      }
    },
    {
      "displayName": "ウエルシア",
      "id": "ウエルシア-650eee",
      "locationSet": {"include": ["jp"]},
      "oldid": "amenity/pharmacy|ウエルシア",
      "tags": {
        "amenity": "pharmacy",
        "brand": "ウエルシア",
        "brand:en": "Welcia",
        "brand:ja": "ウエルシア",
        "brand:wikidata": "Q11288684",
        "brand:wikipedia": "ja:ウエルシアホールディングス",
        "healthcare": "pharmacy",
        "name": "ウエルシア",
        "name:en": "Welcia",
        "name:ja": "ウエルシア"
      }
    },
    {
      "displayName": "ウエルシア薬局",
      "id": "ウエルシア薬局-650eee",
      "locationSet": {"include": ["jp"]},
      "oldid": "amenity/pharmacy|ウエルシア薬局",
      "tags": {
        "amenity": "pharmacy",
        "brand": "ウエルシア薬局",
        "brand:en": "Welcia Yakkyoku",
        "brand:ja": "ウエルシア薬局",
        "brand:wikidata": "Q11288687",
        "brand:wikipedia": "ja:ウエルシア薬局",
        "healthcare": "pharmacy",
        "name": "ウエルシア薬局",
        "name:en": "Welcia Yakkyoku",
        "name:ja": "ウエルシア薬局"
      }
    },
    {
      "displayName": "ウェルパーク",
      "id": "ウェルパーク-650eee",
      "locationSet": {"include": ["jp"]},
      "oldid": "amenity/pharmacy|ウェルパーク",
      "tags": {
        "amenity": "pharmacy",
        "brand": "ウェルパーク",
        "brand:ja": "ウェルパーク",
        "brand:wikidata": "Q11288610",
        "brand:wikipedia": "ja:ウェルパーク",
        "healthcare": "pharmacy",
        "name": "ウェルパーク",
        "name:en": "Welpark",
        "name:ja": "ウェルパーク"
      }
    },
    {
      "displayName": "オーエスドラッグ",
      "id": "オーエスドラッグ-650eee",
      "locationSet": {"include": ["jp"]},
      "matchNames": ["osドラッグ"],
      "oldid": "amenity/pharmacy|オーエスドラッグ",
      "tags": {
        "alt_name": "OSドラッグ",
        "amenity": "pharmacy",
        "brand": "オーエスドラッグ",
        "brand:en": "OS Drug",
        "brand:ja": "オーエスドラッグ",
        "brand:wikidata": "Q11407223",
        "brand:wikipedia": "ja:協和商事",
        "healthcare": "pharmacy",
        "name": "オーエスドラッグ",
        "name:en": "OS Drug",
        "name:ja": "オーエスドラッグ"
      }
    },
    {
      "displayName": "カワチ薬品",
      "id": "カワチ薬品-650eee",
      "locationSet": {"include": ["jp"]},
      "oldid": "amenity/pharmacy|カワチ薬品",
      "tags": {
        "amenity": "pharmacy",
        "brand": "カワチ薬品",
        "brand:en": "Cawachi",
        "brand:ja": "カワチ薬品",
        "brand:wikidata": "Q11295397",
        "brand:wikipedia": "ja:カワチ薬品",
        "healthcare": "pharmacy",
        "name": "カワチ薬品",
        "name:en": "Cawachi",
        "name:ja": "カワチ薬品"
      }
    },
    {
      "displayName": "キリン堂",
      "id": "キリン堂-650eee",
      "locationSet": {"include": ["jp"]},
      "oldid": "amenity/pharmacy|キリン堂",
      "tags": {
        "amenity": "pharmacy",
        "brand": "キリン堂",
        "brand:en": "Kirindo",
        "brand:ja": "キリン堂",
        "brand:wikidata": "Q11297751",
        "brand:wikipedia": "ja:キリン堂",
        "healthcare": "pharmacy",
        "name": "キリン堂",
        "name:en": "Kirindo",
        "name:ja": "キリン堂"
      }
    },
    {
      "displayName": "クオール",
      "id": "クオール-650eee",
      "locationSet": {"include": ["jp"]},
      "oldid": "amenity/pharmacy|クオール",
      "tags": {
        "amenity": "pharmacy",
        "brand": "クオール",
        "brand:en": "Qol",
        "brand:ja": "クオール",
        "brand:wikidata": "Q88383318",
        "healthcare": "pharmacy",
        "name": "クオール",
        "name:en": "Qol",
        "name:ja": "クオール"
      }
    },
    {
      "displayName": "クスリのアオキ",
      "id": "クスリのアオキ-650eee",
      "locationSet": {"include": ["jp"]},
      "oldid": "amenity/pharmacy|クスリのアオキ",
      "tags": {
        "amenity": "pharmacy",
        "brand": "クスリのアオキ",
        "brand:en": "Kusuri no Aoki",
        "brand:ja": "クスリのアオキ",
        "brand:wikidata": "Q11298661",
        "brand:wikipedia": "ja:クスリのアオキ",
        "healthcare": "pharmacy",
        "name": "クスリのアオキ",
        "name:en": "Kusuri no Aoki",
        "name:ja": "クスリのアオキ"
      }
    },
    {
      "displayName": "くすりの福太郎",
      "id": "くすりの福太郎-650eee",
      "locationSet": {"include": ["jp"]},
      "oldid": "amenity/pharmacy|くすりの福太郎",
      "tags": {
        "amenity": "pharmacy",
        "brand": "くすりの福太郎",
        "brand:en": "Kusurino FUKUTARO",
        "brand:ja": "くすりの福太郎",
        "brand:wikidata": "Q17214460",
        "brand:wikipedia": "ja:くすりの福太郎",
        "healthcare": "pharmacy",
        "name": "くすりの福太郎",
        "name:en": "Kusurino Fukutaro",
        "name:ja": "くすりの福太郎"
      }
    },
    {
      "displayName": "クリエイト",
      "id": "クリエイト-650eee",
      "locationSet": {"include": ["jp"]},
      "oldid": "amenity/pharmacy|クリエイト",
      "tags": {
        "amenity": "pharmacy",
        "brand": "クリエイト",
        "brand:en": "Create",
        "brand:ja": "クリエイト",
        "brand:wikidata": "Q17215731",
        "brand:wikipedia": "ja:クリエイト",
        "healthcare": "pharmacy",
        "name": "クリエイト",
        "name:en": "Create",
        "name:ja": "クリエイト"
      }
    },
    {
      "displayName": "クリエイトSD",
      "id": "クリエイトsd-650eee",
      "locationSet": {"include": ["jp"]},
      "oldid": "amenity/pharmacy|クリエイトSD",
      "tags": {
        "amenity": "pharmacy",
        "brand": "クリエイトSD",
        "brand:en": "CreateSD",
        "brand:ja": "クリエイトSD",
        "brand:wikidata": "Q11299163",
        "brand:wikipedia": "ja:クリエイトSDホールディングス",
        "healthcare": "pharmacy",
        "name": "クリエイトSD",
        "name:en": "CreateSD",
        "name:ja": "クリエイトSD"
      }
    },
    {
      "displayName": "コクミン",
      "id": "コクミン-650eee",
      "locationSet": {"include": ["jp"]},
      "oldid": "amenity/pharmacy|コクミン",
      "tags": {
        "amenity": "pharmacy",
        "brand": "コクミン",
        "brand:en": "Kokumin",
        "brand:ja": "コクミン",
        "brand:wikidata": "Q11301923",
        "brand:wikipedia": "ja:コクミン",
        "healthcare": "pharmacy",
        "name": "コクミン",
        "name:en": "Kokumin",
        "name:ja": "コクミン",
        "official_name": "コクミンドラッグ",
        "official_name:en": "Kokumin Drug",
        "official_name:ja": "コクミンドラッグ"
      }
    },
    {
      "displayName": "ココカラファイン",
      "id": "ココカラファイン-650eee",
      "locationSet": {"include": ["jp"]},
      "oldid": "amenity/pharmacy|ココカラファイン",
      "tags": {
        "amenity": "pharmacy",
        "brand": "ココカラファイン",
        "brand:en": "Cocokara Fine",
        "brand:ja": "ココカラファイン",
        "brand:wikidata": "Q11301948",
        "brand:wikipedia": "ja:ココカラファイン",
        "healthcare": "pharmacy",
        "name": "ココカラファイン",
        "name:en": "Cocokara Fine",
        "name:ja": "ココカラファイン"
      }
    },
    {
      "displayName": "さくら薬局",
      "id": "さくら薬局-650eee",
      "locationSet": {"include": ["jp"]},
      "oldid": "amenity/pharmacy|さくら薬局",
      "tags": {
        "amenity": "pharmacy",
        "brand": "さくら薬局",
        "brand:ja": "さくら薬局",
        "brand:wikidata": "Q11299021",
        "brand:wikipedia": "ja:クラフト (ドラッグストア)",
        "healthcare": "pharmacy",
        "name": "さくら薬局",
        "name:en": "Sakura Pharmacy",
        "name:ja": "さくら薬局"
      }
    },
    {
      "displayName": "サツドラ",
      "id": "サツドラ-650eee",
      "locationSet": {"include": ["jp"]},
      "matchNames": ["サッポロドラッグストアー"],
      "oldid": "amenity/pharmacy|サツドラ",
      "tags": {
        "alt_name:en": "Satsudora",
        "amenity": "pharmacy",
        "brand": "サツドラ",
        "brand:en": "Sapporo Drug Store",
        "brand:ja": "サツドラ",
        "brand:wikidata": "Q11304804",
        "healthcare": "pharmacy",
        "name": "サツドラ",
        "name:en": "Sapporo Drug Store",
        "name:ja": "サツドラ"
      }
    },
    {
      "displayName": "サンドラッグ",
      "id": "サンドラッグ-650eee",
      "locationSet": {"include": ["jp"]},
      "oldid": "amenity/pharmacy|サンドラッグ",
      "tags": {
        "amenity": "pharmacy",
        "brand": "サンドラッグ",
        "brand:en": "Sundrug",
        "brand:ja": "サンドラッグ",
        "brand:wikidata": "Q11305867",
        "brand:wikipedia": "ja:サンドラッグ",
        "healthcare": "pharmacy",
        "name": "サンドラッグ",
        "name:en": "Sundrug",
        "name:ja": "サンドラッグ"
      }
    },
    {
      "displayName": "スギ薬局",
      "id": "スギ薬局-650eee",
      "locationSet": {"include": ["jp"]},
      "nomatch": ["shop/chemist|スギ薬局"],
      "oldid": "amenity/pharmacy|スギ薬局",
      "tags": {
        "amenity": "pharmacy",
        "brand": "スギ薬局",
        "brand:en": "Sugi Pharmacy",
        "brand:ja": "スギ薬局",
        "brand:wikidata": "Q11311460",
        "brand:wikipedia": "ja:スギ薬局",
        "healthcare": "pharmacy",
        "name": "スギ薬局",
        "name:en": "Sugi Pharmacy",
        "name:ja": "スギ薬局"
      }
    },
    {
      "displayName": "セイジョー",
      "id": "セイジョー-650eee",
      "locationSet": {"include": ["jp"]},
      "oldid": "amenity/pharmacy|セイジョー",
      "tags": {
        "amenity": "pharmacy",
        "brand": "セイジョー",
        "brand:en": "Seijo",
        "brand:ja": "セイジョー",
        "brand:wikidata": "Q11314133",
        "brand:wikipedia": "ja:セイジョー",
        "healthcare": "pharmacy",
        "name": "セイジョー",
        "name:en": "Seijo",
        "name:ja": "セイジョー"
      }
    },
    {
      "displayName": "ダイコクドラッグ",
      "id": "ダイコクドラッグ-650eee",
      "locationSet": {"include": ["jp"]},
      "oldid": "amenity/pharmacy|ダイコクドラッグ",
      "tags": {
        "amenity": "pharmacy",
        "brand": "ダイコクドラッグ",
        "brand:en": "Daikoku Drug",
        "brand:ja": "ダイコクドラッグ",
        "brand:wikidata": "Q11316754",
        "brand:wikipedia": "ja:ダイコク",
        "healthcare": "pharmacy",
        "name": "ダイコクドラッグ",
        "name:en": "Daikoku Drug",
        "name:ja": "ダイコクドラッグ"
      }
    },
    {
      "displayName": "ツルハドラッグ",
      "id": "ツルハドラッグ-650eee",
      "locationSet": {"include": ["jp"]},
      "oldid": "amenity/pharmacy|ツルハドラッグ",
      "tags": {
        "amenity": "pharmacy",
        "brand": "ツルハドラッグ",
        "brand:en": "Tsuruha",
        "brand:ja": "ツルハドラッグ",
        "brand:wikidata": "Q11318826",
        "brand:wikipedia": "ja:ツルハ",
        "healthcare": "pharmacy",
        "name": "ツルハドラッグ",
        "name:en": "Tsuruha",
        "name:ja": "ツルハドラッグ"
      }
    },
    {
      "displayName": "トモズ",
      "id": "トモズ-650eee",
      "locationSet": {"include": ["jp"]},
      "matchNames": ["トモズエキスプレス"],
      "oldid": "amenity/pharmacy|トモズ",
      "tags": {
        "amenity": "pharmacy",
        "brand": "トモズ",
        "brand:en": "Tomod's",
        "brand:ja": "トモズ",
        "brand:wikidata": "Q7820097",
        "brand:wikipedia": "ja:トモズ",
        "healthcare": "pharmacy",
        "name": "トモズ",
        "name:en": "Tomod's",
        "name:ja": "トモズ"
      }
    },
    {
      "displayName": "ドラッグイレブン",
      "id": "ドラッグイレブン-650eee",
      "locationSet": {"include": ["jp"]},
      "oldid": "amenity/pharmacy|ドラッグイレブン",
      "tags": {
        "amenity": "pharmacy",
        "brand": "ドラッグイレブン",
        "brand:en": "Drug Eleven",
        "brand:ja": "ドラッグイレブン",
        "brand:wikidata": "Q11323075",
        "brand:wikipedia": "ja:ドラッグイレブン",
        "healthcare": "pharmacy",
        "name": "ドラッグイレブン",
        "name:en": "Drug Eleven",
        "name:ja": "ドラッグイレブン"
      }
    },
    {
      "displayName": "ドラッグセイムス",
      "id": "ドラッグセイムス-650eee",
      "locationSet": {"include": ["jp"]},
      "oldid": "amenity/pharmacy|ドラッグセイムス",
      "tags": {
        "amenity": "pharmacy",
        "brand": "ドラッグセイムス",
        "brand:en": "Seims",
        "brand:ja": "ドラッグセイムス",
        "brand:wikidata": "Q11456137",
        "brand:wikipedia": "ja:富士薬品",
        "healthcare": "pharmacy",
        "name": "ドラッグセイムス",
        "name:en": "Drug Seims",
        "name:ja": "ドラッグセイムス"
      }
    },
    {
      "displayName": "ハックドラッグ",
      "id": "ハックドラッグ-650eee",
      "locationSet": {"include": ["jp"]},
      "oldid": "amenity/pharmacy|ハックドラッグ",
      "tags": {
        "amenity": "pharmacy",
        "brand": "ウエルシア",
        "brand:en": "Welcia",
        "brand:ja": "ウエルシア",
        "brand:wikidata": "Q11288684",
        "brand:wikipedia": "ja:ウエルシアホールディングス",
        "healthcare": "pharmacy",
        "name": "ハックドラッグ",
        "name:en": "Hack Drug",
        "name:ja": "ハックドラッグ"
      }
    },
    {
      "displayName": "ぱぱす",
      "id": "ぱぱす-650eee",
      "locationSet": {"include": ["jp"]},
      "oldid": "amenity/pharmacy|ぱぱす",
      "tags": {
        "amenity": "pharmacy",
        "brand": "ぱぱす",
        "brand:en": "Papasu",
        "brand:ja": "ぱぱす",
        "brand:wikidata": "Q11276061",
        "brand:wikipedia": "ja:ぱぱす",
        "healthcare": "pharmacy",
        "name": "ぱぱす",
        "name:en": "Papasu",
        "name:ja": "ぱぱす"
      }
    },
    {
      "displayName": "マツモトキヨシ",
      "id": "マツモトキヨシ-650eee",
      "locationSet": {"include": ["jp"]},
      "oldid": "amenity/pharmacy|マツモトキヨシ",
      "tags": {
        "amenity": "pharmacy",
        "brand": "マツモトキヨシ",
        "brand:en": "Matsukiyo",
        "brand:ja": "マツモトキヨシ",
        "brand:wikidata": "Q8014776",
        "brand:wikipedia": "ja:マツモトキヨシ",
        "healthcare": "pharmacy",
        "name": "マツモトキヨシ",
        "name:en": "Matsukiyo",
        "name:ja": "マツモトキヨシ"
      }
    },
    {
      "displayName": "丁丁藥局",
      "id": "丁丁藥局-f5140f",
      "locationSet": {"include": ["001"]},
      "nomatch": ["shop/chemist|丁丁藥局"],
      "oldid": "amenity/pharmacy|丁丁藥局",
      "tags": {
        "amenity": "pharmacy",
        "brand": "丁丁藥局",
        "healthcare": "pharmacy",
        "name": "丁丁藥局"
      }
    },
    {
      "displayName": "同仁堂",
      "id": "同仁堂-f38123",
      "locationSet": {"include": ["cn"]},
      "oldid": "amenity/pharmacy|同仁堂",
      "tags": {
        "amenity": "pharmacy",
        "brand": "同仁堂",
        "brand:wikidata": "Q842099",
        "brand:wikipedia": "en:Tong Ren Tang",
        "healthcare": "pharmacy",
        "name": "同仁堂"
      }
    },
    {
      "displayName": "屈臣氏",
      "id": "屈臣氏-f5140f",
      "locationSet": {"include": ["001"]},
      "nomatch": ["shop/chemist|屈臣氏"],
      "oldid": "amenity/pharmacy|屈臣氏",
      "tags": {
        "amenity": "pharmacy",
        "brand": "屈臣氏",
        "healthcare": "pharmacy",
        "name": "屈臣氏"
      }
    },
    {
      "displayName": "杏林堂",
      "id": "杏林堂-650eee",
      "locationSet": {"include": ["jp"]},
      "oldid": "amenity/pharmacy|杏林堂",
      "tags": {
        "amenity": "pharmacy",
        "brand": "杏林堂",
        "brand:en": "Kyorindo",
        "brand:ja": "杏林堂",
        "brand:wikidata": "Q11522605",
        "brand:wikipedia": "ja:杏林堂",
        "healthcare": "pharmacy",
        "name": "杏林堂",
        "name:en": "Kyorindo",
        "name:ja": "杏林堂"
      }
    }
  ]
}