{
  "amenity/post_box|Buzón de Correos": {
    "count": 581,
    "tags": {
      "amenity": "post_box",
      "brand": "Buzón de Correos",
      "name": "Buzón de Correos"
    }
  },
  "amenity/post_box|Deutsche Post": {
    "count": 180,
    "countryCodes": ["de"],
    "logos": {
      "wikidata": "https://commons.wikimedia.org/w/index.php?title=Special%3ARedirect%2Ffile%2FLogo%20Deutsche%20Post%20DHL.svg&width=100"
    },
    "match": [
      "amenity/post_box|Deutsche Post AG"
    ],
    "nomatch": [
      "amenity/post_office|Deutsche Post"
    ],
    "tags": {
      "amenity": "post_box",
      "brand": "Deutsche Post",
      "brand:wikidata": "Q157645",
      "brand:wikipedia": "en:Deutsche Post",
      "name": "Deutsche Post"
    }
  },
  "amenity/post_box|USPS": {
    "count": 158,
    "logos": {
      "facebook": "https://graph.facebook.com/USPS/picture?type=square",
      "twitter": "https://pbs.twimg.com/profile_images/864100712883597313/a1fN6W7g_bigger.jpg"
    },
    "nomatch": ["amenity/post_office|USPS"],
    "tags": {
      "amenity": "post_box",
      "brand": "USPS",
      "brand:wikidata": "Q668687",
      "brand:wikipedia": "en:United States Postal Service",
      "name": "USPS",
      "operator": "USPS"
    }
  },
  "amenity/post_box|差出箱13号": {
    "count": 52,
    "tags": {
      "amenity": "post_box",
      "brand": "差出箱13号",
      "name": "差出箱13号"
    }
  },
  "amenity/post_box|郵便ポスト": {
    "count": 99,
    "countryCodes": ["jp"],
    "tags": {
      "amenity": "post_box",
      "brand": "郵便ポスト",
      "brand:ja": "郵便ポスト",
      "name": "郵便ポスト",
      "name:ja": "郵便ポスト"
    }
  }
}