{
  "amenity/pub|Ezītis miglā": {
    "countryCodes": ["lv"],
    "tags": {
      "amenity": "pub",
      "brand": "Ezītis miglā",
      "name": "Ezītis miglā"
    }
  },
  "amenity/pub|Walkabout": {
    "countryCodes": ["gb"],
    "tags": {
      "amenity": "pub",
      "brand": "Walkabout",
      "brand:wikidata": "Q7962149",
      "brand:wikipedia": "en:Walkabout (pub chain)",
      "name": "Walkabout"
    }
  },
  "amenity/pub|白木屋": {
    "countryCodes": ["jp"],
    "tags": {
      "amenity": "pub",
      "brand": "白木屋",
      "brand:en": "Shirokiya",
      "brand:ja": "白木屋",
      "name": "白木屋",
      "name:en": "Shirokiya",
      "name:ja": "白木屋",
      "wikidata": "Q489746",
      "wikipedia": "白木屋 (居酒屋)"
    }
  },
  "amenity/pub|魚民": {
    "countryCodes": ["jp"],
    "tags": {
      "amenity": "pub",
      "brand": "魚民",
      "brand:en": "Uotami",
      "brand:ja": "魚民",
      "name": "魚民",
      "name:en": "Uotami",
      "name:ja": "魚民",
      "wikidata": "Q11673981"
    }
  }
}