{
  "amenity": {
    "restaurant": [
      {
        "displayName": "100 Montaditos",
        "id": "100montaditos-e23310",
        "locationSet": {
          "include": ["es", "it", "pt"]
        },
        "oldid": "amenity/restaurant|100 Montaditos",
        "tags": {
          "amenity": "restaurant",
          "brand": "100 Montaditos",
          "brand:wikidata": "Q8355805",
          "brand:wikipedia": "en:Cervecería 100 Montaditos",
          "cuisine": "sandwich",
          "name": "100 Montaditos"
        }
      },
      {
        "displayName": "3 Brewers (On)",
        "id": "3brewers-2631d7",
        "locationSet": {"include": ["ca"]},
        "oldid": "amenity/restaurant|3 Brewers~(On)",
        "tags": {
          "amenity": "restaurant",
          "brand": "3 Brasseurs",
          "brand:wikidata": "Q3230326",
          "brand:wikipedia": "fr:Les 3 Brasseurs",
          "cuisine": "burger;pizza;seafood",
          "name": "3 Brewers",
          "name:fr": "3 Brasseurs",
          "official_name": "Les 3 Brasseurs"
        }
      },
      {
        "displayName": "ASK Italian",
        "id": "askitalian-25081b",
        "locationSet": {"include": ["gb"]},
        "oldid": "amenity/restaurant|ASK Italian",
        "tags": {
          "amenity": "restaurant",
          "brand": "ASK Italian",
          "brand:wikidata": "Q4807056",
          "brand:wikipedia": "en:ASK Italian",
          "cuisine": "italian",
          "name": "ASK Italian"
        }
      },
      {
        "displayName": "Amici's East Coast Pizzeria",
        "id": "amici-ecc135",
        "locationSet": {"include": ["us"]},
        "oldid": "amenity/restaurant|Amici's East Coast Pizzeria",
        "tags": {
          "amenity": "restaurant",
          "brand": "Amici",
          "brand:wikidata": "Q66133409",
          "cuisine": "pizza",
          "name": "Amici"
        }
      },
      {
        "displayName": "Applebee's",
        "id": "applebees-df02ff",
        "locationSet": {"include": ["001"]},
        "matchNames": [
          "applebees bar and grill",
          "applebees grill and bar",
          "applebees neighborhood bar and grill"
        ],
        "oldid": "amenity/restaurant|Applebee's",
        "tags": {
          "amenity": "restaurant",
          "brand": "Applebee's Neighborhood Grill & Bar",
          "brand:wikidata": "Q621532",
          "brand:wikipedia": "en:Applebee's",
          "cuisine": "american",
          "name": "Applebee's",
          "official_name": "Applebee's Neighborhood Grill & Bar"
        }
      },
      {
        "displayName": "Arooga's",
        "id": "aroogas-ecc135",
        "locationSet": {"include": ["us"]},
        "oldid": "amenity/restaurant|Arooga's",
        "tags": {
          "amenity": "restaurant",
          "brand": "Arooga's",
          "brand:wikidata": "Q72963322",
          "cuisine": "american",
          "name": "Arooga's",
          "official_name": "Arooga's Grille House and Sports Bar"
        }
      },
      {
        "displayName": "Au Bureau",
        "id": "aubureau-04e62d",
        "locationSet": {"include": ["fr"]},
        "oldid": "amenity/restaurant|Au Bureau",
        "tags": {
          "amenity": "restaurant",
          "brand": "Au Bureau",
          "cuisine": "french;american;european",
          "name": "Au Bureau"
        }
      },
      {
        "displayName": "Autogrill",
        "id": "autogrill-826835",
        "locationSet": {
          "include": ["at", "es", "fr", "it"]
        },
        "oldid": "amenity/restaurant|Autogrill",
        "tags": {
          "amenity": "restaurant",
          "brand": "Autogrill",
          "brand:wikidata": "Q786790",
          "brand:wikipedia": "en:Autogrill",
          "cuisine": "italian;regional",
          "name": "Autogrill"
        }
      },
      {
        "displayName": "BBB",
        "id": "bbb-b6c5a5",
        "locationSet": {"include": ["il"]},
        "oldid": "amenity/restaurant|BBB",
        "tags": {
          "alt_name": "Burgus Burger Bar",
          "alt_name:en": "Burgus Burger Bar",
          "amenity": "restaurant",
          "brand": "Burgus Burger Bar",
          "brand:en": "Burgus Burger Bar",
          "brand:wikidata": "Q64760094",
          "cuisine": "burger",
          "name": "BBB",
          "name:en": "BBB"
        }
      },
      {
        "displayName": "BJ's",
        "id": "bjs-ecc135",
        "locationSet": {"include": ["us"]},
        "oldid": "amenity/restaurant|BJ's",
        "tags": {
          "amenity": "restaurant",
          "brand": "BJ's",
          "brand:wikidata": "Q4835755",
          "brand:wikipedia": "en:BJ's Restaurants",
          "cuisine": "american",
          "name": "BJ's",
          "official_name": "BJ's Restaurant & Brewhouse"
        }
      },
      {
        "displayName": "Bella Italia",
        "id": "bellaitalia-25081b",
        "locationSet": {"include": ["gb"]},
        "oldid": "amenity/restaurant|Bella Italia",
        "tags": {
          "amenity": "restaurant",
          "brand": "Bella Italia",
          "brand:wikidata": "Q4883362",
          "brand:wikipedia": "en:Bella Italia",
          "cuisine": "italian",
          "name": "Bella Italia"
        }
      },
      {
        "displayName": "Benihana",
        "id": "benihana-4a99f6",
        "locationSet": {
          "include": [
            "aw",
            "br",
            "ca",
            "pa",
            "sv",
            "us"
          ]
        },
        "matchNames": ["benihana of tokyo"],
        "oldid": "amenity/restaurant|Benihana",
        "tags": {
          "amenity": "restaurant",
          "brand": "Benihana",
          "brand:wikidata": "Q4887996",
          "brand:wikipedia": "en:Benihana",
          "cuisine": "japanese;teppanyaki;steak",
          "name": "Benihana"
        }
      },
      {
        "displayName": "Bertucci's",
        "id": "bertuccis-ecc135",
        "locationSet": {"include": ["us"]},
        "oldid": "amenity/restaurant|Bertucci's",
        "tags": {
          "amenity": "restaurant",
          "brand": "Bertucci's",
          "brand:wikidata": "Q4895917",
          "brand:wikipedia": "en:Bertucci's",
          "cuisine": "pizza;italian",
          "name": "Bertucci's"
        }
      },
      {
        "displayName": "Big Boy",
        "id": "bigboy-df02ff",
        "locationSet": {"include": ["001"]},
        "oldid": "amenity/restaurant|Big Boy",
        "tags": {
          "amenity": "restaurant",
          "brand": "Big Boy",
          "brand:wikidata": "Q4386779",
          "brand:wikipedia": "en:Big Boy Restaurants",
          "cuisine": "burger",
          "name": "Big Boy",
          "official_name": "Big Boy Restaurant & Bakery"
        }
      },
      {
        "displayName": "Bill's",
        "id": "bills-25081b",
        "locationSet": {"include": ["gb"]},
        "matchTags": [
          "amenity/bar",
          "amenity/pub"
        ],
        "oldid": "amenity/restaurant|Bill's",
        "tags": {
          "amenity": "restaurant",
          "brand": "Bill's",
          "brand:wikidata": "Q47012702",
          "brand:wikipedia": "en:Bill's",
          "cuisine": "british",
          "name": "Bill's"
        }
      },
      {
        "displayName": "Black",
        "id": "black-b6c5a5",
        "locationSet": {"include": ["il"]},
        "oldid": "amenity/restaurant|Black",
        "tags": {
          "amenity": "restaurant",
          "brand": "Black Bar Burger",
          "brand:en": "Black Bar Burger",
          "brand:he": "בלאק בורגר",
          "brand:wikidata": "Q64760158",
          "cuisine": "burger",
          "name": "Black",
          "name:en": "Black",
          "name:he": "בלאק"
        }
      },
      {
        "displayName": "Black Angus",
        "id": "blackangus-ecc135",
        "locationSet": {"include": ["us"]},
        "oldid": "amenity/restaurant|Black Angus",
        "tags": {
          "amenity": "restaurant",
          "brand": "Black Angus",
          "brand:wikidata": "Q4920269",
          "brand:wikipedia": "en:Black Angus Steakhouse",
          "cuisine": "steakhouse",
          "name": "Black Angus"
        }
      },
      {
        "displayName": "Black Bear Diner",
        "id": "blackbeardiner-ecc135",
        "locationSet": {"include": ["us"]},
        "oldid": "amenity/restaurant|Black Bear Diner",
        "tags": {
          "amenity": "restaurant",
          "brand": "Black Bear Diner",
          "brand:wikidata": "Q4920343",
          "brand:wikipedia": "en:Black Bear Diner",
          "cuisine": "american",
          "name": "Black Bear Diner"
        }
      },
      {
        "displayName": "Blaze Pizza",
        "id": "blazepizza-55a7b7",
        "locationSet": {
          "include": [
            "bh",
            "ca",
            "kw",
            "sa",
            "us"
          ]
        },
        "oldid": "amenity/restaurant|Blaze Pizza",
        "tags": {
          "amenity": "restaurant",
          "brand": "Blaze Pizza",
          "brand:wikidata": "Q23016666",
          "brand:wikipedia": "en:Blaze Pizza",
          "cuisine": "pizza",
          "name": "Blaze Pizza"
        }
      },
      {
        "displayName": "Bob Evans",
        "id": "bobevans-ecc135",
        "locationSet": {"include": ["us"]},
        "oldid": "amenity/restaurant|Bob Evans",
        "tags": {
          "amenity": "restaurant",
          "brand": "Bob Evans",
          "brand:wikidata": "Q4932386",
          "brand:wikipedia": "en:Bob Evans Restaurants",
          "cuisine": "american",
          "name": "Bob Evans"
        }
      },
      {
        "displayName": "Bonanza Steakhouse",
        "id": "bonanzasteakhouse-ecc135",
        "locationSet": {"include": ["us"]},
        "matchNames": ["bonanza"],
        "oldid": "amenity/restaurant|Bonanza Steakhouse",
        "tags": {
          "amenity": "restaurant",
          "brand": "Bonanza Steakhouse",
          "brand:wikidata": "Q64045992",
          "cuisine": "american;steak;buffet",
          "name": "Bonanza Steakhouse"
        }
      },
      {
        "displayName": "Bonchon Chicken",
        "id": "bonchonchicken-345397",
        "locationSet": {
          "include": [
            "bh",
            "kh",
            "kr",
            "kw",
            "my",
            "ph",
            "sg",
            "th",
            "us"
          ]
        },
        "oldid": "amenity/restaurant|Bonchon Chicken",
        "tags": {
          "amenity": "restaurant",
          "brand": "Bonchon Chicken",
          "brand:wikidata": "Q4941248",
          "brand:wikipedia": "en:Bonchon Chicken",
          "cuisine": "chicken;korean;sushi",
          "name": "Bonchon Chicken"
        }
      },
      {
        "displayName": "Bonefish Grill",
        "id": "bonefishgrill-ecc135",
        "locationSet": {"include": ["us"]},
        "oldid": "amenity/restaurant|Bonefish Grill",
        "tags": {
          "amenity": "restaurant",
          "brand": "Bonefish Grill",
          "brand:wikidata": "Q4941599",
          "brand:wikipedia": "en:Bonefish Grill",
          "cuisine": "seafood",
          "name": "Bonefish Grill"
        }
      },
      {
        "displayName": "Boston Pizza",
        "id": "bostonpizza-42d613",
        "locationSet": {"include": ["ca", "us"]},
        "oldid": "amenity/restaurant|Boston Pizza",
        "tags": {
          "amenity": "restaurant",
          "brand": "Boston Pizza",
          "brand:wikidata": "Q894578",
          "brand:wikipedia": "en:Boston Pizza",
          "cuisine": "pizza",
          "name": "Boston Pizza"
        }
      },
      {
        "displayName": "Bravo",
        "id": "bravo-ecc135",
        "locationSet": {"include": ["us"]},
        "nomatch": ["shop/supermarket|Bravo"],
        "oldid": "amenity/restaurant|Bravo",
        "tags": {
          "alt_name": "Bravo Cucina Italiana",
          "amenity": "restaurant",
          "brand": "Bravo",
          "brand:wikidata": "Q64055574",
          "cuisine": "italian",
          "name": "Bravo"
        }
      },
      {
        "displayName": "Brewers Fayre",
        "id": "brewersfayre-25081b",
        "locationSet": {"include": ["gb"]},
        "matchTags": ["amenity/pub"],
        "oldid": "amenity/restaurant|Brewers Fayre",
        "tags": {
          "amenity": "restaurant",
          "brand": "Brewers Fayre",
          "brand:wikidata": "Q4962678",
          "brand:wikipedia": "en:Brewers Fayre",
          "cuisine": "british",
          "name": "Brewers Fayre"
        }
      },
      {
        "displayName": "Brio",
        "id": "brio-ecc135",
        "locationSet": {"include": ["us"]},
        "oldid": "amenity/restaurant|Brio",
        "tags": {
          "alt_name": "Brio Tuscan Grille",
          "amenity": "restaurant",
          "brand": "Brio",
          "brand:wikidata": "Q64055835",
          "cuisine": "italian",
          "name": "Brio"
        }
      },
      {
        "displayName": "Bubba Gump Shrimp Company",
        "id": "bubbagumpshrimpcompany-9f933f",
        "locationSet": {
          "include": [
            "ca",
            "co",
            "gb",
            "hk",
            "id",
            "jp",
            "mp",
            "mx",
            "ph",
            "us"
          ]
        },
        "oldid": "amenity/restaurant|Bubba Gump Shrimp Company",
        "tags": {
          "amenity": "restaurant",
          "brand": "Bubba Gump Shrimp Company",
          "brand:wikidata": "Q50024",
          "brand:wikipedia": "en:Bubba Gump Shrimp Company",
          "cuisine": "seafood",
          "name": "Bubba Gump Shrimp Company"
        }
      },
      {
        "displayName": "Buca di Beppo",
        "id": "bucadibeppo-ecc135",
        "locationSet": {"include": ["us"]},
        "oldid": "amenity/restaurant|Buca di Beppo",
        "tags": {
          "amenity": "restaurant",
          "brand": "Buca di Beppo",
          "brand:wikidata": "Q4982340",
          "brand:wikipedia": "en:Buca di Beppo",
          "cuisine": "italian",
          "name": "Buca di Beppo"
        }
      },
      {
        "displayName": "Bucking Bull",
        "id": "buckingbull-be4e7d",
        "locationSet": {"include": ["au"]},
        "oldid": "amenity/restaurant|Bucking Bull",
        "tags": {
          "amenity": "restaurant",
          "brand": "Bucking Bull",
          "brand:wikidata": "Q18208286",
          "brand:wikipedia": "en:Bucking Bull",
          "cuisine": "steak_house",
          "name": "Bucking Bull"
        }
      },
      {
        "displayName": "Buffalo Grill",
        "id": "buffalogrill-c4ce28",
        "locationSet": {"include": ["es", "fr"]},
        "oldid": "amenity/restaurant|Buffalo Grill",
        "tags": {
          "amenity": "restaurant",
          "brand": "Buffalo Grill",
          "brand:wikidata": "Q944655",
          "brand:wikipedia": "en:Buffalo Grill",
          "cuisine": "steak_house",
          "name": "Buffalo Grill"
        }
      },
      {
        "displayName": "Buffalo Wild Wings",
        "id": "buffalowildwings-df02ff",
        "locationSet": {"include": ["001"]},
        "oldid": "amenity/restaurant|Buffalo Wild Wings",
        "tags": {
          "amenity": "restaurant",
          "brand": "Buffalo Wild Wings",
          "brand:wikidata": "Q509255",
          "brand:wikipedia": "en:Buffalo Wild Wings",
          "cuisine": "wings",
          "name": "Buffalo Wild Wings"
        }
      },
      {
        "displayName": "Buffalo Wings & Rings",
        "id": "buffalowingsandrings-ecc135",
        "locationSet": {"include": ["us"]},
        "oldid": "amenity/restaurant|Buffalo Wings & Rings",
        "tags": {
          "amenity": "restaurant",
          "brand": "Buffalo Wings & Rings",
          "brand:wikidata": "Q4985900",
          "brand:wikipedia": "en:Buffalo Wings & Rings",
          "cuisine": "wings",
          "name": "Buffalo Wings & Rings",
          "takeaway": "yes"
        }
      },
      {
        "displayName": "Byron",
        "id": "byron-25081b",
        "locationSet": {"include": ["gb"]},
        "oldid": "amenity/restaurant|Byron",
        "tags": {
          "amenity": "restaurant",
          "brand": "Byron",
          "brand:wikidata": "Q16828673",
          "brand:wikipedia": "en:Byron Hamburgers",
          "cuisine": "burger",
          "name": "Byron"
        }
      },
      {
        "displayName": "Cafe Rio",
        "id": "caferio-ecc135",
        "locationSet": {"include": ["us"]},
        "oldid": "amenity/restaurant|Cafe Rio",
        "tags": {
          "amenity": "restaurant",
          "brand": "Cafe Rio",
          "brand:wikidata": "Q5017108",
          "brand:wikipedia": "en:Cafe Rio",
          "cuisine": "mexican",
          "name": "Cafe Rio"
        }
      },
      {
        "displayName": "Café Rouge",
        "id": "caferouge-25081b",
        "locationSet": {"include": ["gb"]},
        "oldid": "amenity/restaurant|Café Rouge",
        "tags": {
          "amenity": "restaurant",
          "brand": "Café Rouge",
          "brand:wikidata": "Q5017261",
          "brand:wikipedia": "en:Café Rouge",
          "cuisine": "french",
          "name": "Café Rouge"
        }
      },
      {
        "displayName": "California Pizza Kitchen",
        "id": "californiapizzakitchen-df02ff",
        "locationSet": {"include": ["001"]},
        "oldid": "amenity/restaurant|California Pizza Kitchen",
        "tags": {
          "amenity": "restaurant",
          "brand": "California Pizza Kitchen",
          "brand:wikidata": "Q15109854",
          "brand:wikipedia": "en:California Pizza Kitchen",
          "cuisine": "pizza",
          "name": "California Pizza Kitchen"
        }
      },
      {
        "displayName": "Campanile",
        "id": "campanile-63b17e",
        "locationSet": {
          "include": ["fr", "gb", "nl"]
        },
        "oldid": "amenity/restaurant|Campanile",
        "tags": {
          "amenity": "restaurant",
          "brand": "Campanile",
          "brand:wikidata": "Q2412064",
          "brand:wikipedia": "fr:Campanile (chaîne d'hôtels)",
          "cuisine": "french",
          "name": "Campanile"
        }
      },
      {
        "displayName": "Carluccio's",
        "id": "carluccios-25081b",
        "locationSet": {"include": ["gb"]},
        "oldid": "amenity/restaurant|Carluccio's",
        "tags": {
          "amenity": "restaurant",
          "brand": "Carluccio's",
          "brand:wikidata": "Q25111797",
          "brand:wikipedia": "en:Carluccio's Ltd",
          "cuisine": "italian",
          "name": "Carluccio's"
        }
      },
      {
        "displayName": "Carrabba's Italian Grill",
        "id": "carrabbasitaliangrill-ecc135",
        "locationSet": {"include": ["us"]},
        "oldid": "amenity/restaurant|Carrabba's Italian Grill",
        "tags": {
          "amenity": "restaurant",
          "brand": "Carrabba's Italian Grill",
          "brand:wikidata": "Q5045999",
          "brand:wikipedia": "en:Carrabba's Italian Grill",
          "cuisine": "italian",
          "name": "Carrabba's Italian Grill"
        }
      },
      {
        "displayName": "Cheddar's",
        "id": "cheddars-ecc135",
        "locationSet": {"include": ["us"]},
        "oldid": "amenity/restaurant|Cheddar's",
        "tags": {
          "amenity": "restaurant",
          "brand": "Cheddar's",
          "brand:wikidata": "Q5089187",
          "brand:wikipedia": "en:Cheddar's Scratch Kitchen",
          "cuisine": "american",
          "name": "Cheddar's",
          "official_name": "Cheddar's Scratch Kitchen"
        }
      },
      {
        "displayName": "Cheeburger Cheeburger",
        "id": "cheeburgercheeburger-7d6a2d",
        "locationSet": {
          "include": ["ca", "sa", "us"]
        },
        "oldid": "amenity/restaurant|Cheeburger Cheeburger",
        "tags": {
          "amenity": "restaurant",
          "brand": "Cheeburger Cheeburger",
          "brand:wikidata": "Q5089247",
          "brand:wikipedia": "en:Cheeburger Cheeburger",
          "cuisine": "burger",
          "name": "Cheeburger Cheeburger"
        }
      },
      {
        "displayName": "Chevys",
        "id": "chevys-ecc135",
        "locationSet": {"include": ["us"]},
        "oldid": "amenity/restaurant|Chevys",
        "tags": {
          "amenity": "restaurant",
          "brand": "Chevys Fresh Mex",
          "brand:wikidata": "Q5094466",
          "brand:wikipedia": "en:Chevys Fresh Mex",
          "cuisine": "mexican",
          "name": "Chevys",
          "official_name": "Chevys Fresh Mex"
        }
      },
      {
        "displayName": "Chili's",
        "id": "chilis-df02ff",
        "locationSet": {"include": ["001"]},
        "oldid": "amenity/restaurant|Chili's",
        "tags": {
          "amenity": "restaurant",
          "brand": "Chili's",
          "brand:wikidata": "Q1072948",
          "brand:wikipedia": "en:Chili's",
          "cuisine": "tex-mex",
          "name": "Chili's",
          "official_name": "Chili's Grill & Bar"
        }
      },
      {
        "displayName": "Chiquito",
        "id": "chiquito-25081b",
        "locationSet": {"include": ["gb"]},
        "oldid": "amenity/restaurant|Chiquito",
        "tags": {
          "amenity": "restaurant",
          "brand": "Chiquito",
          "brand:wikidata": "Q5101775",
          "brand:wikipedia": "en:Chiquito (restaurant)",
          "cuisine": "tex-mex",
          "name": "Chiquito"
        }
      },
      {
        "displayName": "Chopped Leaf",
        "id": "choppedleaf-df02ff",
        "locationSet": {"include": ["001"]},
        "oldid": "amenity/restaurant|Chopped Leaf",
        "tags": {
          "amenity": "restaurant",
          "brand": "Chopped Leaf",
          "cuisine": "salad",
          "name": "Chopped Leaf"
        }
      },
      {
        "displayName": "Chuck E. Cheese's",
        "id": "chuckecheeses-42d613",
        "locationSet": {"include": ["ca", "us"]},
        "matchNames": ["chuck e cheese"],
        "matchTags": ["leisure/amusement_arcade"],
        "oldid": "amenity/restaurant|Chuck E. Cheese's",
        "tags": {
          "amenity": "restaurant",
          "brand": "Chuck E. Cheese's",
          "brand:wikidata": "Q2438391",
          "brand:wikipedia": "en:Chuck E. Cheese's",
          "cuisine": "pizza",
          "leisure": "amusement_arcade",
          "name": "Chuck E. Cheese's"
        }
      },
      {
        "displayName": "Chuy's",
        "id": "chuys-ecc135",
        "locationSet": {"include": ["us"]},
        "oldid": "amenity/restaurant|Chuy's",
        "tags": {
          "amenity": "restaurant",
          "brand": "Chuy's",
          "brand:wikidata": "Q5118415",
          "brand:wikipedia": "en:Chuy's",
          "cuisine": "tex-mex",
          "name": "Chuy's"
        }
      },
      {
        "displayName": "Cici's Pizza",
        "id": "cicispizza-ecc135",
        "locationSet": {"include": ["us"]},
        "oldid": "amenity/restaurant|Cici's Pizza",
        "tags": {
          "amenity": "restaurant",
          "brand": "Cici's Pizza",
          "brand:wikidata": "Q2972189",
          "brand:wikipedia": "en:Cicis",
          "cuisine": "pizza;buffet",
          "name": "Cici's Pizza"
        }
      },
      {
        "displayName": "Claim Jumper",
        "id": "claimjumper-ecc135",
        "locationSet": {"include": ["us"]},
        "oldid": "amenity/restaurant|Claim Jumper",
        "tags": {
          "amenity": "restaurant",
          "brand": "Claim Jumper",
          "brand:wikidata": "Q5125081",
          "brand:wikipedia": "en:Claim Jumper",
          "cuisine": "american",
          "name": "Claim Jumper"
        }
      },
      {
        "displayName": "Coast to Coast",
        "id": "coasttocoast-25081b",
        "locationSet": {"include": ["gb"]},
        "oldid": "amenity/restaurant|Coast to Coast",
        "tags": {
          "amenity": "restaurant",
          "brand": "Coast to Coast",
          "brand:wikidata": "Q22000729",
          "brand:wikipedia": "en:Coast to Coast (restaurant)",
          "cuisine": "american",
          "name": "Coast to Coast"
        }
      },
      {
        "displayName": "Coop Restaurant",
        "id": "cooprestaurant-df02ff",
        "locationSet": {"include": ["001"]},
        "oldid": "amenity/restaurant|Coop Restaurant",
        "tags": {
          "amenity": "restaurant",
          "brand": "Coop Restaurant",
          "name": "Coop Restaurant"
        }
      },
      {
        "displayName": "Copeland's",
        "id": "copelands-ecc135",
        "locationSet": {"include": ["us"]},
        "oldid": "amenity/restaurant|Copeland's",
        "tags": {
          "amenity": "restaurant",
          "brand": "Copeland's",
          "brand:wikidata": "Q5168346",
          "brand:wikipedia": "en:Copeland's",
          "cuisine": "american",
          "name": "Copeland's"
        }
      },
      {
        "displayName": "Cora (Quebec)",
        "id": "cora-2631d7",
        "locationSet": {"include": ["ca"]},
        "nomatch": [
          "amenity/restaurant|Cora~(non-Quebec)",
          "shop/supermarket|Cora"
        ],
        "oldid": "amenity/restaurant|Cora~(Quebec)",
        "tags": {
          "amenity": "restaurant",
          "brand": "Cora",
          "brand:wikidata": "Q2996960",
          "brand:wikipedia": "fr:Cora (chaîne de restaurants)",
          "cuisine": "breakfast",
          "name": "Cora"
        }
      },
      {
        "displayName": "Cora (non-Quebec)",
        "id": "cora-2631d7",
        "locationSet": {"include": ["ca"]},
        "nomatch": [
          "amenity/restaurant|Cora~(Quebec)",
          "shop/supermarket|Cora"
        ],
        "oldid": "amenity/restaurant|Cora~(non-Quebec)",
        "tags": {
          "amenity": "restaurant",
          "brand": "Cora",
          "brand:wikidata": "Q2996960",
          "brand:wikipedia": "en:Cora (restaurant)",
          "cuisine": "breakfast",
          "name": "Cora"
        }
      },
      {
        "displayName": "Cosmo",
        "id": "cosmo-99daee",
        "locationSet": {"include": ["gb", "ie"]},
        "nomatch": ["amenity/fuel|Cosmo"],
        "oldid": "amenity/restaurant|Cosmo",
        "tags": {
          "amenity": "restaurant",
          "brand": "Cosmo",
          "brand:wikidata": "Q5174239",
          "brand:wikipedia": "en:Cosmo (restaurant)",
          "cuisine": "international",
          "name": "Cosmo"
        }
      },
      {
        "displayName": "Country Pride",
        "id": "countrypride-ecc135",
        "locationSet": {"include": ["us"]},
        "matchNames": [
          "country pride restaurant"
        ],
        "oldid": "amenity/restaurant|Country Pride",
        "tags": {
          "amenity": "restaurant",
          "brand": "Country Pride",
          "brand:wikidata": "Q64051992",
          "cuisine": "american",
          "name": "Country Pride"
        }
      },
      {
        "displayName": "Country Waffles",
        "id": "countrywaffles-ecc135",
        "locationSet": {"include": ["us"]},
        "oldid": "amenity/restaurant|Country Waffles",
        "tags": {
          "amenity": "restaurant",
          "brand": "Country Waffles",
          "brand:wikidata": "Q86151490",
          "cuisine": "breakfast",
          "name": "Country Waffles"
        }
      },
      {
        "displayName": "Courtepaille",
        "id": "courtepaille-04e62d",
        "locationSet": {"include": ["fr"]},
        "oldid": "amenity/restaurant|Courtepaille",
        "tags": {
          "amenity": "restaurant",
          "brand": "Courtepaille",
          "brand:wikidata": "Q3116688",
          "brand:wikipedia": "fr:Grill Courtepaille",
          "cuisine": "french",
          "name": "Courtepaille"
        }
      },
      {
        "displayName": "Cracker Barrel",
        "id": "crackerbarrel-ecc135",
        "locationSet": {"include": ["us"]},
        "nomatch": ["shop/gift|Cracker Barrel"],
        "oldid": "amenity/restaurant|Cracker Barrel",
        "tags": {
          "amenity": "restaurant",
          "brand": "Cracker Barrel",
          "brand:wikidata": "Q4492609",
          "brand:wikipedia": "en:Cracker Barrel",
          "cuisine": "american",
          "name": "Cracker Barrel",
          "official_name": "Cracker Barrel Old Country Store"
        }
      },
      {
        "displayName": "Côte Brasserie",
        "id": "cotebrasserie-25081b",
        "locationSet": {"include": ["gb"]},
        "oldid": "amenity/restaurant|Côte Brasserie",
        "tags": {
          "amenity": "restaurant",
          "brand": "Côte Brasserie",
          "brand:wikidata": "Q48699908",
          "brand:wikipedia": "en:Côte",
          "cuisine": "french",
          "name": "Côte Brasserie"
        }
      },
      {
        "displayName": "Dave & Buster's",
        "id": "daveandbusters-ecc135",
        "locationSet": {"include": ["us"]},
        "matchTags": ["leisure/amusement_arcade"],
        "oldid": "amenity/restaurant|Dave & Buster's",
        "tags": {
          "amenity": "restaurant",
          "brand": "Dave & Buster's",
          "brand:wikidata": "Q5228205",
          "brand:wikipedia": "en:Dave & Buster's",
          "cuisine": "american",
          "leisure": "amusement_arcade",
          "name": "Dave & Buster's"
        }
      },
      {
        "displayName": "Denny's",
        "id": "dennys-df02ff",
        "locationSet": {"include": ["001"]},
        "oldid": "amenity/restaurant|Denny's",
        "tags": {
          "amenity": "restaurant",
          "brand": "Denny's",
          "brand:wikidata": "Q1189695",
          "brand:wikipedia": "en:Denny's",
          "cuisine": "american",
          "name": "Denny's"
        }
      },
      {
        "displayName": "Dhaba",
        "id": "dhaba-df02ff",
        "locationSet": {"include": ["001"]},
        "oldid": "amenity/restaurant|Dhaba",
        "tags": {
          "amenity": "restaurant",
          "brand": "Dhaba",
          "name": "Dhaba"
        }
      },
      {
        "displayName": "Dickey's Barbecue Pit",
        "id": "dickeysbarbecuepit-ecc135",
        "locationSet": {"include": ["us"]},
        "matchNames": ["dickeys barbecue"],
        "oldid": "amenity/restaurant|Dickey's Barbecue Pit",
        "tags": {
          "amenity": "restaurant",
          "brand": "Dickey's Barbecue Pit",
          "brand:wikidata": "Q19880747",
          "brand:wikipedia": "en:Dickey's Barbecue Pit",
          "cuisine": "barbecue",
          "name": "Dickey's Barbecue Pit"
        }
      },
      {
        "displayName": "Din Tai Fung",
        "id": "dintaifung-aa6cd9",
        "locationSet": {
          "include": [
            "ae",
            "au",
            "gb",
            "hk",
            "id",
            "jp",
            "kr",
            "mo",
            "my",
            "ph",
            "sg",
            "th",
            "tw",
            "us"
          ]
        },
        "oldid": "amenity/restaurant|Din Tai Fung",
        "tags": {
          "amenity": "restaurant",
          "brand": "Din Tai Fung",
          "brand:wikidata": "Q699142",
          "brand:wikipedia": "en:Din Tai Fung",
          "cuisine": "taiwanese",
          "name": "Din Tai Fung",
          "name:zh": "鼎泰丰"
        }
      },
      {
        "displayName": "Don Camillo",
        "id": "doncamillo-df02ff",
        "locationSet": {"include": ["001"]},
        "oldid": "amenity/restaurant|Don Camillo",
        "tags": {
          "amenity": "restaurant",
          "brand": "Don Camillo",
          "name": "Don Camillo"
        }
      },
      {
        "displayName": "Donatos Pizza",
        "id": "donatospizza-ecc135",
        "locationSet": {"include": ["us"]},
        "matchNames": ["donatos"],
        "oldid": "amenity/restaurant|Donatos Pizza",
        "tags": {
          "amenity": "restaurant",
          "brand": "Donatos Pizza",
          "brand:wikidata": "Q1240741",
          "brand:wikipedia": "en:Donatos Pizza",
          "cuisine": "pizza",
          "name": "Donatos Pizza",
          "takeaway": "yes"
        }
      },
      {
        "displayName": "East Side Mario's",
        "id": "eastsidemarios-2631d7",
        "locationSet": {"include": ["ca"]},
        "oldid": "amenity/restaurant|East Side Mario's",
        "tags": {
          "amenity": "restaurant",
          "brand": "East Side Mario's",
          "brand:wikidata": "Q5329375",
          "brand:wikipedia": "en:East Side Mario's",
          "cuisine": "italian",
          "name": "East Side Mario's"
        }
      },
      {
        "displayName": "Eat'n Park",
        "id": "eatnpark-ecc135",
        "locationSet": {"include": ["us"]},
        "oldid": "amenity/restaurant|Eat'n Park",
        "tags": {
          "amenity": "restaurant",
          "brand": "Eat'n Park",
          "brand:wikidata": "Q5331211",
          "brand:wikipedia": "en:Eat'n Park",
          "cuisine": "american",
          "name": "Eat'n Park"
        }
      },
      {
        "displayName": "Elephant Bar",
        "id": "elephantbar-ecc135",
        "locationSet": {"include": ["us"]},
        "oldid": "amenity/restaurant|Elephant Bar",
        "tags": {
          "amenity": "restaurant",
          "brand": "Elephant Bar",
          "brand:wikidata": "Q5359302",
          "brand:wikipedia": "en:Elephant Bar",
          "cuisine": "american",
          "name": "Elephant Bar"
        }
      },
      {
        "displayName": "Famous Dave's",
        "id": "famousdaves-ecc135",
        "locationSet": {"include": ["us"]},
        "matchNames": ["famous daves bbq"],
        "oldid": "amenity/restaurant|Famous Dave's",
        "tags": {
          "amenity": "restaurant",
          "brand": "Famous Dave's",
          "brand:wikidata": "Q5433448",
          "brand:wikipedia": "en:Famous Dave's",
          "cuisine": "barbecue",
          "name": "Famous Dave's"
        }
      },
      {
        "displayName": "Fatz",
        "id": "fatz-ecc135",
        "locationSet": {"include": ["us"]},
        "oldid": "amenity/restaurant|Fatz",
        "tags": {
          "amenity": "restaurant",
          "brand": "Fatz",
          "brand:wikidata": "Q5424504",
          "brand:wikipedia": "en:Fatz",
          "cuisine": "american",
          "name": "Fatz"
        }
      },
      {
        "displayName": "Fernandez",
        "id": "fernandez-25081b",
        "locationSet": {"include": ["gb"]},
        "oldid": "amenity/restaurant|Fernandez",
        "tags": {
          "amenity": "restaurant",
          "brand": "Fernandez",
          "cuisine": "steak",
          "name": "Fernandez"
        }
      },
      {
        "displayName": "First Watch",
        "id": "firstwatch-ecc135",
        "locationSet": {"include": ["us"]},
        "oldid": "amenity/restaurant|First Watch",
        "tags": {
          "amenity": "restaurant",
          "brand": "First Watch",
          "brand:wikidata": "Q5454064",
          "brand:wikipedia": "en:First Watch (restaurant chain)",
          "cuisine": "american;breakfast",
          "name": "First Watch"
        }
      },
      {
        "displayName": "Flunch",
        "id": "flunch-04e62d",
        "locationSet": {"include": ["fr"]},
        "oldid": "amenity/restaurant|Flunch",
        "tags": {
          "amenity": "restaurant",
          "brand": "Flunch",
          "brand:wikidata": "Q629326",
          "brand:wikipedia": "en:Flunch",
          "cuisine": "french",
          "name": "Flunch"
        }
      },
      {
        "displayName": "Foster's Hollywood",
        "id": "fostershollywood-ebc2d0",
        "locationSet": {"include": ["es"]},
        "oldid": "amenity/restaurant|Foster's Hollywood",
        "tags": {
          "amenity": "restaurant",
          "brand": "Foster's Hollywood",
          "brand:wikidata": "Q5864366",
          "brand:wikipedia": "en:Foster's Hollywood",
          "cuisine": "american",
          "name": "Foster's Hollywood"
        }
      },
      {
        "displayName": "Frankie & Benny's",
        "id": "frankieandbennys-25081b",
        "locationSet": {"include": ["gb"]},
        "oldid": "amenity/restaurant|Frankie & Benny's",
        "tags": {
          "amenity": "restaurant",
          "brand": "Frankie & Benny's",
          "brand:wikidata": "Q5490892",
          "brand:wikipedia": "en:Frankie & Benny's",
          "cuisine": "american",
          "name": "Frankie & Benny's"
        }
      },
      {
        "displayName": "Freshii",
        "id": "freshii-42d613",
        "locationSet": {"include": ["ca", "us"]},
        "oldid": "amenity/restaurant|Freshii",
        "tags": {
          "amenity": "restaurant",
          "brand": "Freshii",
          "brand:wikidata": "Q5503051",
          "brand:wikipedia": "en:Freshii",
          "cuisine": "salad",
          "name": "Freshii"
        }
      },
      {
        "displayName": "Friendly's",
        "id": "friendlys-ecc135",
        "locationSet": {"include": ["us"]},
        "oldid": "amenity/restaurant|Friendly's",
        "tags": {
          "amenity": "restaurant",
          "brand": "Friendly's",
          "brand:wikidata": "Q1464513",
          "brand:wikipedia": "en:Friendly's",
          "cuisine": "american",
          "name": "Friendly's"
        }
      },
      {
        "displayName": "Frisch's Big Boy",
        "id": "frischsbigboy-ecc135",
        "locationSet": {"include": ["us"]},
        "oldid": "amenity/restaurant|Frisch's Big Boy",
        "tags": {
          "amenity": "restaurant",
          "brand": "Frisch's Big Boy",
          "brand:wikidata": "Q5504660",
          "brand:wikipedia": "en:Frisch's",
          "cuisine": "burger",
          "name": "Frisch's Big Boy",
          "takeaway": "yes"
        }
      },
      {
        "displayName": "Fuddruckers",
        "id": "fuddruckers-df02ff",
        "locationSet": {"include": ["001"]},
        "oldid": "amenity/restaurant|Fuddruckers",
        "tags": {
          "amenity": "restaurant",
          "brand": "Fuddruckers",
          "brand:wikidata": "Q5507056",
          "brand:wikipedia": "en:Fuddruckers",
          "cuisine": "burger",
          "name": "Fuddruckers"
        }
      },
      {
        "displayName": "Gatti's Pizza",
        "id": "gattispizza-ecc135",
        "locationSet": {"include": ["us"]},
        "oldid": "amenity/restaurant|Gatti's Pizza",
        "tags": {
          "amenity": "restaurant",
          "brand": "Gatti's Pizza",
          "brand:wikidata": "Q5527509",
          "brand:wikipedia": "en:Gatti's Pizza",
          "cuisine": "pizza",
          "name": "Gatti's Pizza"
        }
      },
      {
        "displayName": "Ginos",
        "id": "ginos-ebc2d0",
        "locationSet": {"include": ["es"]},
        "oldid": "amenity/restaurant|Ginos",
        "tags": {
          "amenity": "restaurant",
          "brand": "Ginos",
          "brand:wikidata": "Q98503664",
          "cuisine": "italian",
          "name": "Ginos"
        }
      },
      {
        "displayName": "Giordano's Pizzeria",
        "id": "giordanospizzeria-ecc135",
        "locationSet": {"include": ["us"]},
        "oldid": "amenity/restaurant|Giordano's Pizzeria",
        "tags": {
          "amenity": "restaurant",
          "brand": "Giordano's Pizzeria",
          "brand:wikidata": "Q5563393",
          "brand:wikipedia": "en:Giordano's Pizzeria",
          "cuisine": "pizza",
          "name": "Giordano's Pizzeria"
        }
      },
      {
        "displayName": "Godfather's Pizza",
        "id": "godfatherspizza-ecc135",
        "locationSet": {"include": ["us"]},
        "oldid": "amenity/restaurant|Godfather's Pizza",
        "tags": {
          "amenity": "restaurant",
          "brand": "Godfather's Pizza",
          "brand:wikidata": "Q5576353",
          "brand:wikipedia": "en:Godfather's Pizza",
          "cuisine": "pizza",
          "name": "Godfather's Pizza"
        }
      },
      {
        "displayName": "Golden Corral",
        "id": "goldencorral-ecc135",
        "locationSet": {"include": ["us"]},
        "matchNames": [
          "golden corral buffet",
          "golden corral buffet and grill"
        ],
        "oldid": "amenity/restaurant|Golden Corral",
        "tags": {
          "amenity": "restaurant",
          "brand": "Golden Corral",
          "brand:wikidata": "Q4039560",
          "brand:wikipedia": "en:Golden Corral",
          "cuisine": "american;buffet",
          "name": "Golden Corral"
        }
      },
      {
        "displayName": "Gourmet Burger Kitchen",
        "id": "gourmetburgerkitchen-67e8b9",
        "locationSet": {
          "include": ["gb", "gr", "ie"]
        },
        "oldid": "amenity/restaurant|Gourmet Burger Kitchen",
        "tags": {
          "amenity": "restaurant",
          "brand": "Gourmet Burger Kitchen",
          "brand:wikidata": "Q5588445",
          "brand:wikipedia": "en:Gourmet Burger Kitchen",
          "cuisine": "burger",
          "name": "Gourmet Burger Kitchen",
          "short_name": "GBK"
        }
      },
      {
        "displayName": "Grotto Pizza",
        "id": "grottopizza-ecc135",
        "locationSet": {"include": ["us"]},
        "oldid": "amenity/restaurant|Grotto Pizza",
        "tags": {
          "amenity": "restaurant",
          "brand": "Grotto Pizza",
          "brand:wikidata": "Q20709024",
          "brand:wikipedia": "en:Grotto Pizza",
          "cuisine": "pizza",
          "name": "Grotto Pizza"
        }
      },
      {
        "displayName": "Gusto (United Kingdom)",
        "id": "gusto-25081b",
        "locationSet": {"include": ["gb"]},
        "oldid": "amenity/restaurant|Gusto~(United Kingdom)",
        "tags": {
          "amenity": "restaurant",
          "brand": "Gusto",
          "brand:wikidata": "Q66087781",
          "cuisine": "italian",
          "name": "Gusto"
        }
      },
      {
        "displayName": "Guzman y Gomez",
        "id": "guzmanygomez-90c468",
        "locationSet": {
          "include": ["au", "jp", "sg"]
        },
        "oldid": "amenity/restaurant|Guzman y Gomez",
        "tags": {
          "amenity": "restaurant",
          "brand": "Guzman y Gomez",
          "brand:wikidata": "Q23019759",
          "brand:wikipedia": "en:Guzman y Gomez",
          "cuisine": "mexican",
          "name": "Guzman y Gomez"
        }
      },
      {
        "displayName": "Handmade Burger Co.",
        "id": "handmadeburgerco-25081b",
        "locationSet": {"include": ["gb"]},
        "matchNames": ["handmade burger company"],
        "oldid": "amenity/restaurant|Handmade Burger Co.",
        "tags": {
          "amenity": "restaurant",
          "brand": "Handmade Burger Co.",
          "brand:wikidata": "Q56154673",
          "brand:wikipedia": "en:Handmade Burger Co",
          "cuisine": "burger",
          "name": "Handmade Burger Co."
        }
      },
      {
        "displayName": "Hans im Glück",
        "id": "hansimgluck-3e2ada",
        "locationSet": {
          "include": ["at", "ch", "de", "sg"]
        },
        "oldid": "amenity/restaurant|Hans im Glück",
        "tags": {
          "amenity": "restaurant",
          "brand": "Hans im Glück",
          "brand:wikidata": "Q22569868",
          "brand:wikipedia": "de:Hans im Glück (Restaurantkette)",
          "cuisine": "burger",
          "name": "Hans im Glück"
        }
      },
      {
        "displayName": "Happy's Pizza",
        "id": "happyspizza-ecc135",
        "locationSet": {"include": ["us"]},
        "oldid": "amenity/restaurant|Happy's Pizza",
        "tags": {
          "amenity": "restaurant",
          "brand": "Happy's Pizza",
          "brand:wikidata": "Q5652393",
          "brand:wikipedia": "en:Happy's Pizza",
          "cuisine": "pizza",
          "name": "Happy's Pizza"
        }
      },
      {
        "displayName": "Hard Rock Cafe",
        "id": "hardrockcafe-df02ff",
        "locationSet": {"include": ["001"]},
        "oldid": "amenity/restaurant|Hard Rock Cafe",
        "tags": {
          "amenity": "restaurant",
          "brand": "Hard Rock Cafe",
          "brand:wikidata": "Q918151",
          "brand:wikipedia": "en:Hard Rock Cafe",
          "cuisine": "american",
          "name": "Hard Rock Cafe"
        }
      },
      {
        "displayName": "Harvester",
        "id": "harvester-25081b",
        "locationSet": {"include": ["gb"]},
        "matchTags": ["amenity/pub"],
        "oldid": "amenity/restaurant|Harvester",
        "tags": {
          "amenity": "restaurant",
          "brand": "Harvester",
          "brand:wikidata": "Q5676915",
          "brand:wikipedia": "en:Harvester (restaurant)",
          "cuisine": "american",
          "name": "Harvester"
        }
      },
      {
        "displayName": "Hippopotamus",
        "id": "hippopotamus-04e62d",
        "locationSet": {"include": ["fr"]},
        "oldid": "amenity/restaurant|Hippopotamus",
        "tags": {
          "amenity": "restaurant",
          "brand": "Hippopotamus",
          "brand:wikidata": "Q3136174",
          "brand:wikipedia": "fr:Hippopotamus (restaurant)",
          "cuisine": "steak_house",
          "name": "Hippopotamus"
        }
      },
      {
        "displayName": "Hog's Australia's Steakhouse",
        "id": "hogsaustraliassteakhouse-be4e7d",
        "locationSet": {"include": ["au"]},
        "oldid": "amenity/restaurant|Hog's Australia's Steakhouse",
        "tags": {
          "amenity": "restaurant",
          "brand": "Hog's Australia's Steakhouse",
          "brand:wikidata": "Q5876920",
          "brand:wikipedia": "en:Hog's Australia's Steakhouse",
          "cuisine": "steak_house",
          "name": "Hog's Australia's Steakhouse"
        }
      },
      {
        "displayName": "Hooters",
        "id": "hooters-df02ff",
        "locationSet": {"include": ["001"]},
        "oldid": "amenity/restaurant|Hooters",
        "tags": {
          "amenity": "restaurant",
          "brand": "Hooters",
          "brand:wikidata": "Q1025921",
          "brand:wikipedia": "en:Hooters",
          "cuisine": "burger",
          "name": "Hooters"
        }
      },
      {
        "displayName": "House of Blues",
        "id": "houseofblues-df02ff",
        "locationSet": {"include": ["001"]},
        "oldid": "amenity/restaurant|House of Blues",
        "tags": {
          "amenity": "restaurant",
          "brand": "House of Blues",
          "brand:wikidata": "Q648898",
          "brand:wikipedia": "en:House of Blues",
          "cuisine": "american",
          "name": "House of Blues"
        }
      },
      {
        "displayName": "Huddle House",
        "id": "huddlehouse-ecc135",
        "locationSet": {"include": ["us"]},
        "oldid": "amenity/restaurant|Huddle House",
        "tags": {
          "amenity": "restaurant",
          "brand": "Huddle House",
          "brand:wikidata": "Q5928324",
          "brand:wikipedia": "en:Huddle House",
          "cuisine": "american",
          "name": "Huddle House"
        }
      },
      {
        "displayName": "Husky House",
        "id": "huskyhouse-2631d7",
        "locationSet": {"include": ["ca"]},
        "nomatch": [
          "amenity/fuel|Husky",
          "shop/convenience|Husky"
        ],
        "oldid": "amenity/restaurant|Husky House",
        "tags": {
          "amenity": "restaurant",
          "brand": "Husky",
          "brand:wikidata": "Q702049",
          "brand:wikipedia": "en:Husky Energy",
          "cuisine": "diner",
          "name": "Husky House"
        }
      },
      {
        "displayName": "IHOP",
        "id": "ihop-df02ff",
        "locationSet": {"include": ["001"]},
        "matchNames": [
          "international house of pancakes"
        ],
        "oldid": "amenity/restaurant|IHOP",
        "tags": {
          "amenity": "restaurant",
          "brand": "IHOP",
          "brand:wikidata": "Q1185675",
          "brand:wikipedia": "en:IHOP",
          "cuisine": "breakfast;pancake",
          "name": "IHOP"
        }
      },
      {
        "displayName": "IL Патио",
        "id": "ilпатио-964cf5",
        "locationSet": {"include": ["ru"]},
        "oldid": "amenity/restaurant|IL Патио",
        "tags": {
          "amenity": "restaurant",
          "brand": "IL Патио",
          "brand:wikidata": "Q4397763",
          "brand:wikipedia": "en:Росинтер",
          "cuisine": "italian",
          "name": "IL Патио"
        }
      },
      {
        "displayName": "Indian Palace",
        "id": "indianpalace-df02ff",
        "locationSet": {"include": ["001"]},
        "oldid": "amenity/restaurant|Indian Palace",
        "tags": {
          "amenity": "restaurant",
          "brand": "Indian Palace",
          "name": "Indian Palace"
        }
      },
      {
        "displayName": "Iron Skillet",
        "id": "ironskillet-ecc135",
        "locationSet": {"include": ["us"]},
        "matchNames": ["iron skillet restaurant"],
        "oldid": "amenity/restaurant|Iron Skillet",
        "tags": {
          "amenity": "restaurant",
          "brand": "Iron Skillet",
          "brand:wikidata": "Q64052855",
          "cuisine": "american;buffet",
          "name": "Iron Skillet"
        }
      },
      {
        "displayName": "Jack Astor's",
        "id": "jackastors-42d613",
        "locationSet": {"include": ["ca", "us"]},
        "oldid": "amenity/restaurant|Jack Astor's",
        "tags": {
          "amenity": "restaurant",
          "brand": "Jack Astor's",
          "brand:wikidata": "Q6111066",
          "brand:wikipedia": "en:Jack Astor's Bar and Grill",
          "cuisine": "american",
          "name": "Jack Astor's"
        }
      },
      {
        "displayName": "Jason's Deli",
        "id": "jasonsdeli-ecc135",
        "locationSet": {"include": ["us"]},
        "oldid": "amenity/restaurant|Jason's Deli",
        "tags": {
          "amenity": "restaurant",
          "brand": "Jason's Deli",
          "brand:wikidata": "Q16997641",
          "brand:wikipedia": "en:Jason's Deli",
          "cuisine": "sandwich",
          "name": "Jason's Deli"
        }
      },
      {
        "displayName": "Jet's Pizza",
        "id": "jetspizza-ecc135",
        "locationSet": {"include": ["us"]},
        "oldid": "amenity/restaurant|Jet's Pizza",
        "tags": {
          "amenity": "restaurant",
          "brand": "Jet's Pizza",
          "brand:wikidata": "Q16997713",
          "brand:wikipedia": "en:Jet's Pizza",
          "cuisine": "pizza",
          "name": "Jet's Pizza"
        }
      },
      {
        "displayName": "Jinya Ramen Bar",
        "id": "jinyaramenbar-42d613",
        "locationSet": {"include": ["ca", "us"]},
        "oldid": "amenity/restaurant|Jinya Ramen Bar",
        "tags": {
          "amenity": "restaurant",
          "brand": "Jinya Ramen Bar",
          "brand:wikidata": "Q16997755",
          "brand:wikipedia": "en:Jinya Ramen Bar",
          "cuisine": "ramen",
          "name": "Jinya Ramen Bar"
        }
      },
      {
        "displayName": "Joe's Crab Shack",
        "id": "joescrabshack-ecc135",
        "locationSet": {"include": ["us"]},
        "oldid": "amenity/restaurant|Joe's Crab Shack",
        "tags": {
          "amenity": "restaurant",
          "brand": "Joe's Crab Shack",
          "brand:wikidata": "Q6208210",
          "brand:wikipedia": "en:Joe's Crab Shack",
          "cuisine": "seafood",
          "name": "Joe's Crab Shack"
        }
      },
      {
        "displayName": "Johnny Carino's",
        "id": "johnnycarinos-ecc135",
        "locationSet": {"include": ["us"]},
        "matchNames": ["carinios"],
        "oldid": "amenity/restaurant|Johnny Carino's",
        "tags": {
          "amenity": "restaurant",
          "brand": "Johnny Carino's",
          "brand:wikidata": "Q5039637",
          "brand:wikipedia": "en:Carino's Italian",
          "cuisine": "italian",
          "name": "Johnny Carino's"
        }
      },
      {
        "displayName": "Johnny Rockets",
        "id": "johnnyrockets-df02ff",
        "locationSet": {"include": ["001"]},
        "matchNames": ["johnny rocket"],
        "oldid": "amenity/restaurant|Johnny Rockets",
        "tags": {
          "amenity": "restaurant",
          "brand": "Johnny Rockets",
          "brand:wikidata": "Q1051593",
          "brand:wikipedia": "en:Johnny Rockets",
          "cuisine": "burger",
          "name": "Johnny Rockets"
        }
      },
      {
        "displayName": "Kelsey's",
        "id": "kelseys-2631d7",
        "locationSet": {"include": ["ca"]},
        "oldid": "amenity/restaurant|Kelsey's",
        "tags": {
          "amenity": "restaurant",
          "brand": "Kelsey's",
          "brand:wikidata": "Q6386459",
          "brand:wikipedia": "en:Kelseys Original Roadhouse",
          "cuisine": "american",
          "name": "Kelsey's"
        }
      },
      {
        "displayName": "Kona Grill",
        "id": "konagrill-ecc135",
        "locationSet": {"include": ["us"]},
        "oldid": "amenity/restaurant|Kona Grill",
        "tags": {
          "amenity": "restaurant",
          "brand": "Kona Grill",
          "brand:wikidata": "Q6428706",
          "brand:wikipedia": "en:Kona Grill",
          "cuisine": "sushi;cocktails",
          "name": "Kona Grill"
        }
      },
      {
        "displayName": "L'Atelier",
        "id": "latelier-df02ff",
        "locationSet": {"include": ["001"]},
        "oldid": "amenity/restaurant|L'Atelier",
        "tags": {
          "amenity": "restaurant",
          "brand": "L'Atelier",
          "cuisine": "french",
          "name": "L'Atelier"
        }
      },
      {
        "displayName": "L'Osteria",
        "id": "losteria-8e3652",
        "locationSet": {
          "include": [
            "at",
            "ch",
            "cz",
            "de",
            "fr",
            "gb",
            "nl"
          ]
        },
        "oldid": "amenity/restaurant|L'Osteria",
        "tags": {
          "amenity": "restaurant",
          "brand": "L'Osteria",
          "brand:wikidata": "Q17323478",
          "brand:wikipedia": "de:L’Osteria",
          "cuisine": "italian",
          "name": "L'Osteria"
        }
      },
      {
        "displayName": "La Boucherie",
        "id": "laboucherie-04e62d",
        "locationSet": {"include": ["fr"]},
        "oldid": "amenity/restaurant|La Boucherie",
        "tags": {
          "amenity": "restaurant",
          "brand": "La Boucherie",
          "brand:wikidata": "Q21427479",
          "brand:wikipedia": "fr:La Boucherie (restaurant)",
          "cuisine": "steak_house",
          "name": "La Boucherie"
        }
      },
      {
        "displayName": "La Cage",
        "id": "lacage-2631d7",
        "locationSet": {"include": ["ca"]},
        "matchNames": ["la cage aux sports"],
        "oldid": "amenity/restaurant|La Cage",
        "tags": {
          "amenity": "restaurant",
          "brand": "La Cage",
          "brand:wikidata": "Q3206980",
          "brand:wikipedia": "fr:La Cage aux Sports",
          "cuisine": "burger;chicken;sandwich;fish;pasta",
          "name": "La Cage"
        }
      },
      {
        "displayName": "LaRosa's Pizzeria",
        "id": "larosaspizzeria-ecc135",
        "locationSet": {"include": ["us"]},
        "oldid": "amenity/restaurant|LaRosa's Pizzeria",
        "tags": {
          "amenity": "restaurant",
          "brand": "LaRosa's Pizzeria",
          "brand:wikidata": "Q6460833",
          "brand:wikipedia": "en:LaRosa's Pizzeria",
          "cuisine": "pizza",
          "name": "LaRosa's Pizzeria",
          "takeaway": "yes"
        }
      },
      {
        "displayName": "Ledo Pizza",
        "id": "ledopizza-ecc135",
        "locationSet": {"include": ["us"]},
        "oldid": "amenity/restaurant|Ledo Pizza",
        "tags": {
          "amenity": "restaurant",
          "brand": "Ledo Pizza",
          "brand:wikidata": "Q6512734",
          "brand:wikipedia": "en:Ledo Pizza",
          "cuisine": "pizza;pasta",
          "name": "Ledo Pizza"
        }
      },
      {
        "displayName": "Legal Sea Foods",
        "id": "legalseafoods-ecc135",
        "locationSet": {"include": ["us"]},
        "oldid": "amenity/restaurant|Legal Sea Foods",
        "tags": {
          "amenity": "restaurant",
          "brand": "Legal Sea Foods",
          "brand:wikidata": "Q6517417",
          "brand:wikipedia": "en:Legal Sea Foods",
          "cuisine": "seafood",
          "name": "Legal Sea Foods"
        }
      },
      {
        "displayName": "Les 3 Brasseurs (Qc,Br,Fr)",
        "id": "3brasseurs-3bde0b",
        "locationSet": {
          "include": ["br", "ca", "fr"]
        },
        "matchNames": ["3 brasseurs"],
        "oldid": "amenity/restaurant|Les 3 Brasseurs~(Qc,Br,Fr)",
        "tags": {
          "amenity": "restaurant",
          "brand": "3 Brasseurs",
          "brand:wikidata": "Q3230326",
          "brand:wikipedia": "fr:Les 3 Brasseurs",
          "cuisine": "burger;pizza;seafood",
          "name": "3 Brasseurs",
          "name:en": "3 Brewers",
          "official_name": "Les 3 Brasseurs"
        }
      },
      {
        "displayName": "Logan's Roadhouse",
        "id": "logansroadhouse-ecc135",
        "locationSet": {"include": ["us"]},
        "oldid": "amenity/restaurant|Logan's Roadhouse",
        "tags": {
          "amenity": "restaurant",
          "brand": "Logan's Roadhouse",
          "brand:wikidata": "Q6666872",
          "brand:wikipedia": "en:Logan's Roadhouse",
          "cuisine": "american",
          "name": "Logan's Roadhouse"
        }
      },
      {
        "displayName": "LongHorn Steakhouse",
        "id": "longhornsteakhouse-ecc135",
        "locationSet": {"include": ["us"]},
        "oldid": "amenity/restaurant|LongHorn Steakhouse",
        "tags": {
          "amenity": "restaurant",
          "brand": "LongHorn Steakhouse",
          "brand:wikidata": "Q3259007",
          "brand:wikipedia": "en:LongHorn Steakhouse",
          "cuisine": "steak_house",
          "name": "LongHorn Steakhouse"
        }
      },
      {
        "displayName": "Lou Malnati's Pizzeria",
        "id": "loumalnatispizzeria-ecc135",
        "locationSet": {"include": ["us"]},
        "oldid": "amenity/restaurant|Lou Malnati's Pizzeria",
        "tags": {
          "amenity": "restaurant",
          "brand": "Lou Malnati's Pizzeria",
          "brand:wikidata": "Q6685628",
          "brand:wikipedia": "en:Lou Malnati's Pizzeria",
          "cuisine": "pizza",
          "name": "Lou Malnati's Pizzeria"
        }
      },
      {
        "displayName": "Loving Hut",
        "id": "lovinghut-df02ff",
        "locationSet": {"include": ["001"]},
        "oldid": "amenity/restaurant|Loving Hut",
        "tags": {
          "amenity": "restaurant",
          "brand": "Loving Hut",
          "brand:wikidata": "Q3491655",
          "brand:wikipedia": "en:Loving Hut",
          "cuisine": "international",
          "diet:vegan": "only",
          "diet:vegetarian": "only",
          "name": "Loving Hut"
        }
      },
      {
        "displayName": "Luby's",
        "id": "lubys-ecc135",
        "locationSet": {"include": ["us"]},
        "oldid": "amenity/restaurant|Luby's",
        "tags": {
          "amenity": "restaurant",
          "brand": "Luby's",
          "brand:wikidata": "Q6695701",
          "brand:wikipedia": "en:Luby's",
          "cuisine": "american",
          "name": "Luby's"
        }
      },
      {
        "displayName": "Léon de Bruxelles",
        "id": "leondebruxelles-04e62d",
        "locationSet": {"include": ["fr"]},
        "oldid": "amenity/restaurant|Léon de Bruxelles",
        "tags": {
          "amenity": "restaurant",
          "brand": "Léon de Bruxelles",
          "brand:wikidata": "Q21041507",
          "brand:wikipedia": "en:Léon de Bruxelles",
          "cuisine": "friture",
          "name": "Léon de Bruxelles"
        }
      },
      {
        "displayName": "MK Restaurants",
        "id": "mkrestaurants-02bb5b",
        "locationSet": {"include": ["th"]},
        "oldid": "amenity/restaurant|MK Restaurants",
        "tags": {
          "amenity": "restaurant",
          "brand": "MK Restaurants",
          "brand:wikidata": "Q62075359",
          "cuisine": "thai",
          "name": "MK Restaurants"
        }
      },
      {
        "displayName": "Mad Mex Fresh Mexican",
        "id": "madmexfreshmexicangrill-e83100",
        "locationSet": {"include": ["au", "nz"]},
        "oldid": "amenity/restaurant|Mad Mex Fresh Mexican",
        "tags": {
          "amenity": "restaurant",
          "brand": "Mad Mex Fresh Mexican Grill",
          "brand:wikidata": "Q19589766",
          "brand:wikipedia": "en:Mad Mex Fresh Mexican Grill",
          "cuisine": "mexican",
          "name": "Mad Mex Fresh Mexican Grill"
        }
      },
      {
        "displayName": "Maquis Restaurant",
        "id": "maquisrestaurant-df02ff",
        "locationSet": {"include": ["001"]},
        "oldid": "amenity/restaurant|Maquis Restaurant",
        "tags": {
          "amenity": "restaurant",
          "brand": "Maquis Restaurant",
          "name": "Maquis Restaurant"
        }
      },
      {
        "displayName": "Marco's Pizza",
        "id": "marcospizza-ecc135",
        "locationSet": {"include": ["us"]},
        "oldid": "amenity/restaurant|Marco's Pizza",
        "tags": {
          "amenity": "restaurant",
          "brand": "Marco's Pizza",
          "brand:wikidata": "Q6757382",
          "brand:wikipedia": "en:Marco's Pizza",
          "cuisine": "pizza",
          "name": "Marco's Pizza"
        }
      },
      {
        "displayName": "Marie Callender's",
        "id": "mariecallenders-62c37e",
        "locationSet": {"include": ["mx", "us"]},
        "matchNames": [
          "marie calendar",
          "marie calendar's",
          "marie callendar's"
        ],
        "oldid": "amenity/restaurant|Marie Callender's",
        "tags": {
          "amenity": "restaurant",
          "brand": "Marie Callender's",
          "brand:wikidata": "Q6762784",
          "brand:wikipedia": "en:Marie Callender's",
          "cuisine": "american",
          "name": "Marie Callender's"
        }
      },
      {
        "displayName": "Max's Restaurant",
        "id": "maxsrestaurant-192eb5",
        "locationSet": {"include": ["ph"]},
        "matchNames": ["max's"],
        "oldid": "amenity/restaurant|Max's Restaurant",
        "tags": {
          "amenity": "restaurant",
          "brand": "Max's Restaurant",
          "brand:wikidata": "Q6794477",
          "brand:wikipedia": "en:Max's Restaurant",
          "cuisine": "asian",
          "name": "Max's Restaurant"
        }
      },
      {
        "displayName": "McAlister's Deli",
        "id": "mcalistersdeli-ecc135",
        "locationSet": {"include": ["us"]},
        "oldid": "amenity/restaurant|McAlister's Deli",
        "tags": {
          "amenity": "restaurant",
          "brand": "McAlister's Deli",
          "brand:wikidata": "Q17020829",
          "brand:wikipedia": "en:McAlister's Deli",
          "cuisine": "sandwich",
          "name": "McAlister's Deli"
        }
      },
      {
        "displayName": "McCormick & Schmick's",
        "id": "mccormickandschmicks-ecc135",
        "locationSet": {"include": ["us"]},
        "matchNames": [
          "mccormick and schmick",
          "mccormick and schmicks grill"
        ],
        "oldid": "amenity/restaurant|McCormick & Schmick's",
        "tags": {
          "amenity": "restaurant",
          "brand": "McCormick & Schmick's",
          "brand:wikidata": "Q6800562",
          "brand:wikipedia": "en:McCormick & Schmick's",
          "cuisine": "seafood;steak",
          "name": "McCormick & Schmick's"
        }
      },
      {
        "displayName": "Mellow Mushroom",
        "id": "mellowmushroom-ecc135",
        "locationSet": {"include": ["us"]},
        "oldid": "amenity/restaurant|Mellow Mushroom",
        "tags": {
          "amenity": "restaurant",
          "brand": "Mellow Mushroom",
          "brand:wikidata": "Q17021360",
          "brand:wikipedia": "en:Mellow Mushroom",
          "cuisine": "pizza",
          "name": "Mellow Mushroom"
        }
      },
      {
        "displayName": "Migros Restaurant",
        "id": "migrosrestaurant-df02ff",
        "locationSet": {"include": ["001"]},
        "oldid": "amenity/restaurant|Migros Restaurant",
        "tags": {
          "amenity": "restaurant",
          "brand": "Migros Restaurant",
          "cuisine": "international",
          "name": "Migros Restaurant"
        }
      },
      {
        "displayName": "Mikes",
        "id": "mikes-2631d7",
        "locationSet": {"include": ["ca"]},
        "oldid": "amenity/restaurant|Mikes",
        "tags": {
          "amenity": "restaurant",
          "brand": "Mikes",
          "brand:wikidata": "Q3313615",
          "brand:wikipedia": "fr:Mikes",
          "cuisine": "pizza;pasta;sandwich",
          "name": "Mikes"
        }
      },
      {
        "displayName": "Miller & Carter",
        "id": "millerandcarter-25081b",
        "locationSet": {"include": ["gb"]},
        "oldid": "amenity/restaurant|Miller & Carter",
        "tags": {
          "amenity": "restaurant",
          "brand": "Miller & Carter",
          "brand:wikidata": "Q87067401",
          "cuisine": "steak",
          "name": "Miller & Carter"
        }
      },
      {
        "displayName": "Mimi's Cafe",
        "id": "mimiscafe-ecc135",
        "locationSet": {"include": ["us"]},
        "oldid": "amenity/restaurant|Mimi's Cafe",
        "tags": {
          "amenity": "restaurant",
          "brand": "Mimi's Cafe",
          "brand:wikidata": "Q17022081",
          "brand:wikipedia": "en:Mimi's Cafe",
          "cuisine": "french",
          "name": "Mimi's Cafe"
        }
      },
      {
        "displayName": "Montana's",
        "id": "montanas-2631d7",
        "locationSet": {"include": ["ca"]},
        "oldid": "amenity/restaurant|Montana's",
        "tags": {
          "amenity": "restaurant",
          "brand": "Montana's",
          "brand:wikidata": "Q17022490",
          "brand:wikipedia": "en:Montana's BBQ & Bar",
          "cuisine": "barbecue",
          "name": "Montana's",
          "official_name": "Montana's BBQ & Bar"
        }
      },
      {
        "displayName": "Morton's The Steakhouse",
        "id": "mortonsthesteakhouse-ecc135",
        "locationSet": {"include": ["us"]},
        "matchNames": ["mortons"],
        "oldid": "amenity/restaurant|Morton's The Steakhouse",
        "tags": {
          "amenity": "restaurant",
          "brand": "Morton's The Steakhouse",
          "brand:wikidata": "Q17022759",
          "brand:wikipedia": "en:Morton's The Steakhouse",
          "cuisine": "steak_house",
          "name": "Morton's The Steakhouse"
        }
      },
      {
        "displayName": "Moses",
        "id": "moses-b6c5a5",
        "locationSet": {"include": ["il"]},
        "oldid": "amenity/restaurant|Moses",
        "tags": {
          "amenity": "restaurant",
          "brand": "Moses",
          "brand:en": "Moses",
          "brand:he": "מוזס",
          "brand:wikidata": "Q64760150",
          "cuisine": "burger",
          "name": "Moses",
          "name:en": "Moses",
          "name:he": "מוזס"
        }
      },
      {
        "displayName": "Mountain Mike's",
        "id": "mountainmikes-ecc135",
        "locationSet": {"include": ["us"]},
        "oldid": "amenity/restaurant|Mountain Mike's",
        "tags": {
          "alt_name": "Mountain Mike's Pizza",
          "amenity": "restaurant",
          "brand": "Mountain Mike's",
          "brand:wikidata": "Q6925120",
          "brand:wikipedia": "en:Mountain Mike's Pizza",
          "cuisine": "pizza",
          "name": "Mountain Mike's",
          "takeaway": "yes"
        }
      },
      {
        "displayName": "Mr. Greek",
        "id": "mrgreek-2631d7",
        "locationSet": {"include": ["ca"]},
        "oldid": "amenity/restaurant|Mr. Greek",
        "tags": {
          "amenity": "restaurant",
          "brand": "Mr. Greek",
          "brand:wikidata": "Q6928719",
          "brand:wikipedia": "en:Mr. Greek",
          "cuisine": "greek",
          "name": "Mr. Greek"
        }
      },
      {
        "displayName": "Nando's",
        "id": "nandos-df02ff",
        "locationSet": {"include": ["001"]},
        "oldid": "amenity/restaurant|Nando's",
        "tags": {
          "amenity": "restaurant",
          "brand": "Nando's",
          "brand:wikidata": "Q3472954",
          "brand:wikipedia": "en:Nando's",
          "cuisine": "chicken;portuguese",
          "name": "Nando's"
        }
      },
      {
        "displayName": "Noodles & Company",
        "id": "noodlesandcompany-ecc135",
        "locationSet": {"include": ["us"]},
        "matchNames": [
          "noodles and co",
          "noodles co",
          "noodles company"
        ],
        "oldid": "amenity/restaurant|Noodles & Company",
        "tags": {
          "amenity": "restaurant",
          "brand": "Noodles & Company",
          "brand:wikidata": "Q7049673",
          "brand:wikipedia": "en:Noodles & Company",
          "cuisine": "pasta",
          "name": "Noodles & Company"
        }
      },
      {
        "displayName": "Norky's",
        "id": "norkys-4d7bc1",
        "locationSet": {"include": ["pe"]},
        "oldid": "amenity/restaurant|Norky's",
        "tags": {
          "amenity": "restaurant",
          "brand": "Norky's",
          "cuisine": "peruvian",
          "name": "Norky's"
        }
      },
      {
        "displayName": "O'Charley's",
        "id": "ocharleys-ecc135",
        "locationSet": {"include": ["us"]},
        "oldid": "amenity/restaurant|O'Charley's",
        "tags": {
          "amenity": "restaurant",
          "brand": "O'Charley's",
          "brand:wikidata": "Q7071703",
          "brand:wikipedia": "en:O'Charley's",
          "cuisine": "american",
          "name": "O'Charley's"
        }
      },
      {
        "displayName": "Ocean Basket",
        "id": "oceanbasket-41364c",
        "locationSet": {"include": ["za"]},
        "oldid": "amenity/restaurant|Ocean Basket",
        "tags": {
          "amenity": "restaurant",
          "brand": "Ocean Basket",
          "brand:wikidata": "Q62075311",
          "cuisine": "seafood",
          "name": "Ocean Basket"
        }
      },
      {
        "displayName": "Old Chicago",
        "id": "oldchicago-ecc135",
        "locationSet": {"include": ["us"]},
        "oldid": "amenity/restaurant|Old Chicago",
        "tags": {
          "amenity": "restaurant",
          "brand": "Old Chicago",
          "brand:wikidata": "Q64411347",
          "cuisine": "pizza",
          "name": "Old Chicago",
          "official_name": "Old Chicago Pizza & Taproom"
        }
      },
      {
        "displayName": "Old Country Buffet",
        "id": "oldcountrybuffet-ecc135",
        "locationSet": {"include": ["us"]},
        "oldid": "amenity/restaurant|Old Country Buffet",
        "tags": {
          "amenity": "restaurant",
          "brand": "Old Country Buffet",
          "brand:wikidata": "Q75243208",
          "cuisine": "american",
          "name": "Old Country Buffet"
        }
      },
      {
        "displayName": "Old Wild West",
        "id": "oldwildwest-15938a",
        "locationSet": {"include": ["it"]},
        "oldid": "amenity/restaurant|Old Wild West",
        "tags": {
          "amenity": "restaurant",
          "brand": "Old Wild West",
          "brand:wikidata": "Q25402475",
          "brand:wikipedia": "it:Old Wild West",
          "cuisine": "american",
          "name": "Old Wild West"
        }
      },
      {
        "displayName": "Olive Garden",
        "id": "olivegarden-df02ff",
        "locationSet": {"include": ["001"]},
        "oldid": "amenity/restaurant|Olive Garden",
        "tags": {
          "amenity": "restaurant",
          "brand": "Olive Garden",
          "brand:wikidata": "Q3045312",
          "brand:wikipedia": "en:Olive Garden",
          "cuisine": "italian",
          "name": "Olive Garden"
        }
      },
      {
        "displayName": "On The Border",
        "id": "ontheborder-ecc135",
        "locationSet": {"include": ["us"]},
        "oldid": "amenity/restaurant|On The Border",
        "tags": {
          "amenity": "restaurant",
          "brand": "On The Border",
          "brand:wikidata": "Q7091305",
          "brand:wikipedia": "en:On the Border Mexican Grill & Cantina",
          "cuisine": "tex-mex",
          "name": "On The Border",
          "official_name": "On The Border Mexican Grill & Cantina"
        }
      },
      {
        "displayName": "Osmow's",
        "id": "osmows-2631d7",
        "locationSet": {"include": ["ca"]},
        "oldid": "amenity/restaurant|Osmow's",
        "tags": {
          "amenity": "restaurant",
          "brand": "Osmow's",
          "cuisine": "mediterranean",
          "name": "Osmow's"
        }
      },
      {
        "displayName": "Outback Steakhouse",
        "id": "outbacksteakhouse-df02ff",
        "locationSet": {"include": ["001"]},
        "oldid": "amenity/restaurant|Outback Steakhouse",
        "tags": {
          "amenity": "restaurant",
          "brand": "Outback Steakhouse",
          "brand:wikidata": "Q1064893",
          "brand:wikipedia": "en:Outback Steakhouse",
          "cuisine": "american;steak",
          "name": "Outback Steakhouse"
        }
      },
      {
        "displayName": "P.F. Chang's",
        "id": "pfchangs-62c37e",
        "locationSet": {"include": ["mx", "us"]},
        "matchNames": ["pf chang"],
        "oldid": "amenity/restaurant|P.F. Chang's",
        "tags": {
          "amenity": "restaurant",
          "brand": "P.F. Chang's",
          "brand:wikidata": "Q5360181",
          "brand:wikipedia": "en:P. F. Chang's China Bistro",
          "cuisine": "asian",
          "name": "P.F. Chang's",
          "official_name": "P.F. Chang's China Bistro"
        }
      },
      {
        "displayName": "Papa Gino's",
        "id": "papaginos-ecc135",
        "locationSet": {"include": ["us"]},
        "oldid": "amenity/restaurant|Papa Gino's",
        "tags": {
          "amenity": "restaurant",
          "brand": "Papa Gino's",
          "brand:wikidata": "Q7132333",
          "brand:wikipedia": "en:Papa Gino's",
          "cuisine": "pizza",
          "name": "Papa Gino's"
        }
      },
      {
        "displayName": "PappaRich",
        "id": "papparich-df02ff",
        "locationSet": {"include": ["001"]},
        "oldid": "amenity/restaurant|PappaRich",
        "tags": {
          "amenity": "restaurant",
          "brand": "PappaRich",
          "brand:wikidata": "Q95721282",
          "brand:wikipedia": "ms:PappaRich",
          "cuisine": "malaysian",
          "name": "PappaRich"
        }
      },
      {
        "displayName": "Pardos Chicken",
        "id": "pardoschicken-4d7bc1",
        "locationSet": {"include": ["pe"]},
        "oldid": "amenity/restaurant|Pardos Chicken",
        "tags": {
          "amenity": "restaurant",
          "brand": "Pardos Chicken",
          "brand:wikidata": "Q17624435",
          "brand:wikipedia": "en:Pardos chicken",
          "cuisine": "peruvian",
          "name": "Pardos Chicken"
        }
      },
      {
        "displayName": "Pei Wei",
        "id": "peiwei-ecc135",
        "locationSet": {"include": ["us"]},
        "matchNames": ["pei wei asian diner"],
        "oldid": "amenity/restaurant|Pei Wei",
        "tags": {
          "amenity": "restaurant",
          "brand": "Pei Wei",
          "brand:wikidata": "Q7160898",
          "brand:wikipedia": "en:Pei Wei Asian Diner",
          "cuisine": "asian",
          "name": "Pei Wei"
        }
      },
      {
        "displayName": "Pepper Lunch",
        "id": "pepperlunch-df02ff",
        "locationSet": {"include": ["001"]},
        "matchNames": ["ペッパーランチ"],
        "oldid": "amenity/restaurant|Pepper Lunch",
        "tags": {
          "amenity": "restaurant",
          "brand": "Pepper Lunch",
          "brand:wikidata": "Q1016072",
          "brand:wikipedia": "en:Pepper Lunch",
          "cuisine": "steak",
          "name": "Pepper Lunch"
        }
      },
      {
        "displayName": "Perkins",
        "id": "perkins-ecc135",
        "locationSet": {"include": ["us"]},
        "oldid": "amenity/restaurant|Perkins",
        "tags": {
          "amenity": "restaurant",
          "brand": "Perkins",
          "brand:wikidata": "Q7169056",
          "brand:wikipedia": "en:Perkins Restaurant and Bakery",
          "cuisine": "american",
          "name": "Perkins",
          "official_name": "Perkins Restaurant and Bakery"
        }
      },
      {
        "displayName": "Peter Pane",
        "id": "peterpane-52511b",
        "locationSet": {"include": ["at", "de"]},
        "oldid": "amenity/restaurant|Peter Pane",
        "tags": {
          "amenity": "restaurant",
          "brand": "Peter Pane",
          "brand:wikidata": "Q66084419",
          "cuisine": "burger",
          "name": "Peter Pane"
        }
      },
      {
        "displayName": "Peter Piper Pizza",
        "id": "peterpiperpizza-ecc135",
        "locationSet": {"include": ["us"]},
        "oldid": "amenity/restaurant|Peter Piper Pizza",
        "tags": {
          "amenity": "restaurant",
          "brand": "Peter Piper Pizza",
          "brand:wikidata": "Q7176401",
          "cuisine": "pizza",
          "name": "Peter Piper Pizza"
        }
      },
      {
        "displayName": "Phở 24",
        "id": "pho24-ccd4ee",
        "locationSet": {"include": ["vn"]},
        "oldid": "amenity/restaurant|Phở 24",
        "tags": {
          "amenity": "restaurant",
          "brand": "Phở 24",
          "brand:wikidata": "Q63863118",
          "cuisine": "vietnamese;noodle",
          "name": "Phở 24",
          "name:en": "Pho 24",
          "name:vi": "Phở 24"
        }
      },
      {
        "displayName": "Phở Hòa",
        "id": "phohoa-551f54",
        "locationSet": {
          "include": [
            "ca",
            "id",
            "kr",
            "ms",
            "ph",
            "tw",
            "us"
          ]
        },
        "oldid": "amenity/restaurant|Phở Hòa",
        "tags": {
          "alt_name": "Phở Hoà",
          "alt_name:en": "Pho Hoa",
          "alt_name:vi": "Phở Hoà",
          "amenity": "restaurant",
          "brand": "Phở Hòa",
          "brand:wikidata": "Q55629932",
          "brand:wikipedia": "en:Phở Hòa",
          "cuisine": "vietnamese;noodle",
          "name": "Phở Hòa",
          "name:vi": "Phở Hòa"
        }
      },
      {
        "displayName": "Pieology Pizzeria",
        "id": "pieologypizzeria-ecc135",
        "locationSet": {"include": ["us"]},
        "matchNames": ["pieology"],
        "oldid": "amenity/restaurant|Pieology Pizzeria",
        "tags": {
          "amenity": "restaurant",
          "brand": "Pieology Pizzeria",
          "brand:wikidata": "Q60746053",
          "brand:wikipedia": "en:Pieology",
          "cuisine": "pizza",
          "name": "Pieology Pizzeria"
        }
      },
      {
        "displayName": "Pizza Delight",
        "id": "pizzadelight-2631d7",
        "locationSet": {"include": ["ca"]},
        "oldid": "amenity/restaurant|Pizza Delight",
        "tags": {
          "amenity": "restaurant",
          "brand": "Pizza Delight",
          "brand:wikidata": "Q3389502",
          "brand:wikipedia": "en:Pizza Delight",
          "cuisine": "pizza",
          "name": "Pizza Delight"
        }
      },
      {
        "displayName": "Pizza Factory",
        "id": "pizzafactory-ecc135",
        "locationSet": {"include": ["us"]},
        "oldid": "amenity/restaurant|Pizza Factory",
        "tags": {
          "amenity": "restaurant",
          "brand": "Pizza Factory",
          "brand:wikidata": "Q39054369",
          "brand:wikipedia": "en:Pizza Factory",
          "cuisine": "pizza",
          "name": "Pizza Factory"
        }
      },
      {
        "displayName": "Pizza Hut",
        "id": "pizzahut-df02ff",
        "locationSet": {"include": ["001"]},
        "nomatch": [
          "amenity/fast_food|Pizza Hut Express"
        ],
        "oldid": "amenity/restaurant|Pizza Hut",
        "tags": {
          "amenity": "restaurant",
          "brand": "Pizza Hut",
          "brand:wikidata": "Q191615",
          "brand:wikipedia": "en:Pizza Hut",
          "cuisine": "pizza",
          "name": "Pizza Hut"
        }
      },
      {
        "displayName": "Pizza Paï",
        "id": "pizzapai-04e62d",
        "locationSet": {"include": ["fr"]},
        "nomatch": [
          "amenity/fast_food|Pizza Paï"
        ],
        "oldid": "amenity/restaurant|Pizza Paï",
        "tags": {
          "amenity": "restaurant",
          "brand": "Pizza Paï",
          "brand:wikidata": "Q3389501",
          "brand:wikipedia": "fr:PizzaPai",
          "cuisine": "pizza",
          "name": "Pizza Paï"
        }
      },
      {
        "displayName": "Pizza Ranch",
        "id": "pizzaranch-ecc135",
        "locationSet": {"include": ["us"]},
        "oldid": "amenity/restaurant|Pizza Ranch",
        "tags": {
          "amenity": "restaurant",
          "brand": "Pizza Ranch",
          "brand:wikidata": "Q7199978",
          "brand:wikipedia": "en:Pizza Ranch",
          "cuisine": "pizza",
          "name": "Pizza Ranch"
        }
      },
      {
        "displayName": "Pizza Roma",
        "id": "pizzaroma-df02ff",
        "locationSet": {"include": ["001"]},
        "oldid": "amenity/restaurant|Pizza Roma",
        "tags": {
          "amenity": "restaurant",
          "brand": "Pizza Roma",
          "cuisine": "pizza",
          "name": "Pizza Roma"
        }
      },
      {
        "displayName": "PizzaExpress",
        "id": "pizzaexpress-df02ff",
        "locationSet": {"include": ["001"]},
        "oldid": "amenity/restaurant|PizzaExpress",
        "tags": {
          "amenity": "restaurant",
          "brand": "PizzaExpress",
          "brand:wikidata": "Q662845",
          "brand:wikipedia": "en:PizzaExpress",
          "cuisine": "pizza",
          "name": "PizzaExpress"
        }
      },
      {
        "displayName": "Poivre Rouge",
        "id": "poivrerouge-04e62d",
        "locationSet": {"include": ["fr"]},
        "oldid": "amenity/restaurant|Poivre Rouge",
        "tags": {
          "amenity": "restaurant",
          "brand": "Poivre Rouge",
          "brand:wikidata": "Q7316076",
          "brand:wikipedia": "fr:Poivre Rouge (restauration)",
          "cuisine": "french",
          "name": "Poivre Rouge"
        }
      },
      {
        "displayName": "Ponderosa Steakhouse",
        "id": "ponderosasteakhouse-dfd69b",
        "locationSet": {
          "include": [
            "ae",
            "eg",
            "qa",
            "tw",
            "us"
          ]
        },
        "matchNames": ["ponderosa"],
        "oldid": "amenity/restaurant|Ponderosa Steakhouse",
        "tags": {
          "amenity": "restaurant",
          "brand": "Ponderosa Steakhouse",
          "brand:wikidata": "Q64038204",
          "cuisine": "american;steak;buffet",
          "name": "Ponderosa Steakhouse"
        }
      },
      {
        "displayName": "Prezzo",
        "id": "prezzo-25081b",
        "locationSet": {"include": ["gb"]},
        "oldid": "amenity/restaurant|Prezzo",
        "tags": {
          "amenity": "restaurant",
          "brand": "Prezzo",
          "brand:wikidata": "Q7242489",
          "brand:wikipedia": "en:Prezzo (restaurant)",
          "cuisine": "italian",
          "name": "Prezzo"
        }
      },
      {
        "displayName": "Primavera",
        "id": "primavera-df02ff",
        "locationSet": {"include": ["001"]},
        "oldid": "amenity/restaurant|Primavera",
        "tags": {
          "amenity": "restaurant",
          "brand": "Primavera",
          "name": "Primavera"
        }
      },
      {
        "displayName": "Quaker Steak & Lube",
        "id": "quakersteakandlube-ecc135",
        "locationSet": {"include": ["us"]},
        "oldid": "amenity/restaurant|Quaker Steak & Lube",
        "tags": {
          "amenity": "restaurant",
          "brand": "Quaker Steak & Lube",
          "brand:wikidata": "Q7268570",
          "brand:wikipedia": "en:Quaker Steak & Lube",
          "cuisine": "wings",
          "name": "Quaker Steak & Lube"
        }
      },
      {
        "displayName": "Rainforest Cafe",
        "id": "rainforestcafe-ecc135",
        "locationSet": {"include": ["us"]},
        "oldid": "amenity/restaurant|Rainforest Cafe",
        "tags": {
          "amenity": "restaurant",
          "brand": "Rainforest Cafe",
          "brand:wikidata": "Q3391111",
          "brand:wikipedia": "en:Rainforest Cafe",
          "cuisine": "american",
          "name": "Rainforest Cafe"
        }
      },
      {
        "displayName": "Red Lobster",
        "id": "redlobster-df02ff",
        "locationSet": {"include": ["001"]},
        "oldid": "amenity/restaurant|Red Lobster",
        "tags": {
          "amenity": "restaurant",
          "brand": "Red Lobster",
          "brand:wikidata": "Q846301",
          "brand:wikipedia": "en:Red Lobster",
          "cuisine": "seafood",
          "name": "Red Lobster"
        }
      },
      {
        "displayName": "Red Robin",
        "id": "redrobin-42d613",
        "locationSet": {"include": ["ca", "us"]},
        "oldid": "amenity/restaurant|Red Robin",
        "tags": {
          "amenity": "restaurant",
          "brand": "Red Robin",
          "brand:wikidata": "Q7304886",
          "brand:wikipedia": "en:Red Robin",
          "cuisine": "burger",
          "name": "Red Robin",
          "official_name": "Red Robin Gourmet Burgers and Brews"
        }
      },
      {
        "displayName": "Ristorante Del Arte",
        "id": "restaurant-04e62d",
        "locationSet": {"include": ["fr"]},
        "oldid": "amenity/restaurant|Ristorante Del Arte",
        "tags": {
          "amenity": "restaurant",
          "brand": "Ristorante Del Arte",
          "brand:wikidata": "Q89208262",
          "cuisine": "italian",
          "name": "restaurant"
        }
      },
      {
        "displayName": "Romano's Macaroni Grill",
        "id": "romanosmacaronigrill-ecc135",
        "locationSet": {"include": ["us"]},
        "oldid": "amenity/restaurant|Romano's Macaroni Grill",
        "tags": {
          "amenity": "restaurant",
          "brand": "Romano's Macaroni Grill",
          "brand:wikidata": "Q7362714",
          "brand:wikipedia": "en:Romano's Macaroni Grill",
          "cuisine": "italian",
          "name": "Romano's Macaroni Grill"
        }
      },
      {
        "displayName": "Round Table Pizza",
        "id": "roundtablepizza-ecc135",
        "locationSet": {"include": ["us"]},
        "matchNames": ["round table"],
        "oldid": "amenity/restaurant|Round Table Pizza",
        "tags": {
          "amenity": "restaurant",
          "brand": "Round Table Pizza",
          "brand:wikidata": "Q7371139",
          "brand:wikipedia": "en:Round Table Pizza",
          "cuisine": "pizza",
          "name": "Round Table Pizza"
        }
      },
      {
        "displayName": "Royal",
        "id": "royal-df02ff",
        "locationSet": {"include": ["001"]},
        "oldid": "amenity/restaurant|Royal",
        "tags": {
          "amenity": "restaurant",
          "brand": "Royal",
          "name": "Royal"
        }
      },
      {
        "displayName": "Ruby Tuesday",
        "id": "rubytuesday-df02ff",
        "locationSet": {"include": ["001"]},
        "oldid": "amenity/restaurant|Ruby Tuesday",
        "tags": {
          "amenity": "restaurant",
          "brand": "Ruby Tuesday",
          "brand:wikidata": "Q7376400",
          "brand:wikipedia": "en:Ruby Tuesday (restaurant)",
          "cuisine": "american",
          "name": "Ruby Tuesday"
        }
      },
      {
        "displayName": "Ruth's Chris Steak House",
        "id": "ruthschrissteakhouse-81eb02",
        "locationSet": {
          "include": ["ca", "mx", "us"]
        },
        "oldid": "amenity/restaurant|Ruth's Chris Steak House",
        "tags": {
          "amenity": "restaurant",
          "brand": "Ruth's Chris Steak House",
          "brand:wikidata": "Q7382829",
          "brand:wikipedia": "en:Ruth's Chris Steak House",
          "cuisine": "american",
          "name": "Ruth's Chris Steak House"
        }
      },
      {
        "displayName": "Saltgrass Steak House",
        "id": "saltgrasssteakhouse-ecc135",
        "locationSet": {"include": ["us"]},
        "matchNames": ["saltgrass"],
        "oldid": "amenity/restaurant|Saltgrass Steak House",
        "tags": {
          "amenity": "restaurant",
          "brand": "Saltgrass Steak House",
          "brand:wikidata": "Q7406113",
          "brand:wikipedia": "en:Saltgrass Steak House",
          "cuisine": "steak_house",
          "name": "Saltgrass Steak House"
        }
      },
      {
        "displayName": "Sausalitos",
        "id": "sausalitos-1d5352",
        "locationSet": {"include": ["de"]},
        "matchTags": ["amenity/bar"],
        "oldid": "amenity/restaurant|Sausalitos",
        "tags": {
          "amenity": "restaurant",
          "brand": "Sausalitos",
          "brand:wikidata": "Q2227783",
          "brand:wikipedia": "de:Sausalitos",
          "cuisine": "mexican",
          "name": "Sausalitos"
        }
      },
      {
        "displayName": "Scores",
        "id": "scores-2631d7",
        "locationSet": {"include": ["ca"]},
        "oldid": "amenity/restaurant|Scores",
        "tags": {
          "amenity": "restaurant",
          "brand": "Scores",
          "brand:wikidata": "Q3476059",
          "brand:wikipedia": "fr:Scores",
          "cuisine": "chicken;barbecue",
          "name": "Scores"
        }
      },
      {
        "displayName": "Shakey's",
        "id": "shakeys-df02ff",
        "locationSet": {"include": ["001"]},
        "oldid": "amenity/restaurant|Shakey's",
        "tags": {
          "amenity": "restaurant",
          "brand": "Shakey's",
          "brand:wikidata": "Q6134929",
          "brand:wikipedia": "en:Shakey's Pizza",
          "cuisine": "pizza",
          "name": "Shakey's"
        }
      },
      {
        "displayName": "Shari's",
        "id": "sharis-ecc135",
        "locationSet": {"include": ["us"]},
        "oldid": "amenity/restaurant|Shari's",
        "tags": {
          "amenity": "restaurant",
          "brand": "Shari's",
          "brand:wikidata": "Q7489612",
          "brand:wikipedia": "en:Shari's Cafe & Pies",
          "cuisine": "american",
          "name": "Shari's"
        }
      },
      {
        "displayName": "Shingle Inn",
        "id": "shingleinn-be4e7d",
        "locationSet": {"include": ["au"]},
        "oldid": "amenity/restaurant|Shingle Inn",
        "tags": {
          "amenity": "restaurant",
          "brand": "Shingle Inn",
          "brand:wikidata": "Q7497463",
          "brand:wikipedia": "en:Shingle Inn",
          "cuisine": "bakery",
          "name": "Shingle Inn"
        }
      },
      {
        "displayName": "Shoney's",
        "id": "shoneys-ecc135",
        "locationSet": {"include": ["us"]},
        "oldid": "amenity/restaurant|Shoney's",
        "tags": {
          "amenity": "restaurant",
          "brand": "Shoney's",
          "brand:wikidata": "Q7500392",
          "brand:wikipedia": "en:Shoney's",
          "cuisine": "american",
          "name": "Shoney's"
        }
      },
      {
        "displayName": "Sizzler",
        "id": "sizzler-df02ff",
        "locationSet": {"include": ["001"]},
        "oldid": "amenity/restaurant|Sizzler",
        "tags": {
          "amenity": "restaurant",
          "brand": "Sizzler",
          "brand:wikidata": "Q1848822",
          "brand:wikipedia": "en:Sizzler",
          "cuisine": "steak_house",
          "name": "Sizzler"
        }
      },
      {
        "displayName": "Skyline Chili",
        "id": "skylinechili-ecc135",
        "locationSet": {"include": ["us"]},
        "oldid": "amenity/restaurant|Skyline Chili",
        "tags": {
          "amenity": "restaurant",
          "brand": "Skyline Chili",
          "brand:wikidata": "Q151224",
          "brand:wikipedia": "en:Skyline Chili",
          "cuisine": "chili",
          "name": "Skyline Chili",
          "takeaway": "yes"
        }
      },
      {
        "displayName": "Smitty's",
        "id": "smittys-42d613",
        "locationSet": {"include": ["ca", "us"]},
        "oldid": "amenity/restaurant|Smitty's",
        "tags": {
          "amenity": "restaurant",
          "brand": "Smitty's",
          "brand:wikidata": "Q7545728",
          "brand:wikipedia": "en:Smitty's",
          "cuisine": "pancake",
          "name": "Smitty's"
        }
      },
      {
        "displayName": "Snappy Tomato Pizza",
        "id": "snappytomatopizza-ea0595",
        "locationSet": {"include": ["gb", "us"]},
        "oldid": "amenity/restaurant|Snappy Tomato Pizza",
        "tags": {
          "amenity": "restaurant",
          "brand": "Snappy Tomato Pizza",
          "brand:wikidata": "Q7547352",
          "brand:wikipedia": "en:Snappy Tomato Pizza",
          "cuisine": "pizza",
          "name": "Snappy Tomato Pizza",
          "takeaway": "yes"
        }
      },
      {
        "displayName": "Sonny's BBQ",
        "id": "sonnysbbq-ecc135",
        "locationSet": {"include": ["us"]},
        "oldid": "amenity/restaurant|Sonny's BBQ",
        "tags": {
          "amenity": "restaurant",
          "brand": "Sonny's BBQ",
          "brand:wikidata": "Q7561989",
          "brand:wikipedia": "en:Sonny's BBQ",
          "cuisine": "bbq",
          "name": "Sonny's BBQ"
        }
      },
      {
        "displayName": "Spudbar",
        "id": "spudbar-be4e7d",
        "locationSet": {"include": ["au"]},
        "oldid": "amenity/restaurant|Spudbar",
        "tags": {
          "amenity": "restaurant",
          "brand": "Spudbar",
          "brand:wikidata": "Q19589778",
          "brand:wikipedia": "en:Spudbar",
          "cuisine": "baked_potato",
          "name": "Spudbar"
        }
      },
      {
        "displayName": "Spur",
        "id": "spur-41364c",
        "locationSet": {"include": ["za"]},
        "matchNames": ["spur steak ranches"],
        "oldid": "amenity/restaurant|Spur",
        "tags": {
          "amenity": "restaurant",
          "brand": "Spur",
          "brand:wikidata": "Q7581546",
          "brand:wikipedia": "en:Spur Steak Ranches",
          "cuisine": "steak_house",
          "name": "Spur"
        }
      },
      {
        "displayName": "St-Hubert",
        "id": "sthubert-2631d7",
        "locationSet": {"include": ["ca"]},
        "nomatch": [
          "amenity/fast_food|St-Hubert Express"
        ],
        "oldid": "amenity/restaurant|St-Hubert",
        "tags": {
          "amenity": "restaurant",
          "brand": "St-Hubert",
          "brand:wikidata": "Q3495225",
          "brand:wikipedia": "fr:St-Hubert (restaurant)",
          "cuisine": "chicken;barbecue",
          "name": "St-Hubert"
        }
      },
      {
        "displayName": "St. Louis Bar & Grill",
        "id": "stlouisbarandgrill-2631d7",
        "locationSet": {"include": ["ca"]},
        "oldid": "amenity/restaurant|St. Louis Bar & Grill",
        "tags": {
          "amenity": "restaurant",
          "brand": "St. Louis Bar & Grill",
          "brand:wikidata": "Q65567668",
          "cuisine": "chicken",
          "name": "St. Louis Bar & Grill"
        }
      },
      {
        "displayName": "Stoney River",
        "id": "stoneyriver-ecc135",
        "locationSet": {"include": ["us"]},
        "oldid": "amenity/restaurant|Stoney River",
        "tags": {
          "amenity": "restaurant",
          "brand": "Stoney River",
          "brand:wikidata": "Q7619422",
          "brand:wikipedia": "en:Stoney River Legendary Steaks",
          "cuisine": "steak_house",
          "name": "Stoney River"
        }
      },
      {
        "displayName": "Sunset Grill",
        "id": "sunsetgrill-42d613",
        "locationSet": {"include": ["ca", "us"]},
        "oldid": "amenity/restaurant|Sunset Grill",
        "tags": {
          "amenity": "restaurant",
          "brand": "Sunset Grill",
          "brand:wikidata": "Q62112489",
          "brand:wikipedia": "en:Sunset Grill (Canadian restaurant chain)",
          "cuisine": "american",
          "name": "Sunset Grill"
        }
      },
      {
        "displayName": "Swiss Chalet",
        "id": "swisschalet-2631d7",
        "locationSet": {"include": ["ca"]},
        "oldid": "amenity/restaurant|Swiss Chalet",
        "tags": {
          "amenity": "restaurant",
          "brand": "Swiss Chalet",
          "brand:wikidata": "Q2372909",
          "brand:wikipedia": "en:Swiss Chalet",
          "cuisine": "chicken",
          "name": "Swiss Chalet"
        }
      },
      {
        "displayName": "TGI Friday's",
        "id": "tgifridays-df02ff",
        "locationSet": {"include": ["001"]},
        "oldid": "amenity/restaurant|TGI Friday's",
        "tags": {
          "amenity": "restaurant",
          "brand": "TGI Friday's",
          "brand:wikidata": "Q1524184",
          "brand:wikipedia": "en:TGI Fridays",
          "cuisine": "american",
          "name": "TGI Friday's"
        }
      },
      {
        "displayName": "Ted's Montana Grill",
        "id": "tedsmontanagrill-ecc135",
        "locationSet": {"include": ["us"]},
        "oldid": "amenity/restaurant|Ted's Montana Grill",
        "tags": {
          "amenity": "restaurant",
          "brand": "Ted's Montana Grill",
          "brand:wikidata": "Q16953170",
          "brand:wikipedia": "en:Ted's Montana Grill",
          "cuisine": "american",
          "name": "Ted's Montana Grill"
        }
      },
      {
        "displayName": "Tempero Manero",
        "id": "temperomanero-44498f",
        "locationSet": {"include": ["br"]},
        "oldid": "amenity/restaurant|Tempero Manero",
        "tags": {
          "amenity": "restaurant",
          "brand": "Tempero Manero",
          "cuisine": "brazilian",
          "name": "Tempero Manero"
        }
      },
      {
        "displayName": "Texas Roadhouse",
        "id": "texasroadhouse-ecc135",
        "locationSet": {"include": ["us"]},
        "oldid": "amenity/restaurant|Texas Roadhouse",
        "tags": {
          "amenity": "restaurant",
          "brand": "Texas Roadhouse",
          "brand:wikidata": "Q7707945",
          "brand:wikipedia": "en:Texas Roadhouse",
          "cuisine": "steak_house",
          "name": "Texas Roadhouse"
        }
      },
      {
        "displayName": "The Cheesecake Factory",
        "id": "thecheesecakefactory-ecc135",
        "locationSet": {"include": ["us"]},
        "oldid": "amenity/restaurant|The Cheesecake Factory",
        "tags": {
          "alt_name": "Cheesecake Factory",
          "amenity": "restaurant",
          "brand": "The Cheesecake Factory",
          "brand:wikidata": "Q1045842",
          "brand:wikipedia": "en:The Cheesecake Factory",
          "cuisine": "american",
          "name": "The Cheesecake Factory"
        }
      },
      {
        "displayName": "The Counter",
        "id": "thecounter-ecc135",
        "locationSet": {"include": ["us"]},
        "oldid": "amenity/restaurant|The Counter",
        "tags": {
          "amenity": "restaurant",
          "brand": "The Counter",
          "brand:wikidata": "Q7727763",
          "brand:wikipedia": "en:The Counter",
          "cuisine": "burger",
          "name": "The Counter"
        }
      },
      {
        "displayName": "The Keg",
        "id": "thekeg-42d613",
        "locationSet": {"include": ["ca", "us"]},
        "matchNames": ["keg"],
        "oldid": "amenity/restaurant|The Keg",
        "tags": {
          "amenity": "restaurant",
          "brand": "The Keg",
          "brand:wikidata": "Q7744066",
          "brand:wikipedia": "en:The Keg",
          "cuisine": "steak_house",
          "name": "The Keg"
        }
      },
      {
        "displayName": "The Melting Pot",
        "id": "themeltingpot-ecc135",
        "locationSet": {"include": ["us"]},
        "oldid": "amenity/restaurant|The Melting Pot",
        "tags": {
          "alt_name": "Melting Pot",
          "amenity": "restaurant",
          "brand": "The Melting Pot",
          "brand:wikidata": "Q7750948",
          "brand:wikipedia": "en:The Melting Pot (restaurant)",
          "cuisine": "fondue",
          "name": "The Melting Pot"
        }
      },
      {
        "displayName": "The Original Pancake House",
        "id": "theoriginalpancakehouse-1472ba",
        "locationSet": {
          "include": ["jp", "kr", "us"]
        },
        "matchNames": ["original pancake house"],
        "oldid": "amenity/restaurant|The Original Pancake House",
        "tags": {
          "amenity": "restaurant",
          "brand": "The Original Pancake House",
          "brand:wikidata": "Q7755384",
          "brand:wikipedia": "en:The Original Pancake House",
          "cuisine": "breakfast;pancake",
          "name": "The Original Pancake House"
        }
      },
      {
        "displayName": "Tijuana Flats",
        "id": "tijuanaflats-ecc135",
        "locationSet": {"include": ["us"]},
        "oldid": "amenity/restaurant|Tijuana Flats",
        "tags": {
          "amenity": "restaurant",
          "brand": "Tijuana Flats",
          "brand:wikidata": "Q7801833",
          "brand:wikipedia": "en:Tijuana Flats",
          "cuisine": "mexican",
          "name": "Tijuana Flats"
        }
      },
      {
        "displayName": "Tinseltown",
        "id": "tinseltown-25081b",
        "locationSet": {"include": ["gb"]},
        "oldid": "amenity/restaurant|Tinseltown",
        "tags": {
          "amenity": "restaurant",
          "brand": "Tinseltown",
          "cuisine": "american",
          "name": "Tinseltown"
        }
      },
      {
        "displayName": "Toby Carvery",
        "id": "tobycarvery-25081b",
        "locationSet": {"include": ["gb"]},
        "matchTags": ["amenity/pub"],
        "oldid": "amenity/restaurant|Toby Carvery",
        "tags": {
          "amenity": "restaurant",
          "brand": "Toby Carvery",
          "brand:wikidata": "Q7811777",
          "brand:wikipedia": "en:Toby Carvery",
          "cuisine": "british",
          "name": "Toby Carvery"
        }
      },
      {
        "displayName": "Toks",
        "id": "toks-fbac03",
        "locationSet": {"include": ["mx"]},
        "oldid": "amenity/restaurant|Toks",
        "tags": {
          "amenity": "restaurant",
          "brand": "Toks",
          "brand:wikidata": "Q48835586",
          "brand:wikipedia": "en:Toks",
          "cuisine": "mexican",
          "name": "Toks"
        }
      },
      {
        "displayName": "Tony Roma's",
        "id": "tonyromas-df02ff",
        "locationSet": {"include": ["001"]},
        "matchNames": ["tony roma"],
        "oldid": "amenity/restaurant|Tony Roma's",
        "tags": {
          "amenity": "restaurant",
          "brand": "Tony Roma's",
          "brand:wikidata": "Q2213883",
          "brand:wikipedia": "en:Tony Roma's",
          "cuisine": "barbecue",
          "name": "Tony Roma's"
        }
      },
      {
        "displayName": "Topper's Pizza (Canada)",
        "id": "topperspizza-2631d7",
        "locationSet": {"include": ["ca"]},
        "oldid": "amenity/restaurant|Topper's Pizza~(Canada)",
        "tags": {
          "amenity": "restaurant",
          "brand": "Topper's Pizza",
          "brand:wikidata": "Q7825105",
          "brand:wikipedia": "en:Topper's Pizza (Canadian restaurant)",
          "cuisine": "pizza",
          "name": "Topper's Pizza"
        }
      },
      {
        "displayName": "Toppers Pizza (USA)",
        "id": "topperspizza-ecc135",
        "locationSet": {"include": ["us"]},
        "oldid": "amenity/restaurant|Toppers Pizza~(USA)",
        "tags": {
          "amenity": "restaurant",
          "brand": "Toppers Pizza",
          "brand:wikidata": "Q7825113",
          "brand:wikipedia": "en:Toppers Pizza (American restaurant)",
          "cuisine": "pizza",
          "name": "Toppers Pizza"
        }
      },
      {
        "displayName": "Unos",
        "id": "unos-df02ff",
        "locationSet": {"include": ["001"]},
        "oldid": "amenity/restaurant|Unos",
        "tags": {
          "amenity": "restaurant",
          "brand": "Unos",
          "brand:wikidata": "Q7897209",
          "brand:wikipedia": "en:Uno Pizzeria & Grill",
          "cuisine": "pizza",
          "name": "Unos"
        }
      },
      {
        "displayName": "Vapiano",
        "id": "vapiano-df02ff",
        "locationSet": {"include": ["001"]},
        "oldid": "amenity/restaurant|Vapiano",
        "tags": {
          "amenity": "restaurant",
          "brand": "Vapiano",
          "brand:wikidata": "Q506252",
          "brand:wikipedia": "en:Vapiano",
          "cuisine": "italian",
          "name": "Vapiano"
        }
      },
      {
        "displayName": "Victoria",
        "id": "victoria-df02ff",
        "locationSet": {"include": ["001"]},
        "oldid": "amenity/restaurant|Victoria",
        "tags": {
          "amenity": "restaurant",
          "brand": "Victoria",
          "name": "Victoria"
        }
      },
      {
        "displayName": "Village Inn",
        "id": "villageinn-ecc135",
        "locationSet": {"include": ["us"]},
        "oldid": "amenity/restaurant|Village Inn",
        "tags": {
          "amenity": "restaurant",
          "brand": "Village Inn",
          "brand:wikidata": "Q7930659",
          "brand:wikipedia": "en:Village Inn",
          "cuisine": "american",
          "name": "Village Inn"
        }
      },
      {
        "displayName": "Vips (Asia)",
        "id": "vips-bda587",
        "locationSet": {"include": ["cn", "kr"]},
        "oldid": "amenity/restaurant|Vips~(Asia)",
        "tags": {
          "amenity": "restaurant",
          "brand": "Vips",
          "brand:wikidata": "Q12599540",
          "brand:wikipedia": "ko:빕스",
          "cuisine": "salad;steak_house",
          "name": "Vips"
        }
      },
      {
        "displayName": "Vips (Mexico)",
        "id": "vips-fbac03",
        "locationSet": {"include": ["mx"]},
        "oldid": "amenity/restaurant|Vips~(Mexico)",
        "tags": {
          "amenity": "restaurant",
          "brand": "Vips",
          "brand:wikidata": "Q48783378",
          "brand:wikipedia": "es:Vips",
          "cuisine": "mexican",
          "name": "Vips"
        }
      },
      {
        "displayName": "Vips (Spain)",
        "id": "vips-ebc2d0",
        "locationSet": {"include": ["es"]},
        "oldid": "amenity/restaurant|Vips~(Spain)",
        "tags": {
          "amenity": "restaurant",
          "brand": "Vips",
          "brand:wikidata": "Q66087862",
          "cuisine": "international",
          "name": "Vips"
        }
      },
      {
        "displayName": "Waffle House",
        "id": "wafflehouse-ecc135",
        "locationSet": {"include": ["us"]},
        "oldid": "amenity/restaurant|Waffle House",
        "tags": {
          "amenity": "restaurant",
          "brand": "Waffle House",
          "brand:wikidata": "Q1701206",
          "brand:wikipedia": "en:Waffle House",
          "cuisine": "american",
          "name": "Waffle House",
          "opening_hours": "24/7"
        }
      },
      {
        "displayName": "Wagamama",
        "id": "wagamama-df02ff",
        "locationSet": {"include": ["001"]},
        "oldid": "amenity/restaurant|Wagamama",
        "tags": {
          "amenity": "restaurant",
          "brand": "Wagamama",
          "brand:wikidata": "Q503715",
          "brand:wikipedia": "en:Wagamama",
          "cuisine": "asian",
          "name": "Wagamama"
        }
      },
      {
        "displayName": "Wasabi",
        "id": "wasabi-df02ff",
        "locationSet": {"include": ["001"]},
        "oldid": "amenity/restaurant|Wasabi",
        "tags": {
          "amenity": "restaurant",
          "brand": "Wasabi",
          "brand:wikidata": "Q23891278",
          "brand:wikipedia": "en:Wasabi (restaurant)",
          "cuisine": "japanese",
          "name": "Wasabi"
        }
      },
      {
        "displayName": "Western Sizzlin'",
        "id": "westernsizzlin-ecc135",
        "locationSet": {"include": ["us"]},
        "matchNames": ["western sizzling"],
        "oldid": "amenity/restaurant|Western Sizzlin'",
        "tags": {
          "amenity": "restaurant",
          "brand": "Western Sizzlin'",
          "brand:wikidata": "Q7988295",
          "brand:wikipedia": "en:Western Sizzlin'",
          "cuisine": "american;steak",
          "name": "Western Sizzlin'"
        }
      },
      {
        "displayName": "White Spot",
        "id": "whitespot-2631d7",
        "locationSet": {"include": ["ca"]},
        "oldid": "amenity/restaurant|White Spot",
        "tags": {
          "amenity": "restaurant",
          "brand": "White Spot",
          "brand:wikidata": "Q7995414",
          "brand:wikipedia": "en:White Spot",
          "cuisine": "burger",
          "name": "White Spot"
        }
      },
      {
        "displayName": "Wild Wing",
        "id": "wildwing-2631d7",
        "locationSet": {"include": ["ca"]},
        "oldid": "amenity/restaurant|Wild Wing",
        "tags": {
          "amenity": "restaurant",
          "brand": "Wild Wing",
          "brand:wikidata": "Q8000869",
          "brand:wikipedia": "en:Wild Wing Restaurants",
          "cuisine": "chicken",
          "name": "Wild Wing"
        }
      },
      {
        "displayName": "Wildwood",
        "id": "wildwood-25081b",
        "locationSet": {"include": ["gb"]},
        "oldid": "amenity/restaurant|Wildwood",
        "tags": {
          "amenity": "restaurant",
          "brand": "Wildwood",
          "brand:wikidata": "Q85300869",
          "cuisine": "grill;pasta;pizza",
          "name": "Wildwood"
        }
      },
      {
        "displayName": "YO! Sushi",
        "id": "yosushi-25081b",
        "locationSet": {"include": ["gb"]},
        "oldid": "amenity/restaurant|YO! Sushi",
        "tags": {
          "amenity": "restaurant",
          "brand": "YO! Sushi",
          "brand:wikidata": "Q3105441",
          "brand:wikipedia": "en:YO! Sushi",
          "cuisine": "sushi",
          "name": "YO! Sushi"
        }
      },
      {
        "displayName": "Yard House",
        "id": "yardhouse-ecc135",
        "locationSet": {"include": ["us"]},
        "oldid": "amenity/restaurant|Yard House",
        "tags": {
          "alcohol": "yes",
          "amenity": "restaurant",
          "brand": "Yard House",
          "brand:wikidata": "Q21189156",
          "brand:wikipedia": "en:Yard House",
          "cuisine": "american",
          "name": "Yard House"
        }
      },
      {
        "displayName": "Zambrero",
        "id": "zambrero-30024c",
        "locationSet": {
          "include": [
            "au",
            "ie",
            "nl",
            "th",
            "us"
          ]
        },
        "oldid": "amenity/restaurant|Zambrero",
        "tags": {
          "amenity": "restaurant",
          "brand": "Zambrero",
          "brand:wikidata": "Q18636431",
          "brand:wikipedia": "en:Zambrero",
          "cuisine": "mexican",
          "name": "Zambrero"
        }
      },
      {
        "displayName": "Zizzi",
        "id": "zizzi-25081b",
        "locationSet": {"include": ["gb"]},
        "oldid": "amenity/restaurant|Zizzi",
        "tags": {
          "amenity": "restaurant",
          "brand": "Zizzi",
          "brand:wikidata": "Q8072944",
          "brand:wikipedia": "en:Zizzi",
          "cuisine": "italian",
          "name": "Zizzi"
        }
      },
      {
        "displayName": "bd's Mongolian Grill",
        "id": "bdsmongoliangrill-0311e2",
        "locationSet": {"include": ["mn", "us"]},
        "matchNames": ["bd mongolian grill"],
        "oldid": "amenity/restaurant|bd's Mongolian Grill",
        "tags": {
          "amenity": "restaurant",
          "brand": "bd's Mongolian Grill",
          "brand:wikidata": "Q69890408",
          "cuisine": "mongolian_bbq",
          "name": "bd's Mongolian Grill"
        }
      },
      {
        "displayName": "dean&david",
        "id": "deananddavid-6bfe50",
        "locationSet": {
          "include": [
            "at",
            "ch",
            "de",
            "lu",
            "qa"
          ]
        },
        "oldid": "amenity/restaurant|dean&david",
        "tags": {
          "amenity": "restaurant",
          "brand": "dean&david",
          "brand:wikidata": "Q66132404",
          "cuisine": "salad;sandwich",
          "name": "dean&david"
        }
      },
      {
        "displayName": "Евразия (Russia)",
        "id": "евразия-964cf5",
        "locationSet": {"include": ["ru"]},
        "oldid": "amenity/restaurant|Евразия~(Russia)",
        "tags": {
          "amenity": "restaurant",
          "brand": "Евразия",
          "brand:wikidata": "Q66087936",
          "cuisine": "international",
          "name": "Евразия"
        }
      },
      {
        "displayName": "Евразия (Ukraine)",
        "id": "євразія-ba69e6",
        "locationSet": {"include": ["ua"]},
        "matchNames": ["євразія"],
        "oldid": "amenity/restaurant|Евразия~(Ukraine)",
        "tags": {
          "amenity": "restaurant",
          "brand": "Євразія",
          "brand:ru": "Евразия",
          "brand:uk": "Євразія",
          "brand:wikidata": "Q66088028",
          "cuisine": "western;japanese",
          "name": "Євразія",
          "name:ru": "Евразия",
          "name:uk": "Євразія"
        }
      },
      {
        "displayName": "Планета Суши",
        "id": "пnанетасуши-964cf5",
        "locationSet": {"include": ["ru"]},
        "oldid": "amenity/restaurant|Планета Суши",
        "tags": {
          "amenity": "restaurant",
          "brand": "Планета Суши",
          "brand:wikidata": "Q62739250",
          "cuisine": "sushi",
          "name": "Планета Суши",
          "name:en": "Planet Sushi"
        }
      },
      {
        "displayName": "Тануки",
        "id": "тануки-6ba6c1",
        "locationSet": {"include": ["kz", "ru"]},
        "oldid": "amenity/restaurant|Тануки",
        "tags": {
          "amenity": "restaurant",
          "brand": "Тануки",
          "brand:wikidata": "Q62758690",
          "cuisine": "japanese",
          "name": "Тануки",
          "name:en": "Tanuki",
          "name:ru": "Тануки"
        }
      },
      {
        "displayName": "Якитория",
        "id": "якитория-964cf5",
        "locationSet": {"include": ["ru"]},
        "oldid": "amenity/restaurant|Якитория",
        "tags": {
          "amenity": "restaurant",
          "brand": "Якитория",
          "brand:wikidata": "Q66088063",
          "cuisine": "japanese;international",
          "name": "Якитория"
        }
      },
      {
        "displayName": "בורגר סאלון",
        "id": "בורגרסאלון-b6c5a5",
        "locationSet": {"include": ["il"]},
        "oldid": "amenity/restaurant|בורגר סאלון",
        "tags": {
          "amenity": "restaurant",
          "brand": "בורגר סאלון",
          "brand:en": "Burger Saloon",
          "brand:he": "בורגר סאלון",
          "brand:wikidata": "Q64760057",
          "cuisine": "burger",
          "name": "בורגר סאלון",
          "name:en": "Burger Saloon",
          "name:he": "בורגר סאלון"
        }
      },
      {
        "displayName": "あさくま",
        "id": "あさくま-4c369d",
        "locationSet": {"include": ["jp"]},
        "oldid": "amenity/restaurant|あさくま",
        "tags": {
          "amenity": "restaurant",
          "brand": "あさくま",
          "brand:en": "Asakuma",
          "brand:ja": "あさくま",
          "brand:wikidata": "Q11257174",
          "brand:wikipedia": "ja:あさくま",
          "cuisine": "steak_house",
          "name": "あさくま",
          "name:en": "Asakuma",
          "name:ja": "あさくま"
        }
      },
      {
        "displayName": "いきなり！ステーキ",
        "id": "いきなりステーキ-4c369d",
        "locationSet": {"include": ["jp"]},
        "oldid": "amenity/restaurant|いきなり！ステーキ",
        "tags": {
          "amenity": "restaurant",
          "brand": "いきなり！ステーキ",
          "brand:en": "Ikinari Steak",
          "brand:ja": "いきなり！ステーキ",
          "brand:wikidata": "Q21652405",
          "brand:wikipedia": "ja:いきなり!ステーキ",
          "cuisine": "steak_house",
          "name": "いきなり！ステーキ",
          "name:en": "Ikinari Steak",
          "name:ja": "いきなり！ステーキ"
        }
      },
      {
        "displayName": "からやま",
        "id": "からやま-4c369d",
        "locationSet": {"include": ["jp"]},
        "oldid": "amenity/restaurant|からやま",
        "tags": {
          "amenity": "restaurant",
          "brand": "からやま",
          "brand:en": "Karayama",
          "brand:ja": "からやま",
          "brand:wikidata": "Q96145071",
          "cuisine": "friture",
          "name": "からやま",
          "name:en": "Karayama",
          "name:ja": "からやま"
        }
      },
      {
        "displayName": "ぎょうざの満洲",
        "id": "ぎょうざの満洲-4c369d",
        "locationSet": {"include": ["jp"]},
        "oldid": "amenity/restaurant|ぎょうざの満洲",
        "tags": {
          "amenity": "restaurant",
          "brand": "ぎょうざの満洲",
          "brand:en": "Gyoza no Mansyu",
          "brand:ja": "ぎょうざの満洲",
          "brand:wikidata": "Q11265292",
          "brand:wikipedia": "ja:ぎょうざの満洲",
          "cuisine": "chinese;gyoza",
          "name": "ぎょうざの満洲",
          "name:en": "Gyoza no Mansyu",
          "name:ja": "ぎょうざの満洲"
        }
      },
      {
        "displayName": "しゃぶ葉",
        "id": "しゃぶ葉-4c369d",
        "locationSet": {"include": ["jp"]},
        "oldid": "amenity/restaurant|しゃぶ葉",
        "tags": {
          "amenity": "restaurant",
          "brand": "しゃぶ葉",
          "brand:ja": "しゃぶ葉",
          "brand:wikidata": "Q87724264",
          "cuisine": "buffet",
          "name": "しゃぶ葉",
          "name:en": "Syabuyo",
          "name:ja": "しゃぶ葉"
        }
      },
      {
        "displayName": "すたみな太郎",
        "id": "すたみな太郎-4c369d",
        "locationSet": {"include": ["jp"]},
        "oldid": "amenity/restaurant|すたみな太郎",
        "tags": {
          "amenity": "restaurant",
          "brand": "すたみな太郎",
          "brand:en": "Stamina Taro",
          "brand:ja": "すたみな太郎",
          "brand:wikidata": "Q11269733",
          "brand:wikipedia": "ja:すたみな太郎",
          "cuisine": "barbecue",
          "name": "すたみな太郎",
          "name:en": "Stamina Taro",
          "name:ja": "すたみな太郎"
        }
      },
      {
        "displayName": "とんでん",
        "id": "とんでん-4c369d",
        "locationSet": {"include": ["jp"]},
        "oldid": "amenity/restaurant|とんでん",
        "tags": {
          "amenity": "restaurant",
          "brand": "とんでん",
          "brand:en": "Tonden",
          "brand:ja": "とんでん",
          "brand:wikidata": "Q11273585",
          "brand:wikipedia": "jp:とんでん",
          "name": "とんでん",
          "name:en": "Tonden",
          "name:ja": "とんでん"
        }
      },
      {
        "displayName": "はなまるうどん",
        "id": "はなまるうどん-4c369d",
        "locationSet": {"include": ["jp"]},
        "oldid": "amenity/restaurant|はなまるうどん",
        "tags": {
          "amenity": "restaurant",
          "brand": "はなまるうどん",
          "brand:en": "Hanamarūdon",
          "brand:ja": "はなまるうどん",
          "brand:wikidata": "Q11275674",
          "brand:wikipedia": "ja:はなまるうどん",
          "cuisine": "japanese;udon",
          "name": "はなまるうどん",
          "name:en": "Hanamarūdon",
          "name:ja": "はなまるうどん"
        }
      },
      {
        "displayName": "びっくりドンキー",
        "id": "びっくりドンキー-4c369d",
        "locationSet": {"include": ["jp"]},
        "oldid": "amenity/restaurant|びっくりドンキー",
        "tags": {
          "amenity": "restaurant",
          "brand": "びっくりドンキー",
          "brand:en": "Bikkuri Donkey",
          "brand:ja": "びっくりドンキー",
          "brand:wikidata": "Q11276815",
          "brand:wikipedia": "ja:びっくりドンキー",
          "cuisine": "burger",
          "name": "びっくりドンキー",
          "name:en": "Bikkuri Donkey",
          "name:ja": "びっくりドンキー"
        }
      },
      {
        "displayName": "やよい軒",
        "id": "やよい軒-4c369d",
        "locationSet": {"include": ["jp"]},
        "oldid": "amenity/restaurant|やよい軒",
        "tags": {
          "amenity": "restaurant",
          "brand": "やよい軒",
          "brand:en": "Yayoiken",
          "brand:ja": "やよい軒",
          "brand:wikidata": "Q11280577",
          "brand:wikipedia": "ja:やよい軒",
          "cuisine": "japanese",
          "name": "やよい軒",
          "name:en": "Yayoiken",
          "name:ja": "やよい軒"
        }
      },
      {
        "displayName": "れんげ食堂",
        "id": "れんげ食堂-4c369d",
        "locationSet": {"include": ["jp"]},
        "oldid": "amenity/restaurant|れんげ食堂",
        "tags": {
          "amenity": "restaurant",
          "brand": "れんげ食堂",
          "brand:en": "Renge Shokudo",
          "brand:ja": "れんげ食堂",
          "brand:wikidata": "Q92662226",
          "cuisine": "japanese",
          "name": "れんげ食堂",
          "name:en": "Renge Shokudo",
          "name:ja": "れんげ食堂"
        }
      },
      {
        "displayName": "カプリチョーザ",
        "id": "カプリチョーザ-4c369d",
        "locationSet": {"include": ["jp"]},
        "oldid": "amenity/restaurant|カプリチョーザ",
        "tags": {
          "amenity": "restaurant",
          "brand": "カプリチョーザ",
          "brand:en": "Capricciosa",
          "brand:ja": "カプリチョーザ",
          "brand:wikidata": "Q11294660",
          "brand:wikipedia": "ja:カプリチョーザ",
          "cuisine": "italian",
          "name": "カプリチョーザ",
          "name:en": "Capricciosa",
          "name:ja": "カプリチョーザ"
        }
      },
      {
        "displayName": "ガスト",
        "id": "ガスト-4c369d",
        "locationSet": {"include": ["jp"]},
        "nomatch": ["amenity/fast_food|Sガスト"],
        "oldid": "amenity/restaurant|ガスト",
        "tags": {
          "amenity": "restaurant",
          "brand": "ガスト",
          "brand:en": "Gusto",
          "brand:ja": "ガスト",
          "brand:wikidata": "Q87724117",
          "cuisine": "western;japanese",
          "name": "ガスト",
          "name:en": "Gusto",
          "name:ja": "ガスト"
        }
      },
      {
        "displayName": "ココス",
        "id": "ココス-4c369d",
        "locationSet": {"include": ["jp"]},
        "oldid": "amenity/restaurant|ココス",
        "tags": {
          "amenity": "restaurant",
          "brand": "ココス",
          "brand:en": "Coco's",
          "brand:ja": "ココス",
          "brand:wikidata": "Q11301951",
          "brand:wikipedia": "ja:ココスジャパン",
          "cuisine": "western;japanese",
          "name": "ココス",
          "name:en": "Coco's",
          "name:ja": "ココス"
        }
      },
      {
        "displayName": "サイゼリヤ",
        "id": "サイゼリヤ-4c369d",
        "locationSet": {"include": ["jp"]},
        "oldid": "amenity/restaurant|サイゼリヤ",
        "tags": {
          "amenity": "restaurant",
          "brand": "サイゼリヤ",
          "brand:en": "Saizeriya",
          "brand:ja": "サイゼリヤ",
          "brand:wikidata": "Q886564",
          "brand:wikipedia": "en:Saizeriya",
          "cuisine": "italian",
          "name": "サイゼリヤ",
          "name:en": "Saizeriya",
          "name:ja": "サイゼリヤ"
        }
      },
      {
        "displayName": "サガミ",
        "id": "サガミ-4c369d",
        "locationSet": {"include": ["jp"]},
        "oldid": "amenity/restaurant|サガミ",
        "tags": {
          "amenity": "restaurant",
          "brand": "サガミ",
          "brand:en": "Sagami",
          "brand:ja": "サガミ",
          "brand:wikidata": "Q11304417",
          "brand:wikipedia": "ja:サガミホールディングス",
          "cuisine": "japanese",
          "name": "サガミ",
          "name:en": "Sagami",
          "name:ja": "サガミ"
        }
      },
      {
        "displayName": "ジョイフル",
        "id": "ジョイフル-4c369d",
        "locationSet": {"include": ["jp"]},
        "oldid": "amenity/restaurant|ジョイフル",
        "tags": {
          "amenity": "restaurant",
          "brand": "ジョイフル",
          "brand:en": "Joyfull",
          "brand:ja": "ジョイフル",
          "brand:wikidata": "Q11310517",
          "brand:wikipedia": "ja:ジョイフル",
          "cuisine": "western",
          "name": "ジョイフル",
          "name:en": "Joyfull",
          "name:ja": "ジョイフル"
        }
      },
      {
        "displayName": "ジョナサン",
        "id": "ジョナサン-4c369d",
        "locationSet": {"include": ["jp"]},
        "oldid": "amenity/restaurant|ジョナサン",
        "tags": {
          "amenity": "restaurant",
          "brand": "ジョナサン",
          "brand:en": "Jonathan's",
          "brand:ja": "ジョナサン",
          "brand:wikidata": "Q11310628",
          "brand:wikipedia": "ja:ジョナサン (ファミリーレストラン)",
          "cuisine": "italian;japanese",
          "name": "ジョナサン",
          "name:en": "Jonathan's",
          "name:ja": "ジョナサン"
        }
      },
      {
        "displayName": "ジョリーパスタ",
        "id": "ジョリーパスタ-4c369d",
        "locationSet": {"include": ["jp"]},
        "oldid": "amenity/restaurant|ジョリーパスタ",
        "tags": {
          "amenity": "restaurant",
          "brand": "ジョリーパスタ",
          "brand:en": "Jolly-Pasta",
          "brand:ja": "ジョリーパスタ",
          "brand:wikidata": "Q10852718",
          "brand:wikipedia": "ja:ジョリーパスタ",
          "cuisine": "pasta",
          "name": "ジョリーパスタ",
          "name:en": "Jolly-Pasta",
          "name:ja": "ジョリーパスタ"
        }
      },
      {
        "displayName": "ステーキのどん",
        "id": "ステーキのどん-4c369d",
        "locationSet": {"include": ["jp"]},
        "oldid": "amenity/restaurant|ステーキのどん",
        "tags": {
          "amenity": "restaurant",
          "brand": "ステーキのどん",
          "brand:en": "Steak Don",
          "brand:ja": "ステーキのどん",
          "brand:wikidata": "Q92770815",
          "cuisine": "steak",
          "name": "ステーキのどん",
          "name:en": "Steak Don",
          "name:ja": "ステーキのどん"
        }
      },
      {
        "displayName": "ステーキガスト",
        "id": "ステーキガスト-4c369d",
        "locationSet": {"include": ["jp"]},
        "oldid": "amenity/restaurant|ステーキガスト",
        "tags": {
          "amenity": "restaurant",
          "brand": "ステーキガスト",
          "brand:en": "Steak Gusto",
          "brand:ja": "ステーキガスト",
          "brand:wikidata": "Q92599119",
          "cuisine": "steak",
          "name": "ステーキガスト",
          "name:en": "Steak Gusto",
          "name:ja": "ステーキガスト"
        }
      },
      {
        "displayName": "デニーズ",
        "id": "デニーズ-4c369d",
        "locationSet": {"include": ["jp"]},
        "oldid": "amenity/restaurant|デニーズ",
        "tags": {
          "amenity": "restaurant",
          "brand": "デニーズ",
          "brand:en": "Denny's",
          "brand:ja": "デニーズ",
          "brand:wikidata": "Q11320661",
          "brand:wikipedia": "ja:デニーズ (日本)",
          "cuisine": "western;japanese",
          "name": "デニーズ",
          "name:en": "Denny's",
          "name:ja": "デニーズ"
        }
      },
      {
        "displayName": "トマト＆オニオン",
        "id": "トマトオニオン-4c369d",
        "locationSet": {"include": ["jp"]},
        "oldid": "amenity/restaurant|トマト＆オニオン",
        "tags": {
          "amenity": "restaurant",
          "brand": "トマト＆オニオン",
          "brand:en": "Tomato & Onion",
          "brand:ja": "トマト＆オニオン",
          "brand:wikidata": "Q11321395",
          "brand:wikipedia": "ja:トマトアンドアソシエイツ",
          "cuisine": "steak_house",
          "name": "トマト＆オニオン",
          "name:en": "Tomato & Onion",
          "name:ja": "トマト＆オニオン"
        }
      },
      {
        "displayName": "バーミヤン",
        "id": "バーミヤン-4c369d",
        "locationSet": {"include": ["jp"]},
        "oldid": "amenity/restaurant|バーミヤン",
        "tags": {
          "amenity": "restaurant",
          "brand": "バーミヤン",
          "brand:en": "Bamiyan",
          "brand:ja": "バーミヤン",
          "brand:wikidata": "Q11328598",
          "brand:wikipedia": "ja:バーミヤン (レストランチェーン)",
          "cuisine": "chinese",
          "name": "バーミヤン",
          "name:en": "Bamiyan",
          "name:ja": "バーミヤン"
        }
      },
      {
        "displayName": "ビッグボーイ",
        "id": "ビッグボーイ-4c369d",
        "locationSet": {"include": ["jp"]},
        "oldid": "amenity/restaurant|ビッグボーイ",
        "tags": {
          "amenity": "restaurant",
          "brand": "ビッグボーイ",
          "brand:en": "Big Boy Restaurants",
          "brand:ja": "ビッグボーイ",
          "brand:wikidata": "Q4386779",
          "brand:wikipedia": "en:Big Boy Restaurants",
          "cuisine": "burger",
          "name": "ビッグボーイ",
          "name:en": "Big Boy Restaurants",
          "name:ja": "ビッグボーイ"
        }
      },
      {
        "displayName": "リンガーハット",
        "id": "リンガーハット-4c369d",
        "locationSet": {"include": ["jp"]},
        "oldid": "amenity/restaurant|リンガーハット",
        "tags": {
          "amenity": "restaurant",
          "brand": "リンガーハット",
          "brand:en": "Ringer Hut",
          "brand:ja": "リンガーハット",
          "brand:wikidata": "Q7334856",
          "brand:wikipedia": "en:Ringer Hut",
          "cuisine": "japanese",
          "name": "リンガーハット",
          "name:en": "Ringer Hut",
          "name:ja": "リンガーハット"
        }
      },
      {
        "displayName": "ロイヤルホスト",
        "id": "ロイヤルホスト-4c369d",
        "locationSet": {"include": ["jp"]},
        "oldid": "amenity/restaurant|ロイヤルホスト",
        "tags": {
          "amenity": "restaurant",
          "brand": "ロイヤルホスト",
          "brand:en": "Royal Host",
          "brand:ja": "ロイヤルホスト",
          "brand:wikidata": "Q11120884",
          "brand:wikipedia": "ja:ロイヤルホスト",
          "cuisine": "japanese;italian;french",
          "name": "ロイヤルホスト",
          "name:en": "Royal Host",
          "name:ja": "ロイヤルホスト"
        }
      },
      {
        "displayName": "一風堂",
        "id": "町田商店-4c369d",
        "locationSet": {"include": ["jp"]},
        "oldid": "amenity/restaurant|一風堂",
        "tags": {
          "amenity": "restaurant",
          "brand": "町田商店",
          "brand:en": "Machida Shouten",
          "brand:ja": "町田商店",
          "brand:wikidata": "Q88318612",
          "cuisine": "noodle",
          "name": "町田商店",
          "name:en": "Machida Shouten",
          "name:ja": "町田商店"
        }
      },
      {
        "displayName": "三媽臭臭鍋",
        "id": "三媽臭臭鍋-58e3f9",
        "locationSet": {"include": ["tw"]},
        "oldid": "amenity/restaurant|三媽臭臭鍋",
        "tags": {
          "amenity": "restaurant",
          "brand": "三媽臭臭鍋",
          "cuisine": "taiwanese",
          "name": "三媽臭臭鍋",
          "name:zh": "三媽臭臭鍋"
        }
      },
      {
        "displayName": "东来顺",
        "id": "东来顺-83411b",
        "locationSet": {"include": ["cn"]},
        "oldid": "amenity/restaurant|东来顺",
        "tags": {
          "amenity": "restaurant",
          "brand": "东来顺",
          "brand:en": "Dong Lai Shun",
          "brand:wikidata": "Q10870490",
          "brand:wikipedia": "zh:东来顺",
          "brand:zh": "东来顺",
          "cuisine": "chinese",
          "name": "东来顺",
          "name:en": "Dong Lai Shun",
          "name:zh": "东来顺"
        }
      },
      {
        "displayName": "丸亀製麺",
        "id": "丸亀製麺-4c369d",
        "locationSet": {"include": ["jp"]},
        "oldid": "amenity/restaurant|丸亀製麺",
        "tags": {
          "amenity": "restaurant",
          "brand": "丸亀製麺",
          "brand:en": "Marugame Seimen",
          "brand:ja": "丸亀製麺",
          "brand:wikidata": "Q10877253",
          "brand:wikipedia": "ja:丸亀製麺",
          "cuisine": "noodle",
          "name": "丸亀製麺",
          "name:en": "Marugame Seimen",
          "name:ja": "丸亀製麺"
        }
      },
      {
        "displayName": "便宜坊",
        "id": "便宜坊-83411b",
        "locationSet": {"include": ["cn"]},
        "oldid": "amenity/restaurant|便宜坊",
        "tags": {
          "amenity": "restaurant",
          "brand": "便宜坊",
          "brand:en": "Bianyifang",
          "brand:wikidata": "Q1049599",
          "brand:wikipedia": "zh:便宜坊",
          "brand:zh": "便宜坊",
          "cuisine": "chinese",
          "name": "便宜坊",
          "name:en": "Bianyifang",
          "name:zh": "便宜坊"
        }
      },
      {
        "displayName": "元気寿司",
        "id": "元気寿司-4c369d",
        "locationSet": {"include": ["jp"]},
        "oldid": "amenity/restaurant|元気寿司",
        "tags": {
          "amenity": "restaurant",
          "brand": "元気寿司",
          "brand:en": "Genki Sushi",
          "brand:ja": "元気寿司",
          "brand:wikidata": "Q5533323",
          "brand:wikipedia": "ja:元気寿司",
          "cuisine": "sushi",
          "name": "元気寿司",
          "name:en": "Genki Sushi",
          "name:ja": "元気寿司"
        }
      },
      {
        "displayName": "全聚德",
        "id": "全聚德-83411b",
        "locationSet": {"include": ["cn"]},
        "oldid": "amenity/restaurant|全聚德",
        "tags": {
          "amenity": "restaurant",
          "brand": "全聚德",
          "brand:en": "Quanjude",
          "brand:wikidata": "Q3269017",
          "brand:wikipedia": "zh:全聚德",
          "brand:zh": "全聚德",
          "cuisine": "chinese",
          "name": "全聚德",
          "name:en": "Quanjude",
          "name:zh": "全聚德"
        }
      },
      {
        "displayName": "八方雲集",
        "id": "八方雲集-0bd26d",
        "locationSet": {"include": ["cn", "tw"]},
        "oldid": "amenity/restaurant|八方雲集",
        "tags": {
          "amenity": "restaurant",
          "brand": "八方雲集",
          "brand:en": "Eight Way",
          "brand:wikidata": "Q28417381",
          "brand:wikipedia": "zh:八方雲集",
          "brand:zh": "八方雲集",
          "cuisine": "chinese",
          "name": "八方雲集",
          "name:en": "Eight Way",
          "name:zh": "八方雲集"
        }
      },
      {
        "displayName": "南京大牌档",
        "id": "南京大牌档-83411b",
        "locationSet": {"include": ["cn"]},
        "oldid": "amenity/restaurant|南京大牌档",
        "tags": {
          "amenity": "restaurant",
          "brand": "南京大牌档",
          "brand:wikidata": "Q48898937",
          "brand:wikipedia": "zh:南京大牌档",
          "cuisine": "chinese",
          "name": "南京大牌档"
        }
      },
      {
        "displayName": "味千拉面",
        "id": "味千拉面-83411b",
        "locationSet": {"include": ["cn"]},
        "oldid": "amenity/restaurant|味千拉面",
        "tags": {
          "amenity": "restaurant",
          "brand": "味千拉面",
          "brand:en": "Ajisen Ramen",
          "brand:ja": "味千ラーメン",
          "brand:wikidata": "Q4699761",
          "brand:wikipedia": "zh:味千拉面",
          "cuisine": "ramen",
          "name": "味千拉面",
          "name:en": "Ajisen Ramen",
          "name:ja": "味千ラーメン"
        }
      },
      {
        "displayName": "呷哺呷哺",
        "id": "呷哺呷哺-83411b",
        "locationSet": {"include": ["cn"]},
        "oldid": "amenity/restaurant|呷哺呷哺",
        "tags": {
          "amenity": "restaurant",
          "brand": "呷哺呷哺",
          "brand:en": "Xiabuxiabu",
          "brand:wikidata": "Q10866036",
          "brand:wikipedia": "zh:呷哺呷哺",
          "brand:zh": "呷哺呷哺",
          "cuisine": "chinese",
          "name": "呷哺呷哺",
          "name:en": "Xiabuxiabu",
          "name:zh": "呷哺呷哺"
        }
      },
      {
        "displayName": "和幸",
        "id": "和幸-4c369d",
        "locationSet": {"include": ["jp"]},
        "oldid": "amenity/restaurant|和幸",
        "tags": {
          "amenity": "restaurant",
          "brand": "和幸",
          "brand:en": "Wako",
          "brand:ja": "和幸",
          "brand:wikidata": "Q11417251",
          "brand:wikipedia": "ja:和幸商事",
          "cuisine": "japanese",
          "name": "和幸",
          "name:en": "Wako",
          "name:ja": "和幸"
        }
      },
      {
        "displayName": "和食さと",
        "id": "和食さと-4c369d",
        "locationSet": {"include": ["jp"]},
        "matchNames": ["さと"],
        "oldid": "amenity/restaurant|和食さと",
        "tags": {
          "amenity": "restaurant",
          "brand": "和食さと",
          "brand:en": "Washoku Sato",
          "brand:ja": "和食さと",
          "brand:wikidata": "Q11304897",
          "brand:wikipedia": "ja:SRSホールディングス",
          "cuisine": "japanese",
          "name": "和食さと",
          "name:en": "Washoku Sato",
          "name:ja": "和食さと"
        }
      },
      {
        "displayName": "夢庵",
        "id": "夢庵-4c369d",
        "locationSet": {"include": ["jp"]},
        "oldid": "amenity/restaurant|夢庵",
        "tags": {
          "amenity": "restaurant",
          "brand": "夢庵",
          "brand:en": "Yumean",
          "brand:ja": "夢庵",
          "brand:wikidata": "Q11253593",
          "brand:wikipedia": "ja:すかいらーく",
          "cuisine": "japanese",
          "name": "夢庵",
          "name:en": "Yumean",
          "name:ja": "夢庵"
        }
      },
      {
        "displayName": "大戸屋",
        "id": "大戸屋-4c369d",
        "locationSet": {"include": ["jp"]},
        "oldid": "amenity/restaurant|大戸屋",
        "tags": {
          "amenity": "restaurant",
          "brand": "大戸屋",
          "brand:en": "Ootoya",
          "brand:ja": "大戸屋",
          "brand:wikidata": "Q11435522",
          "brand:wikipedia": "ja:大戸屋ホールディングス",
          "cuisine": "japanese",
          "name": "大戸屋",
          "name:en": "Ootoya",
          "name:ja": "大戸屋"
        }
      },
      {
        "displayName": "大阪王将",
        "id": "大阪王将-4c369d",
        "locationSet": {"include": ["jp"]},
        "oldid": "amenity/restaurant|大阪王将",
        "tags": {
          "amenity": "restaurant",
          "brand": "大阪王将",
          "brand:en": "Osaka Ohsho",
          "brand:ja": "大阪王将",
          "brand:wikidata": "Q48743717",
          "brand:wikipedia": "ja:大阪王将",
          "cuisine": "japanese;chinese",
          "name": "大阪王将",
          "name:en": "Osaka Ohsho",
          "name:ja": "大阪王将"
        }
      },
      {
        "displayName": "天下一品",
        "id": "天下一品-4c369d",
        "locationSet": {"include": ["jp"]},
        "oldid": "amenity/restaurant|天下一品",
        "tags": {
          "amenity": "restaurant",
          "brand": "天下一品",
          "brand:en": "Tenkaippin",
          "brand:ja": "天下一品",
          "brand:wikidata": "Q11442172",
          "brand:wikipedia": "en:Tenkaippin",
          "cuisine": "ramen",
          "name": "天下一品",
          "name:en": "Tenkaippin",
          "name:ja": "天下一品"
        }
      },
      {
        "displayName": "安楽亭",
        "id": "安楽亭-4c369d",
        "locationSet": {"include": ["jp"]},
        "oldid": "amenity/restaurant|安楽亭",
        "tags": {
          "amenity": "restaurant",
          "brand": "安楽亭",
          "brand:en": "Anrakutei",
          "brand:ja": "安楽亭",
          "brand:wikidata": "Q11450866",
          "brand:wikipedia": "ja:安楽亭",
          "cuisine": "barbecue",
          "name": "安楽亭",
          "name:en": "Anrakutei",
          "name:ja": "安楽亭"
        }
      },
      {
        "displayName": "弘爺漢堡",
        "id": "弘爺漢堡-58e3f9",
        "locationSet": {"include": ["tw"]},
        "oldid": "amenity/restaurant|弘爺漢堡",
        "tags": {
          "amenity": "restaurant",
          "brand": "弘爺漢堡",
          "cuisine": "american;breakfast",
          "name": "弘爺漢堡",
          "name:en": "Hong Ya Hambuger"
        }
      },
      {
        "displayName": "必胜客",
        "id": "必胜客-83411b",
        "locationSet": {"include": ["cn"]},
        "oldid": "amenity/restaurant|必胜客",
        "tags": {
          "amenity": "restaurant",
          "brand": "必胜客",
          "brand:en": "Pizza Hut",
          "brand:wikidata": "Q191615",
          "brand:wikipedia": "en:Pizza Hut",
          "brand:zh": "必胜客",
          "cuisine": "pizza",
          "name": "必胜客",
          "name:en": "Pizza Hut",
          "name:zh": "必胜客"
        }
      },
      {
        "displayName": "拉亞漢堡",
        "id": "拉亞漢堡-df02ff",
        "locationSet": {"include": ["001"]},
        "oldid": "amenity/restaurant|拉亞漢堡",
        "tags": {
          "amenity": "restaurant",
          "brand": "拉亞漢堡",
          "name": "拉亞漢堡"
        }
      },
      {
        "displayName": "木曽路",
        "id": "木曽路-4c369d",
        "locationSet": {"include": ["jp"]},
        "oldid": "amenity/restaurant|木曽路",
        "tags": {
          "amenity": "restaurant",
          "brand": "木曽路",
          "brand:en": "Kisoji",
          "brand:ja": "木曽路",
          "brand:wikidata": "Q11518589",
          "brand:wikipedia": "ja:木曽路 (企業)",
          "cuisine": "japanese",
          "name": "木曽路",
          "name:en": "Kisoji",
          "name:ja": "木曽路"
        }
      },
      {
        "displayName": "永和豆浆",
        "id": "永和豆浆-83411b",
        "locationSet": {"include": ["cn"]},
        "oldid": "amenity/restaurant|永和豆浆",
        "tags": {
          "amenity": "restaurant",
          "brand": "永和豆浆",
          "brand:en": "Yonghe Soy Milk",
          "cuisine": "chinese;breakfast",
          "name": "永和豆浆",
          "name:en": "Yonghe Soy Milk"
        }
      },
      {
        "displayName": "海底捞火锅",
        "id": "海底捞火锅-83411b",
        "locationSet": {"include": ["cn"]},
        "oldid": "amenity/restaurant|海底捞火锅",
        "tags": {
          "amenity": "restaurant",
          "brand": "海底捞火锅",
          "brand:en": "Hai Di Lao Hot Pot",
          "brand:wikidata": "Q5638920",
          "brand:wikipedia": "zh:海底捞",
          "cuisine": "chinese",
          "name": "海底捞火锅",
          "name:en": "Hai Di Lao Hot Pot"
        }
      },
      {
        "displayName": "牛角",
        "id": "牛角-4c369d",
        "locationSet": {"include": ["jp"]},
        "oldid": "amenity/restaurant|牛角",
        "tags": {
          "amenity": "restaurant",
          "brand": "牛角",
          "brand:en": "Gyū-Kaku",
          "brand:ja": "牛角",
          "brand:wikidata": "Q11349387",
          "brand:wikipedia": "en:Gyu-Kaku",
          "cuisine": "barbecue",
          "name": "牛角",
          "name:en": "Gyū-Kaku",
          "name:ja": "牛角"
        }
      },
      {
        "displayName": "華屋与兵衛",
        "id": "華屋与兵衛-4c369d",
        "locationSet": {"include": ["jp"]},
        "oldid": "amenity/restaurant|華屋与兵衛",
        "tags": {
          "amenity": "restaurant",
          "brand": "華屋与兵衛",
          "brand:en": "Hanaya Yohei",
          "brand:ja": "華屋与兵衛",
          "brand:wikidata": "Q11620063",
          "brand:wikipedia": "ja:華屋与兵衛 (レストラン)",
          "cuisine": "japanese",
          "name": "華屋与兵衛",
          "name:en": "Hanaya Yohei",
          "name:ja": "華屋与兵衛"
        }
      },
      {
        "displayName": "餃子の王将",
        "id": "餃子の王将-4c369d",
        "locationSet": {"include": ["jp"]},
        "oldid": "amenity/restaurant|餃子の王将",
        "tags": {
          "amenity": "restaurant",
          "brand": "餃子の王将",
          "brand:en": "Gyoza no Ohsho",
          "brand:ja": "餃子の王将",
          "brand:wikidata": "Q11666805",
          "brand:wikipedia": "en:Gyoza no Ohsho",
          "cuisine": "chinese;gyoza",
          "name": "餃子の王将",
          "name:en": "Gyoza no Ohsho",
          "name:ja": "餃子の王将"
        }
      },
      {
        "displayName": "鮮芋仙",
        "id": "鮮芋仙-0bd26d",
        "locationSet": {"include": ["cn", "tw"]},
        "oldid": "amenity/restaurant|鮮芋仙",
        "tags": {
          "amenity": "restaurant",
          "brand": "鮮芋仙",
          "brand:en": "Meet Fresh",
          "brand:wikidata": "Q11172707",
          "brand:wikipedia": "zh:鮮芋仙",
          "cuisine": "taiwanese",
          "name": "鮮芋仙",
          "name:en": "Meet Fresh"
        }
      },
      {
        "displayName": "麥味登",
        "id": "麥味登-58e3f9",
        "locationSet": {"include": ["tw"]},
        "oldid": "amenity/restaurant|麥味登",
        "tags": {
          "amenity": "restaurant",
          "brand": "麥味登",
          "cuisine": "american;breakfast",
          "name": "麥味登",
          "name:en": "My Warn Day Care & Brunch"
        }
      },
      {
        "displayName": "바다횟집",
        "id": "바다횟집-317e61",
        "locationSet": {"include": ["kr"]},
        "oldid": "amenity/restaurant|바다횟집",
        "tags": {
          "amenity": "restaurant",
          "brand": "바다횟집",
          "brand:en": "Bada Fish Restaurant",
          "brand:ko": "바다횟집",
          "cuisine": "fish",
          "name": "바다횟집",
          "name:en": "Bada Fish Restaurant",
          "name:ko": "바다횟집"
        }
      },
      {
        "displayName": "빕스",
        "id": "빕스-317e61",
        "locationSet": {"include": ["kr"]},
        "oldid": "amenity/restaurant|빕스",
        "tags": {
          "amenity": "restaurant",
          "brand": "빕스",
          "brand:en": "Vips",
          "brand:ko": "빕스",
          "brand:wikidata": "Q12599540",
          "brand:wikipedia": "ko:빕스",
          "cuisine": "salad;steak_house",
          "name": "빕스",
          "name:en": "Vips",
          "name:ko": "빕스"
        }
      }
    ]
  }
}