{
  "amenity/vehicle_inspection|Autosur": {
    "countryCodes": ["fr"],
    "tags": {
      "amenity": "vehicle_inspection",
      "brand": "Autosur",
      "brand:wikidata": "Q64224807",
      "name": "Autosur"
    }
  },
  "amenity/vehicle_inspection|Autovision": {
    "countryCodes": ["fr"],
    "tags": {
      "amenity": "vehicle_inspection",
      "brand": "Autovision",
      "brand:wikidata": "Q64224842",
      "name": "Autovision"
    }
  },
  "amenity/vehicle_inspection|Dekra": {
    "countryCodes": ["de", "fr"],
    "tags": {
      "amenity": "vehicle_inspection",
      "brand": "Dekra",
      "brand:wikidata": "Q383711",
      "brand:wikipedia": "en:Dekra",
      "name": "Dekra",
      "official_name": "Dekra Automotive"
    }
  },
  "amenity/vehicle_inspection|Sécuritest": {
    "countryCodes": ["fr"],
    "tags": {
      "amenity": "vehicle_inspection",
      "brand": "Sécuritest",
      "brand:wikidata": "Q64224992",
      "name": "Sécuritest"
    }
  },
  "amenity/vehicle_inspection|TÜV Rheinland": {
    "countryCodes": ["de"],
    "tags": {
      "amenity": "vehicle_inspection",
      "brand": "TÜV Rheinland",
      "brand:wikidata": "Q632391",
      "brand:wikipedia": "de:TÜV Rheinland",
      "name": "TÜV Rheinland",
      "short_name": "TÜV"
    }
  }
}