{
  "amenity/vending_machine|Automat ŚKUP": {
    "count": 111,
    "tags": {
      "amenity": "vending_machine",
      "brand": "Automat ŚKUP",
      "name": "Automat ŚKUP"
    }
  },
  "amenity/vending_machine|BKK-automata": {
    "count": 124,
    "tags": {
      "amenity": "vending_machine",
      "brand": "BKK-automata",
      "name": "BKK-automata"
    }
  },
  "amenity/vending_machine|DHL Packstation": {
    "count": 77,
    "logos": {
      "wikidata": "https://commons.wikimedia.org/w/index.php?title=Special%3ARedirect%2Ffile%2FDHL%20Logo.svg&width=100",
      "facebook": "https://graph.facebook.com/dhl/picture?type=square",
      "twitter": "https://pbs.twimg.com/profile_images/565097171377086464/sw0nS-B6_bigger.jpeg"
    },
    "match": [
      "amenity/vending_machine|Packstation"
    ],
    "tags": {
      "amenity": "vending_machine",
      "brand": "DHL",
      "brand:wikidata": "Q489815",
      "brand:wikipedia": "en:DHL Express",
      "name": "DHL Packstation",
      "operator": "DHL",
      "vending": "parcel_pickup;parcel_mail_in"
    }
  },
  "amenity/vending_machine|Dog-Station": {
    "count": 189,
    "tags": {
      "amenity": "vending_machine",
      "brand": "Dog-Station",
      "name": "Dog-Station"
    }
  },
  "amenity/vending_machine|KKM": {
    "count": 85,
    "countryCodes": ["pl"],
    "tags": {
      "amenity": "vending_machine",
      "brand": "KKM",
      "brand:wikidata": "Q57515549",
      "name": "KKM",
      "vending": "public_transport_tickets"
    }
  },
  "amenity/vending_machine|Paczkomat InPost": {
    "count": 237,
    "countryCodes": ["pl"],
    "logos": {
      "wikidata": "https://commons.wikimedia.org/w/index.php?title=Special%3ARedirect%2Ffile%2FInPost%20logo.svg&width=100"
    },
    "tags": {
      "amenity": "vending_machine",
      "brand": "InPost",
      "brand:wikidata": "Q3182097",
      "brand:wikipedia": "pl:InPost",
      "name": "Paczkomat InPost",
      "vending": "parcel_pickup;parcel_mail_in"
    }
  },
  "amenity/vending_machine|Paketbox": {
    "count": 52,
    "tags": {
      "amenity": "vending_machine",
      "brand": "Paketbox",
      "name": "Paketbox"
    }
  },
  "amenity/vending_machine|ParkPlus": {
    "count": 56,
    "tags": {
      "amenity": "vending_machine",
      "brand": "ParkPlus",
      "name": "ParkPlus"
    }
  },
  "amenity/vending_machine|Redbox": {
    "count": 172,
    "logos": {
      "wikidata": "https://commons.wikimedia.org/w/index.php?title=Special%3ARedirect%2Ffile%2FRedbox%20logo16.png&width=100",
      "twitter": "https://pbs.twimg.com/profile_images/1034645214764453888/g48C6W9j_bigger.jpg"
    },
    "tags": {
      "amenity": "vending_machine",
      "brand": "Redbox",
      "brand:wikidata": "Q7305489",
      "brand:wikipedia": "en:Redbox",
      "name": "Redbox"
    }
  },
  "amenity/vending_machine|Robidog": {
    "count": 127,
    "countryCodes": ["ch"],
    "tags": {
      "amenity": "vending_machine",
      "brand": "Robidog",
      "brand:wikidata": "Q2159689",
      "brand:wikipedia": "de:Robidog",
      "name": "Robidog"
    }
  },
  "amenity/vending_machine|Tobaccoland": {
    "count": 99,
    "countryCodes": ["de"],
    "tags": {
      "amenity": "vending_machine",
      "brand": "Tobaccoland",
      "brand:wikidata": "Q1439872",
      "brand:wikipedia": "de:Tobaccoland Automatengesellschaft",
      "name": "Tobaccoland"
    }
  },
  "amenity/vending_machine|VVO Fahrausweise": {
    "count": 128,
    "tags": {
      "amenity": "vending_machine",
      "brand": "VVO Fahrausweise",
      "name": "VVO Fahrausweise",
      "operator": "Verkehrsverbund Oberelbe",
      "operator:wikidata": "Q1426445",
      "operator:wikipedia": "en:Verkehrsverbund Oberelbe"
    }
  },
  "amenity/vending_machine|Ключ здоровья": {
    "count": 131,
    "countryCodes": ["ru"],
    "match": ["shop/water|Ключ здоровья"],
    "tags": {
      "amenity": "vending_machine",
      "brand": "Ключ здоровья",
      "name": "Ключ здоровья",
      "vending": "water"
    }
  }
}